{
"type": "FeatureCollection",
"name": "cli",
"crs": { "type": "name", "properties": { "name": "urn:ogc:def:crs:OGC:1.3:CRS84" } },
"xy_coordinate_resolution": 1e-05,
"features": [
{ "type": "Feature", "properties": { "major": "8", "components": [ { "class": "O", "sub": "", "pct": 100 } ] }, "geometry": { "type": "Polygon", "coordinates": [ [ [ -77.1865, 43.86189 ], [ -77.18943, 43.85529 ], [ -77.20017, 43.85529 ], [ -77.22703, 43.84944 ], [ -77.22874, 43.85676 ], [ -77.2197, 43.86555 ], [ -77.20335, 43.86482 ], [ -77.1865, 43.86189 ] ] ] } },
{ "type": "Feature", "properties": { "major": "6", "components": [ { "class": "6", "sub": "R", "pct": 100 } ] }, "geometry": { "type": "Polygon", "coordinates": [ [ [ -77.1865, 43.86189 ], [ -77.20335, 43.86482 ], [ -77.2197, 43.86555 ], [ -77.21482, 43.87141 ], [ -77.20261, 43.878 ], [ -77.18552, 43.87067 ], [ -77.1865, 43.86189 ] ] ] } },
{ "type": "Feature", "properties": { "major": "8", "components": [ { "class": "O", "sub": "", "pct": 100 } ] }, "geometry": { "type": "Polygon", "coordinates": [ [ [ -77.07834, 43.87019 ], [ -77.08225, 43.87898 ], [ -77.07028, 43.87995 ], [ -77.06638, 43.87507 ], [ -77.07834, 43.87019 ] ] ] } },
{ "type": "Feature", "properties": { "major": "6", "components": [ { "class": "6", "sub": "R", "pct": 100 } ] }, "geometry": { "type": "Polygon", "coordinates": [ [ [ -77.16843, 43.86213 ], [ -77.16575, 43.86726 ], [ -77.17331, 43.87507 ], [ -77.16965, 43.88117 ], [ -77.15818, 43.8841 ], [ -77.16086, 43.86775 ], [ -77.16843, 43.86213 ] ] ] } },
{ "type": "Feature", "properties": { "major": "8", "components": [ { "class": "O", "sub": "", "pct": 100 } ] }, "geometry": { "type": "Polygon", "coordinates": [ [ [ -77.09397, 43.87629 ], [ -77.09641, 43.86115 ], [ -77.08884, 43.85334 ], [ -77.11496, 43.83845 ], [ -77.12473, 43.83405 ], [ -77.13547, 43.84382 ], [ -77.13718, 43.84944 ], [ -77.13132, 43.85798 ], [ -77.12839, 43.8531 ], [ -77.1091, 43.86604 ], [ -77.10056, 43.86897 ], [ -77.0925, 43.88386 ], [ -77.07883, 43.89509 ], [ -77.07541, 43.88898 ], [ -77.09397, 43.87629 ] ] ] } },
{ "type": "Feature", "properties": { "major": "8", "components": [ { "class": "O", "sub": "", "pct": 100 } ] }, "geometry": { "type": "Polygon", "coordinates": [ [ [ -77.04099, 43.88825 ], [ -77.03977, 43.89436 ], [ -77.02341, 43.90095 ], [ -77.03098, 43.88728 ], [ -77.04099, 43.88825 ] ] ] } },
{ "type": "Feature", "properties": { "major": "2", "components": [ { "class": "2", "sub": "R", "pct": 60 }, { "class": "5", "sub": "W", "pct": 40 } ] }, "geometry": { "type": "Polygon", "coordinates": [ [ [ -77.08444, 43.89289 ], [ -77.09372, 43.88898 ], [ -77.11472, 43.88581 ], [ -77.13254, 43.88166 ], [ -77.12156, 43.88703 ], [ -77.11154, 43.89826 ], [ -77.10178, 43.90095 ], [ -77.07883, 43.89948 ], [ -77.08444, 43.89289 ] ] ] } },
{ "type": "Feature", "properties": { "major": "3", "components": [ { "class": "3", "sub": "S", "pct": 100 } ] }, "geometry": { "type": "Polygon", "coordinates": [ [ [ -77.11521, 43.90583 ], [ -77.13132, 43.89411 ], [ -77.13718, 43.88337 ], [ -77.14304, 43.87751 ], [ -77.14866, 43.88142 ], [ -77.14451, 43.8924 ], [ -77.1445, 43.90046 ], [ -77.14035, 43.90314 ], [ -77.13425, 43.90241 ], [ -77.12033, 43.90925 ], [ -77.11521, 43.90607 ], [ -77.11521, 43.90583 ] ] ] } },
{ "type": "Feature", "properties": { "major": "3", "components": [ { "class": "3", "sub": "S", "pct": 100 } ] }, "geometry": { "type": "Polygon", "coordinates": [ [ [ -77.25437, 43.9007 ], [ -77.24509, 43.89655 ], [ -77.25266, 43.88654 ], [ -77.26023, 43.88679 ], [ -77.27561, 43.88288 ], [ -77.2866, 43.88288 ], [ -77.29759, 43.88996 ], [ -77.30101, 43.89631 ], [ -77.28172, 43.90046 ], [ -77.27537, 43.89997 ], [ -77.26707, 43.90778 ], [ -77.27342, 43.90925 ], [ -77.27586, 43.91511 ], [ -77.26536, 43.9112 ], [ -77.25437, 43.9007 ] ] ] } },
{ "type": "Feature", "properties": { "major": "5", "components": [ { "class": "5", "sub": "W", "pct": 100 } ] }, "geometry": { "type": "Polygon", "coordinates": [ [ [ -77.14597, 43.90314 ], [ -77.15989, 43.89558 ], [ -77.17356, 43.89338 ], [ -77.18479, 43.89582 ], [ -77.16941, 43.90339 ], [ -77.15354, 43.90485 ], [ -77.14841, 43.91096 ], [ -77.17185, 43.9051 ], [ -77.17576, 43.90803 ], [ -77.16501, 43.91315 ], [ -77.13889, 43.9156 ], [ -77.14035, 43.91022 ], [ -77.14597, 43.90314 ] ] ] } },
{ "type": "Feature", "properties": { "major": "8", "components": [ { "class": "O", "sub": "", "pct": 100 } ] }, "geometry": { "type": "Polygon", "coordinates": [ [ [ -77.21287, 43.90705 ], [ -77.21311, 43.89289 ], [ -77.2346, 43.88313 ], [ -77.24925, 43.88142 ], [ -77.25266, 43.88654 ], [ -77.24509, 43.89655 ], [ -77.23411, 43.91169 ], [ -77.23338, 43.91657 ], [ -77.22483, 43.92121 ], [ -77.21555, 43.92194 ], [ -77.21189, 43.9173 ], [ -77.21287, 43.90705 ] ] ] } },
{ "type": "Feature", "properties": { "major": "2", "components": [ { "class": "2", "sub": "R", "pct": 100 } ] }, "geometry": { "type": "Polygon", "coordinates": [ [ [ -77.13889, 43.9156 ], [ -77.16501, 43.91315 ], [ -77.17576, 43.90803 ], [ -77.17185, 43.9051 ], [ -77.14841, 43.91096 ], [ -77.15354, 43.90485 ], [ -77.16941, 43.90339 ], [ -77.18479, 43.89582 ], [ -77.17356, 43.89338 ], [ -77.15989, 43.89558 ], [ -77.14597, 43.90314 ], [ -77.14035, 43.91022 ], [ -77.13913, 43.90925 ], [ -77.14035, 43.90314 ], [ -77.1445, 43.90046 ], [ -77.14451, 43.8924 ], [ -77.14866, 43.88142 ], [ -77.15598, 43.86872 ], [ -77.14768, 43.87165 ], [ -77.14744, 43.86628 ], [ -77.1345, 43.85871 ], [ -77.13816, 43.85652 ], [ -77.14426, 43.86237 ], [ -77.15256, 43.8636 ], [ -77.1467, 43.85725 ], [ -77.16746, 43.85066 ], [ -77.17991, 43.84455 ], [ -77.18943, 43.85529 ], [ -77.1865, 43.86189 ], [ -77.18552, 43.87067 ], [ -77.20261, 43.878 ], [ -77.21482, 43.87141 ], [ -77.2197, 43.86555 ], [ -77.22874, 43.85676 ], [ -77.22703, 43.84944 ], [ -77.23216, 43.84773 ], [ -77.249, 43.84822 ], [ -77.26292, 43.85798 ], [ -77.26512, 43.86262 ], [ -77.25388, 43.87214 ], [ -77.24925, 43.88142 ], [ -77.2346, 43.88313 ], [ -77.21311, 43.89289 ], [ -77.21287, 43.90705 ], [ -77.19211, 43.91047 ], [ -77.17576, 43.92585 ], [ -77.16257, 43.92365 ], [ -77.15134, 43.92634 ], [ -77.13449, 43.92536 ], [ -77.13889, 43.9156 ] ], [ [ -77.17331, 43.87507 ], [ -77.16575, 43.86726 ], [ -77.16843, 43.86213 ], [ -77.16086, 43.86775 ], [ -77.15818, 43.8841 ], [ -77.16965, 43.88117 ], [ -77.17331, 43.87507 ] ] ] } },
{ "type": "Feature", "properties": { "major": "7", "components": [ { "class": "7", "sub": "W", "pct": 100 } ] }, "geometry": { "type": "Polygon", "coordinates": [ [ [ -76.91671, 43.91437 ], [ -76.95456, 43.90143 ], [ -76.95382, 43.91364 ], [ -76.94577, 43.91877 ], [ -76.93454, 43.92975 ], [ -76.92404, 43.93268 ], [ -76.92013, 43.93073 ], [ -76.91671, 43.91437 ] ] ] } },
{ "type": "Feature", "properties": { "major": "2", "components": [ { "class": "2", "sub": "S", "pct": 100 } ] }, "geometry": { "type": "Polygon", "coordinates": [ [ [ -77.07346, 43.92365 ], [ -77.07395, 43.91926 ], [ -77.09958, 43.91486 ], [ -77.11521, 43.90607 ], [ -77.12033, 43.90925 ], [ -77.10422, 43.92316 ], [ -77.08737, 43.92561 ], [ -77.06857, 43.93073 ], [ -77.06418, 43.93586 ], [ -77.05759, 43.92854 ], [ -77.07346, 43.92365 ] ] ] } },
{ "type": "Feature", "properties": { "major": "9", "components": [ ] }, "geometry": { "type": "Polygon", "coordinates": [ [ [ -77.50023, 43.9156 ], [ -77.51195, 43.91096 ], [ -77.53807, 43.89362 ], [ -77.5454, 43.89167 ], [ -77.55297, 43.89582 ], [ -77.55394, 43.90119 ], [ -77.53246, 43.92341 ], [ -77.52733, 43.93708 ], [ -77.51415, 43.93122 ], [ -77.50023, 43.9156 ] ] ] } },
{ "type": "Feature", "properties": { "major": "1", "components": [ { "class": "1", "sub": "", "pct": 100 } ] }, "geometry": { "type": "Polygon", "coordinates": [ [ [ -77.06857, 43.93073 ], [ -77.08737, 43.92561 ], [ -77.10422, 43.92316 ], [ -77.12033, 43.90925 ], [ -77.13425, 43.90241 ], [ -77.14035, 43.90314 ], [ -77.13913, 43.90925 ], [ -77.12033, 43.91755 ], [ -77.11765, 43.92316 ], [ -77.1091, 43.92512 ], [ -77.10422, 43.9361 ], [ -77.10105, 43.93684 ], [ -77.09079, 43.93586 ], [ -77.08371, 43.93391 ], [ -77.07639, 43.93708 ], [ -77.0654, 43.93781 ], [ -77.06418, 43.93586 ], [ -77.06857, 43.93073 ] ] ] } },
{ "type": "Feature", "properties": { "major": "2", "components": [ { "class": "2", "sub": "S", "pct": 100 } ] }, "geometry": { "type": "Polygon", "coordinates": [ [ [ -77.14328, 43.93 ], [ -77.13596, 43.93415 ], [ -77.13108, 43.93098 ], [ -77.13449, 43.92536 ], [ -77.15134, 43.92634 ], [ -77.16257, 43.92365 ], [ -77.17576, 43.92585 ], [ -77.19211, 43.91047 ], [ -77.21287, 43.90705 ], [ -77.21189, 43.9173 ], [ -77.19578, 43.92463 ], [ -77.17795, 43.93561 ], [ -77.16648, 43.93952 ], [ -77.14841, 43.94001 ], [ -77.14328, 43.93854 ], [ -77.14328, 43.93 ] ] ] } },
{ "type": "Feature", "properties": { "major": "2", "components": [ { "class": "2", "sub": "S", "pct": 50 }, { "class": "3", "sub": "R", "pct": 50 } ] }, "geometry": { "type": "Polygon", "coordinates": [ [ [ -77.04514, 43.92194 ], [ -77.05905, 43.91242 ], [ -77.06638, 43.91023 ], [ -77.07199, 43.91267 ], [ -77.07981, 43.90754 ], [ -77.08298, 43.91438 ], [ -77.10105, 43.90974 ], [ -77.1091, 43.9029 ], [ -77.11521, 43.90583 ], [ -77.11521, 43.90607 ], [ -77.09958, 43.91486 ], [ -77.07395, 43.91926 ], [ -77.07346, 43.92365 ], [ -77.05759, 43.92854 ], [ -77.06418, 43.93586 ], [ -77.0654, 43.93781 ], [ -77.05539, 43.93732 ], [ -77.0361, 43.94367 ], [ -77.03244, 43.93513 ], [ -77.04514, 43.92194 ] ] ] } },
{ "type": "Feature", "properties": { "major": "2", "components": [ { "class": "2", "sub": "R", "pct": 100 } ] }, "geometry": { "type": "Polygon", "coordinates": [ [ [ -77.11838, 43.94147 ], [ -77.12473, 43.94318 ], [ -77.13474, 43.94685 ], [ -77.12912, 43.94929 ], [ -77.10569, 43.9466 ], [ -77.11838, 43.94147 ] ] ] } },
{ "type": "Feature", "properties": { "major": "7", "components": [ { "class": "7", "sub": "S", "pct": 100 } ] }, "geometry": { "type": "Polygon", "coordinates": [ [ [ -77.30906, 43.95124 ], [ -77.30271, 43.95173 ], [ -77.29637, 43.94733 ], [ -77.30613, 43.93854 ], [ -77.29319, 43.93391 ], [ -77.27586, 43.91511 ], [ -77.27342, 43.90925 ], [ -77.26707, 43.90778 ], [ -77.27537, 43.89997 ], [ -77.28172, 43.90046 ], [ -77.30101, 43.89631 ], [ -77.31199, 43.9134 ], [ -77.32127, 43.92365 ], [ -77.33567, 43.9322 ], [ -77.34959, 43.93561 ], [ -77.33763, 43.95148 ], [ -77.33079, 43.95173 ], [ -77.31956, 43.94733 ], [ -77.30906, 43.95124 ] ] ] } },
{ "type": "Feature", "properties": { "major": "1", "components": [ { "class": "1", "sub": "", "pct": 100 } ] }, "geometry": { "type": "Polygon", "coordinates": [ [ [ -76.9985, 43.94343 ], [ -77.01437, 43.93293 ], [ -77.01266, 43.92292 ], [ -77.00241, 43.92048 ], [ -76.99386, 43.92316 ], [ -76.98141, 43.93122 ], [ -76.97262, 43.93146 ], [ -76.97433, 43.92731 ], [ -76.98288, 43.92487 ], [ -76.99411, 43.9173 ], [ -77.01242, 43.91657 ], [ -77.03879, 43.90974 ], [ -77.0593, 43.90803 ], [ -77.06955, 43.90144 ], [ -77.07883, 43.89948 ], [ -77.10178, 43.90095 ], [ -77.11154, 43.89826 ], [ -77.12156, 43.88703 ], [ -77.13254, 43.88166 ], [ -77.13718, 43.88337 ], [ -77.13132, 43.89411 ], [ -77.11521, 43.90583 ], [ -77.1091, 43.9029 ], [ -77.10105, 43.90974 ], [ -77.08298, 43.91438 ], [ -77.07981, 43.90754 ], [ -77.07199, 43.91267 ], [ -77.06638, 43.91023 ], [ -77.05905, 43.91242 ], [ -77.04514, 43.92194 ], [ -77.03244, 43.93513 ], [ -77.0361, 43.94367 ], [ -77.02756, 43.94978 ], [ -77.01755, 43.9527 ], [ -76.99679, 43.94807 ], [ -76.9985, 43.94343 ] ] ] } },
{ "type": "Feature", "properties": { "major": "1", "components": [ { "class": "1", "sub": "", "pct": 100 } ] }, "geometry": { "type": "Polygon", "coordinates": [ [ [ -77.20164, 43.94538 ], [ -77.21726, 43.93146 ], [ -77.20164, 43.92853 ], [ -77.19578, 43.92463 ], [ -77.21189, 43.9173 ], [ -77.21555, 43.92194 ], [ -77.22483, 43.92121 ], [ -77.23338, 43.91657 ], [ -77.23411, 43.91169 ], [ -77.24509, 43.89655 ], [ -77.25437, 43.9007 ], [ -77.26536, 43.9112 ], [ -77.26096, 43.91901 ], [ -77.25291, 43.92609 ], [ -77.24754, 43.92145 ], [ -77.24339, 43.92512 ], [ -77.24729, 43.92975 ], [ -77.22239, 43.93708 ], [ -77.21458, 43.94343 ], [ -77.21824, 43.94562 ], [ -77.21116, 43.95295 ], [ -77.20774, 43.94636 ], [ -77.20164, 43.94538 ] ] ] } },
{ "type": "Feature", "properties": { "major": "8", "components": [ { "class": "O", "sub": "", "pct": 100 } ] }, "geometry": { "type": "Polygon", "coordinates": [ [ [ -77.16648, 43.93952 ], [ -77.17795, 43.93561 ], [ -77.1782, 43.94367 ], [ -77.17453, 43.95344 ], [ -77.16062, 43.95588 ], [ -77.15622, 43.95441 ], [ -77.16648, 43.93952 ] ] ] } },
{ "type": "Feature", "properties": { "major": "8", "components": [ { "class": "O", "sub": "", "pct": 100 } ] }, "geometry": { "type": "Polygon", "coordinates": [ [ [ -77.46263, 43.93855 ], [ -77.48461, 43.93635 ], [ -77.49437, 43.94074 ], [ -77.4868, 43.94465 ], [ -77.48143, 43.94245 ], [ -77.45433, 43.95857 ], [ -77.44554, 43.95881 ], [ -77.46459, 43.94685 ], [ -77.46263, 43.93855 ] ] ] } },
{ "type": "Feature", "properties": { "major": "2", "components": [ { "class": "2", "sub": "S", "pct": 100 } ] }, "geometry": { "type": "Polygon", "coordinates": [ [ [ -77.22581, 43.95392 ], [ -77.21653, 43.9571 ], [ -77.21751, 43.95075 ], [ -77.23045, 43.94758 ], [ -77.24705, 43.93952 ], [ -77.25291, 43.93049 ], [ -77.26218, 43.92341 ], [ -77.26096, 43.91901 ], [ -77.26536, 43.9112 ], [ -77.27586, 43.91511 ], [ -77.29319, 43.93391 ], [ -77.2656, 43.9466 ], [ -77.24924, 43.95588 ], [ -77.23484, 43.96003 ], [ -77.23118, 43.95685 ], [ -77.22581, 43.95392 ] ] ] } },
{ "type": "Feature", "properties": { "major": "8", "components": [ { "class": "O", "sub": "", "pct": 100 } ] }, "geometry": { "type": "Polygon", "coordinates": [ [ [ -77.10153, 43.94245 ], [ -77.10105, 43.93684 ], [ -77.10422, 43.9361 ], [ -77.1091, 43.92512 ], [ -77.11765, 43.92316 ], [ -77.12033, 43.91755 ], [ -77.13913, 43.90925 ], [ -77.14035, 43.91022 ], [ -77.13889, 43.9156 ], [ -77.13449, 43.92536 ], [ -77.13108, 43.93098 ], [ -77.11032, 43.93635 ], [ -77.09934, 43.95026 ], [ -77.11154, 43.95173 ], [ -77.0947, 43.9654 ], [ -77.09128, 43.96589 ], [ -77.09494, 43.95148 ], [ -77.10153, 43.94245 ] ] ] } },
{ "type": "Feature", "properties": { "major": "6", "components": [ { "class": "6", "sub": "R", "pct": 100 } ] }, "geometry": { "type": "Polygon", "coordinates": [ [ [ -76.84347, 43.94025 ], [ -76.83468, 43.93146 ], [ -76.88082, 43.92243 ], [ -76.91671, 43.91437 ], [ -76.92013, 43.93073 ], [ -76.92404, 43.93268 ], [ -76.93454, 43.92975 ], [ -76.94577, 43.91877 ], [ -76.95382, 43.91364 ], [ -76.95456, 43.90143 ], [ -76.98898, 43.88947 ], [ -77.02267, 43.8802 ], [ -77.04123, 43.87409 ], [ -77.07639, 43.85993 ], [ -77.08884, 43.85334 ], [ -77.09641, 43.86115 ], [ -77.09397, 43.87629 ], [ -77.07541, 43.88898 ], [ -77.07883, 43.89509 ], [ -77.0925, 43.88386 ], [ -77.10056, 43.86897 ], [ -77.1091, 43.86604 ], [ -77.12839, 43.8531 ], [ -77.13132, 43.85798 ], [ -77.13718, 43.84944 ], [ -77.13547, 43.84382 ], [ -77.12473, 43.83405 ], [ -77.14548, 43.8238 ], [ -77.16038, 43.82624 ], [ -77.17185, 43.83259 ], [ -77.17991, 43.84455 ], [ -77.16746, 43.85066 ], [ -77.1467, 43.85725 ], [ -77.15256, 43.8636 ], [ -77.14426, 43.86237 ], [ -77.13816, 43.85652 ], [ -77.1345, 43.85871 ], [ -77.14744, 43.86628 ], [ -77.14768, 43.87165 ], [ -77.15598, 43.86872 ], [ -77.14866, 43.88142 ], [ -77.14304, 43.87751 ], [ -77.13718, 43.88337 ], [ -77.13254, 43.88166 ], [ -77.11472, 43.88581 ], [ -77.09372, 43.88898 ], [ -77.08444, 43.89289 ], [ -77.07883, 43.89948 ], [ -77.06955, 43.90144 ], [ -77.0593, 43.90803 ], [ -77.03879, 43.90974 ], [ -77.01242, 43.91657 ], [ -76.99411, 43.9173 ], [ -76.98288, 43.92487 ], [ -76.97433, 43.92731 ], [ -76.97262, 43.93146 ], [ -76.98141, 43.93122 ], [ -76.99386, 43.92316 ], [ -77.00241, 43.92048 ], [ -77.01266, 43.92292 ], [ -77.01437, 43.93293 ], [ -76.9985, 43.94343 ], [ -76.99679, 43.94807 ], [ -76.98849, 43.94636 ], [ -76.96823, 43.94782 ], [ -76.94186, 43.94709 ], [ -76.9277, 43.9444 ], [ -76.89987, 43.94855 ], [ -76.88253, 43.95514 ], [ -76.87106, 43.96198 ], [ -76.84982, 43.96808 ], [ -76.85153, 43.95588 ], [ -76.84347, 43.94025 ] ], [ [ -77.04099, 43.88825 ], [ -77.03098, 43.88728 ], [ -77.02341, 43.90095 ], [ -77.03977, 43.89436 ], [ -77.04099, 43.88825 ] ], [ [ -77.07834, 43.87019 ], [ -77.06638, 43.87507 ], [ -77.07028, 43.87995 ], [ -77.08225, 43.87898 ], [ -77.07834, 43.87019 ] ] ] } },
{ "type": "Feature", "properties": { "major": "3", "components": [ { "class": "3", "sub": "S", "pct": 100 } ] }, "geometry": { "type": "Polygon", "coordinates": [ [ [ -77.0134, 43.9593 ], [ -77.01755, 43.9527 ], [ -77.02756, 43.94978 ], [ -77.0361, 43.94367 ], [ -77.05539, 43.93732 ], [ -77.0654, 43.93781 ], [ -77.07639, 43.93708 ], [ -77.08371, 43.93391 ], [ -77.09079, 43.93586 ], [ -77.08151, 43.94685 ], [ -77.07785, 43.9549 ], [ -77.06906, 43.9571 ], [ -77.06101, 43.96394 ], [ -77.05148, 43.96296 ], [ -77.0383, 43.96857 ], [ -77.02512, 43.96711 ], [ -77.0134, 43.9593 ] ] ] } },
{ "type": "Feature", "properties": { "major": "9", "components": [ ] }, "geometry": { "type": "Polygon", "coordinates": [ [ [ -76.81075, 43.93732 ], [ -76.83468, 43.93146 ], [ -76.84347, 43.94025 ], [ -76.85153, 43.95588 ], [ -76.84982, 43.96808 ], [ -76.83492, 43.97175 ], [ -76.81271, 43.97248 ], [ -76.8, 43.97021 ], [ -76.8, 43.93732 ], [ -76.81075, 43.93732 ] ] ] } },
{ "type": "Feature", "properties": { "major": "7", "components": [ { "class": "7", "sub": "W", "pct": 100 } ] }, "geometry": { "type": "Polygon", "coordinates": [ [ [ -77.18357, 43.95441 ], [ -77.19211, 43.95124 ], [ -77.20017, 43.95295 ], [ -77.18479, 43.9632 ], [ -77.1865, 43.97394 ], [ -77.18137, 43.97419 ], [ -77.17624, 43.96686 ], [ -77.18357, 43.95441 ] ] ] } },
{ "type": "Feature", "properties": { "major": "8", "components": [ { "class": "O", "sub": "", "pct": 100 } ] }, "geometry": { "type": "Polygon", "coordinates": [ [ [ -77.25022, 43.96491 ], [ -77.23679, 43.96515 ], [ -77.2346, 43.96467 ], [ -77.23484, 43.96003 ], [ -77.24924, 43.95588 ], [ -77.2656, 43.9466 ], [ -77.29319, 43.93391 ], [ -77.30613, 43.93854 ], [ -77.29637, 43.94733 ], [ -77.30271, 43.95173 ], [ -77.30906, 43.95124 ], [ -77.30149, 43.95759 ], [ -77.28953, 43.96198 ], [ -77.27073, 43.97394 ], [ -77.25901, 43.97541 ], [ -77.249, 43.9737 ], [ -77.25022, 43.96491 ] ] ] } },
{ "type": "Feature", "properties": { "major": "8", "components": [ { "class": "O", "sub": "", "pct": 100 } ] }, "geometry": { "type": "Polygon", "coordinates": [ [ [ -77.20627, 43.96369 ], [ -77.22532, 43.95661 ], [ -77.22581, 43.95392 ], [ -77.23118, 43.95685 ], [ -77.22288, 43.96686 ], [ -77.21433, 43.96589 ], [ -77.2009, 43.97712 ], [ -77.19968, 43.97321 ], [ -77.20627, 43.96369 ] ] ] } },
{ "type": "Feature", "properties": { "major": "3", "components": [ { "class": "3", "sub": "R", "pct": 100 } ] }, "geometry": { "type": "Polygon", "coordinates": [ [ [ -77.21433, 43.96589 ], [ -77.22288, 43.96686 ], [ -77.23118, 43.95685 ], [ -77.23484, 43.96003 ], [ -77.2346, 43.96467 ], [ -77.21433, 43.97516 ], [ -77.20066, 43.97858 ], [ -77.2009, 43.97712 ], [ -77.21433, 43.96589 ] ] ] } },
{ "type": "Feature", "properties": { "major": "2", "components": [ { "class": "2", "sub": "S", "pct": 100 } ] }, "geometry": { "type": "Polygon", "coordinates": [ [ [ -77.00314, 43.9632 ], [ -77.0134, 43.9593 ], [ -77.02512, 43.96711 ], [ -77.0383, 43.96857 ], [ -77.05148, 43.96296 ], [ -77.02072, 43.99128 ], [ -76.99386, 43.99225 ], [ -76.99216, 43.97346 ], [ -77.00314, 43.9632 ] ] ] } },
{ "type": "Feature", "properties": { "major": "2", "components": [ { "class": "2", "sub": "S", "pct": 100 } ] }, "geometry": { "type": "Polygon", "coordinates": [ [ [ -77.16233, 43.99689 ], [ -77.16697, 43.9903 ], [ -77.17576, 43.98835 ], [ -77.19138, 43.9798 ], [ -77.20066, 43.97858 ], [ -77.21433, 43.97516 ], [ -77.2346, 43.96467 ], [ -77.23679, 43.96515 ], [ -77.23508, 43.96955 ], [ -77.22385, 43.97419 ], [ -77.20408, 43.98371 ], [ -77.19919, 43.98957 ], [ -77.19504, 43.98762 ], [ -77.17673, 43.99738 ], [ -77.17771, 43.99128 ], [ -77.16233, 43.99689 ] ] ] } },
{ "type": "Feature", "properties": { "major": "8", "components": [ { "class": "O", "sub": "", "pct": 100 } ] }, "geometry": { "type": "Polygon", "coordinates": [ [ [ -77.36522, 43.98786 ], [ -77.37303, 43.9798 ], [ -77.39305, 43.97639 ], [ -77.39305, 43.98029 ], [ -77.35716, 44.00007 ], [ -77.34764, 44.00031 ], [ -77.35301, 43.9947 ], [ -77.36522, 43.98786 ] ] ] } },
{ "type": "Feature", "properties": { "major": "8", "components": [ { "class": "O", "sub": "", "pct": 100 } ] }, "geometry": { "type": "Polygon", "coordinates": [ [ [ -77.48143, 43.98713 ], [ -77.4807, 43.98103 ], [ -77.489, 43.98274 ], [ -77.49486, 43.99055 ], [ -77.51244, 43.98664 ], [ -77.52074, 43.99445 ], [ -77.52709, 43.99152 ], [ -77.53832, 43.99665 ], [ -77.53636, 44.0008 ], [ -77.50487, 44.00007 ], [ -77.47923, 44.00178 ], [ -77.47484, 43.99421 ], [ -77.48143, 43.98713 ] ] ] } },
{ "type": "Feature", "properties": { "major": "2", "components": [ { "class": "2", "sub": "R", "pct": 100 } ] }, "geometry": { "type": "Polygon", "coordinates": [ [ [ -77.1511, 43.98908 ], [ -77.15085, 43.98127 ], [ -77.15671, 43.97175 ], [ -77.15354, 43.96687 ], [ -77.15549, 43.96003 ], [ -77.14743, 43.95808 ], [ -77.14841, 43.94001 ], [ -77.16648, 43.93952 ], [ -77.15622, 43.95441 ], [ -77.16062, 43.95588 ], [ -77.17453, 43.95344 ], [ -77.1782, 43.94367 ], [ -77.17795, 43.93561 ], [ -77.19578, 43.92463 ], [ -77.20164, 43.92853 ], [ -77.21726, 43.93146 ], [ -77.20164, 43.94538 ], [ -77.20774, 43.94636 ], [ -77.21116, 43.95295 ], [ -77.21824, 43.94562 ], [ -77.21458, 43.94343 ], [ -77.22239, 43.93708 ], [ -77.24729, 43.92975 ], [ -77.24339, 43.92512 ], [ -77.24754, 43.92145 ], [ -77.25291, 43.92609 ], [ -77.26096, 43.91901 ], [ -77.26218, 43.92341 ], [ -77.25291, 43.93049 ], [ -77.24705, 43.93952 ], [ -77.23045, 43.94758 ], [ -77.21751, 43.95075 ], [ -77.21653, 43.9571 ], [ -77.22581, 43.95392 ], [ -77.22532, 43.95661 ], [ -77.20627, 43.96369 ], [ -77.19968, 43.97321 ], [ -77.2009, 43.97712 ], [ -77.20066, 43.97858 ], [ -77.19138, 43.9798 ], [ -77.17576, 43.98835 ], [ -77.16697, 43.9903 ], [ -77.16233, 43.99689 ], [ -77.14866, 44.00398 ], [ -77.14182, 44.00007 ], [ -77.1511, 43.98908 ] ], [ [ -77.18479, 43.9632 ], [ -77.20017, 43.95295 ], [ -77.19211, 43.95124 ], [ -77.18357, 43.95441 ], [ -77.17624, 43.96686 ], [ -77.18137, 43.97419 ], [ -77.1865, 43.97394 ], [ -77.18479, 43.9632 ] ] ] } },
{ "type": "Feature", "properties": { "major": "2", "components": [ { "class": "2", "sub": "R", "pct": 100 } ] }, "geometry": { "type": "Polygon", "coordinates": [ [ [ -77.03976, 44.00422 ], [ -77.05173, 44.00422 ], [ -77.07199, 43.99543 ], [ -77.082, 43.98664 ], [ -77.08908, 43.9842 ], [ -77.10959, 43.97053 ], [ -77.11399, 43.97028 ], [ -77.12888, 43.95856 ], [ -77.13791, 43.9593 ], [ -77.13303, 43.96296 ], [ -77.13376, 43.97102 ], [ -77.12912, 43.97492 ], [ -77.10886, 43.97883 ], [ -77.12082, 43.98249 ], [ -77.13352, 43.98005 ], [ -77.13254, 43.98347 ], [ -77.11838, 43.98713 ], [ -77.11203, 43.98493 ], [ -77.10105, 43.9903 ], [ -77.09885, 43.99592 ], [ -77.07639, 43.99616 ], [ -77.08274, 44.00178 ], [ -77.07981, 44.00617 ], [ -77.05832, 44.01032 ], [ -77.05026, 44.00959 ], [ -77.03537, 44.01325 ], [ -77.03268, 44.00666 ], [ -77.03976, 44.00422 ] ] ] } },
{ "type": "Feature", "properties": { "major": "8", "components": [ { "class": "O", "sub": "", "pct": 100 } ] }, "geometry": { "type": "Polygon", "coordinates": [ [ [ -77.55614, 44.00593 ], [ -77.56395, 44.00349 ], [ -77.57445, 44.00422 ], [ -77.57103, 44.01472 ], [ -77.5598, 44.01399 ], [ -77.55614, 44.00593 ] ] ] } },
{ "type": "Feature", "properties": { "major": "8", "components": [ { "class": "O", "sub": "", "pct": 100 } ] }, "geometry": { "type": "Polygon", "coordinates": [ [ [ -77.16208, 44.01496 ], [ -77.18015, 44.00886 ], [ -77.17502, 44.01667 ], [ -77.16428, 44.02009 ], [ -77.15915, 44.01862 ], [ -77.16208, 44.01496 ] ] ] } },
{ "type": "Feature", "properties": { "major": "6", "components": [ { "class": "6", "sub": "T", "pct": 70 }, { "class": "4", "sub": "S", "pct": 30 } ] }, "geometry": { "type": "Polygon", "coordinates": [ [ [ -77.1428, 44.01301 ], [ -77.13059, 44.01643 ], [ -77.13596, 44.00739 ], [ -77.12986, 44.00446 ], [ -77.14182, 44.00007 ], [ -77.14866, 44.00398 ], [ -77.16233, 43.99689 ], [ -77.17771, 43.99128 ], [ -77.17673, 43.99738 ], [ -77.19504, 43.98762 ], [ -77.19919, 43.98957 ], [ -77.20408, 43.98371 ], [ -77.22385, 43.97419 ], [ -77.22019, 43.98127 ], [ -77.22922, 43.98322 ], [ -77.21677, 43.9881 ], [ -77.21775, 43.99225 ], [ -77.20188, 44.00007 ], [ -77.18454, 44.01252 ], [ -77.18918, 44.01569 ], [ -77.17502, 44.01667 ], [ -77.18015, 44.00886 ], [ -77.16208, 44.01496 ], [ -77.15915, 44.01862 ], [ -77.14402, 44.0257 ], [ -77.14109, 44.02058 ], [ -77.1428, 44.01301 ] ] ] } },
{ "type": "Feature", "properties": { "major": "8", "components": [ { "class": "O", "sub": "", "pct": 100 } ] }, "geometry": { "type": "Polygon", "coordinates": [ [ [ -77.37523, 44.0174 ], [ -77.38157, 44.01667 ], [ -77.38768, 44.02058 ], [ -77.40086, 44.01838 ], [ -77.39988, 44.02277 ], [ -77.37938, 44.02839 ], [ -77.3679, 44.0257 ], [ -77.37523, 44.0174 ] ] ] } },
{ "type": "Feature", "properties": { "major": "8", "components": [ { "class": "O", "sub": "", "pct": 100 } ] }, "geometry": { "type": "Polygon", "coordinates": [ [ [ -77.0737, 44.01252 ], [ -77.07199, 44.00764 ], [ -77.07981, 44.00617 ], [ -77.08249, 44.01521 ], [ -77.06467, 44.03205 ], [ -77.06345, 44.02424 ], [ -77.0737, 44.01252 ] ] ] } },
{ "type": "Feature", "properties": { "major": "1", "components": [ { "class": "1", "sub": "", "pct": 100 } ] }, "geometry": { "type": "Polygon", "coordinates": [ [ [ -76.9841, 44.02375 ], [ -76.96798, 44.02033 ], [ -76.95871, 44.02204 ], [ -76.96042, 44.01423 ], [ -76.95919, 44.00983 ], [ -76.94943, 44.00055 ], [ -76.95138, 43.98493 ], [ -76.9609, 43.97638 ], [ -76.97091, 43.97272 ], [ -76.99216, 43.97346 ], [ -76.99386, 43.99225 ], [ -76.98971, 44.00031 ], [ -77.00265, 44.00202 ], [ -77.00534, 44.00715 ], [ -77.01926, 44.00251 ], [ -77.02194, 44.01032 ], [ -77.0173, 44.01667 ], [ -77.01486, 44.01227 ], [ -77.00192, 44.02131 ], [ -77.009, 44.02375 ], [ -77.02072, 44.03522 ], [ -77.0112, 44.03718 ], [ -76.99728, 44.02302 ], [ -76.9841, 44.02375 ] ] ] } },
{ "type": "Feature", "properties": { "major": "1", "components": [ { "class": "1", "sub": "", "pct": 100 } ] }, "geometry": { "type": "Polygon", "coordinates": [ [ [ -76.91744, 44.03058 ], [ -76.90768, 44.02741 ], [ -76.9111, 44.02326 ], [ -76.93502, 44.01496 ], [ -76.94015, 44.01569 ], [ -76.94113, 44.02131 ], [ -76.93063, 44.02839 ], [ -76.93746, 44.03449 ], [ -76.93185, 44.03815 ], [ -76.91964, 44.03571 ], [ -76.91744, 44.03058 ] ] ] } },
{ "type": "Feature", "properties": { "major": "2", "components": [ { "class": "2", "sub": "S", "pct": 100 } ] }, "geometry": { "type": "Polygon", "coordinates": [ [ [ -77.62, 44.02515 ], [ -77.62, 44.03819 ], [ -77.61425, 44.02912 ], [ -77.62, 44.02515 ] ] ] } },
{ "type": "Feature", "properties": { "major": "8", "components": [ { "class": "O", "sub": "", "pct": 100 } ] }, "geometry": { "type": "Polygon", "coordinates": [ [ [ -76.95675, 44.03083 ], [ -76.96164, 44.03254 ], [ -76.94992, 44.04206 ], [ -76.9465, 44.04108 ], [ -76.95675, 44.03083 ] ] ] } },
{ "type": "Feature", "properties": { "major": "2", "components": [ { "class": "2", "sub": "R", "pct": 100 } ] }, "geometry": { "type": "Polygon", "coordinates": [ [ [ -77.15134, 44.03034 ], [ -77.16819, 44.02497 ], [ -77.17063, 44.03181 ], [ -77.16379, 44.03303 ], [ -77.16526, 44.03938 ], [ -77.15842, 44.04231 ], [ -77.14621, 44.04108 ], [ -77.15134, 44.03034 ] ] ] } },
{ "type": "Feature", "properties": { "major": "6", "components": [ { "class": "6", "sub": "R", "pct": 100 } ] }, "geometry": { "type": "Polygon", "coordinates": [ [ [ -77.3535, 44.0218 ], [ -77.35838, 44.01545 ], [ -77.35984, 44.01374 ], [ -77.37523, 44.0174 ], [ -77.3679, 44.0257 ], [ -77.37938, 44.02839 ], [ -77.36814, 44.03718 ], [ -77.35813, 44.0362 ], [ -77.34617, 44.04499 ], [ -77.34617, 44.03229 ], [ -77.3535, 44.0218 ] ] ] } },
{ "type": "Feature", "properties": { "major": "6", "components": [ { "class": "6", "sub": "R", "pct": 100 } ] }, "geometry": { "type": "Polygon", "coordinates": [ [ [ -77.02731, 44.03766 ], [ -77.02072, 44.03522 ], [ -77.009, 44.02375 ], [ -77.00192, 44.02131 ], [ -77.01486, 44.01227 ], [ -77.0173, 44.01667 ], [ -77.02194, 44.01032 ], [ -77.01926, 44.00251 ], [ -77.00534, 44.00715 ], [ -77.00265, 44.00202 ], [ -76.98971, 44.00031 ], [ -76.99386, 43.99225 ], [ -77.02072, 43.99128 ], [ -77.05148, 43.96296 ], [ -77.06101, 43.96394 ], [ -77.06906, 43.9571 ], [ -77.07785, 43.9549 ], [ -77.08151, 43.94685 ], [ -77.09079, 43.93586 ], [ -77.10105, 43.93684 ], [ -77.10153, 43.94245 ], [ -77.09494, 43.95148 ], [ -77.09128, 43.96589 ], [ -77.0947, 43.9654 ], [ -77.11154, 43.95173 ], [ -77.09934, 43.95026 ], [ -77.11032, 43.93635 ], [ -77.13108, 43.93098 ], [ -77.13596, 43.93415 ], [ -77.14328, 43.93 ], [ -77.14328, 43.93854 ], [ -77.14841, 43.94001 ], [ -77.14743, 43.95808 ], [ -77.15549, 43.96003 ], [ -77.15354, 43.96687 ], [ -77.15671, 43.97175 ], [ -77.15085, 43.98127 ], [ -77.1511, 43.98908 ], [ -77.14182, 44.00007 ], [ -77.12986, 44.00446 ], [ -77.11301, 44.00031 ], [ -77.10984, 44.00398 ], [ -77.11448, 44.01887 ], [ -77.11081, 44.03108 ], [ -77.10349, 44.03645 ], [ -77.09055, 44.04084 ], [ -77.08151, 44.04084 ], [ -77.07102, 44.04548 ], [ -77.04807, 44.04059 ], [ -77.02731, 44.03766 ] ], [ [ -77.07981, 44.00617 ], [ -77.08274, 44.00178 ], [ -77.07639, 43.99616 ], [ -77.09885, 43.99592 ], [ -77.10105, 43.9903 ], [ -77.11203, 43.98493 ], [ -77.11838, 43.98713 ], [ -77.13254, 43.98347 ], [ -77.13352, 43.98005 ], [ -77.12082, 43.98249 ], [ -77.10886, 43.97883 ], [ -77.12912, 43.97492 ], [ -77.13376, 43.97102 ], [ -77.13303, 43.96296 ], [ -77.13791, 43.9593 ], [ -77.12888, 43.95856 ], [ -77.11399, 43.97028 ], [ -77.10959, 43.97053 ], [ -77.08908, 43.9842 ], [ -77.082, 43.98664 ], [ -77.07199, 43.99543 ], [ -77.05173, 44.00422 ], [ -77.03976, 44.00422 ], [ -77.03268, 44.00666 ], [ -77.03537, 44.01325 ], [ -77.05026, 44.00959 ], [ -77.05832, 44.01032 ], [ -77.07199, 44.00764 ], [ -77.0737, 44.01252 ], [ -77.06345, 44.02424 ], [ -77.06467, 44.03205 ], [ -77.08249, 44.01521 ], [ -77.07981, 44.00617 ] ], [ [ -77.12473, 43.94318 ], [ -77.11838, 43.94147 ], [ -77.10569, 43.9466 ], [ -77.12912, 43.94929 ], [ -77.13474, 43.94685 ], [ -77.12473, 43.94318 ] ] ] } },
{ "type": "Feature", "properties": { "major": "5", "components": [ { "class": "5", "sub": "W", "pct": 100 } ] }, "geometry": { "type": "Polygon", "coordinates": [ [ [ -77.52318, 44.03596 ], [ -77.52635, 44.02912 ], [ -77.54564, 44.02473 ], [ -77.53783, 44.01765 ], [ -77.54052, 44.01399 ], [ -77.53319, 44.00959 ], [ -77.53441, 44.00471 ], [ -77.55346, 44.00788 ], [ -77.54906, 44.01032 ], [ -77.55907, 44.01985 ], [ -77.56884, 44.01838 ], [ -77.56762, 44.02155 ], [ -77.55223, 44.024 ], [ -77.54174, 44.02961 ], [ -77.53392, 44.03913 ], [ -77.53221, 44.04646 ], [ -77.52709, 44.04597 ], [ -77.52318, 44.03596 ] ] ] } },
{ "type": "Feature", "properties": { "major": "2", "components": [ { "class": "2", "sub": "S", "pct": 100 } ] }, "geometry": { "type": "Polygon", "coordinates": [ [ [ -77.56859, 44.02863 ], [ -77.56762, 44.02155 ], [ -77.56884, 44.01838 ], [ -77.55907, 44.01985 ], [ -77.54906, 44.01032 ], [ -77.55346, 44.00788 ], [ -77.55614, 44.00593 ], [ -77.5598, 44.01399 ], [ -77.57103, 44.01472 ], [ -77.57445, 44.00422 ], [ -77.59227, 44.0113 ], [ -77.5935, 44.01936 ], [ -77.59911, 44.02717 ], [ -77.59447, 44.03376 ], [ -77.5764, 44.03986 ], [ -77.57152, 44.04499 ], [ -77.55883, 44.04694 ], [ -77.55223, 44.0445 ], [ -77.56859, 44.02863 ] ] ] } },
{ "type": "Feature", "properties": { "major": "8", "components": [ { "class": "O", "sub": "", "pct": 100 } ] }, "geometry": { "type": "Polygon", "coordinates": [ [ [ -77.16526, 44.03938 ], [ -77.18552, 44.0406 ], [ -77.15574, 44.04914 ], [ -77.15842, 44.04231 ], [ -77.16526, 44.03938 ] ] ] } },
{ "type": "Feature", "properties": { "major": "2", "components": [ { "class": "2", "sub": "R", "pct": 70 }, { "class": "1", "sub": "", "pct": 30 } ] }, "geometry": { "type": "Polygon", "coordinates": [ [ [ -77.53392, 44.03913 ], [ -77.54174, 44.02961 ], [ -77.55223, 44.024 ], [ -77.56762, 44.02155 ], [ -77.56859, 44.02863 ], [ -77.55223, 44.0445 ], [ -77.54051, 44.04914 ], [ -77.53221, 44.04646 ], [ -77.53392, 44.03913 ] ] ] } },
{ "type": "Feature", "properties": { "major": "1", "components": [ { "class": "1", "sub": "", "pct": 50 }, { "class": "2", "sub": "S", "pct": 50 } ] }, "geometry": { "type": "Polygon", "coordinates": [ [ [ -77.61425, 44.02912 ], [ -77.59911, 44.02717 ], [ -77.5935, 44.01936 ], [ -77.59227, 44.0113 ], [ -77.59911, 44.00007 ], [ -77.62, 44.00007 ], [ -77.62, 44.02515 ], [ -77.61425, 44.02912 ] ] ] } },
{ "type": "Feature", "properties": { "major": "8", "components": [ { "class": "O", "sub": "", "pct": 100 } ] }, "geometry": { "type": "Polygon", "coordinates": [ [ [ -77.61181, 44.04182 ], [ -77.62, 44.04182 ], [ -77.62, 44.0471 ], [ -77.60741, 44.0511 ], [ -77.59691, 44.04817 ], [ -77.61181, 44.04182 ] ] ] } },
{ "type": "Feature", "properties": { "major": "2", "components": [ { "class": "2", "sub": "R", "pct": 100 } ] }, "geometry": { "type": "Polygon", "coordinates": [ [ [ -76.93893, 44.04621 ], [ -76.91867, 44.04499 ], [ -76.91085, 44.03425 ], [ -76.91744, 44.03058 ], [ -76.91964, 44.03571 ], [ -76.93185, 44.03815 ], [ -76.93746, 44.03449 ], [ -76.93063, 44.02839 ], [ -76.94113, 44.02131 ], [ -76.94015, 44.01569 ], [ -76.94479, 44.01374 ], [ -76.96042, 44.01423 ], [ -76.95871, 44.02204 ], [ -76.96798, 44.02033 ], [ -76.9841, 44.02375 ], [ -76.99728, 44.02302 ], [ -77.0112, 44.03718 ], [ -77.00387, 44.03888 ], [ -76.99777, 44.03303 ], [ -76.97091, 44.04401 ], [ -76.96017, 44.04499 ], [ -76.94674, 44.05329 ], [ -76.93551, 44.05524 ], [ -76.93234, 44.05182 ], [ -76.93893, 44.04621 ] ], [ [ -76.95675, 44.03083 ], [ -76.9465, 44.04108 ], [ -76.94992, 44.04206 ], [ -76.96164, 44.03254 ], [ -76.95675, 44.03083 ] ] ] } },
{ "type": "Feature", "properties": { "major": "2", "components": [ { "class": "2", "sub": "S", "pct": 100 } ] }, "geometry": { "type": "Polygon", "coordinates": [ [ [ -77.61181, 44.05232 ], [ -77.60741, 44.0511 ], [ -77.62, 44.0471 ], [ -77.62, 44.05256 ], [ -77.61889, 44.0511 ], [ -77.61181, 44.05232 ] ] ] } },
{ "type": "Feature", "properties": { "major": "8", "components": [ { "class": "O", "sub": "", "pct": 100 } ] }, "geometry": { "type": "Polygon", "coordinates": [ [ [ -77.18284, 44.04646 ], [ -77.19846, 44.03669 ], [ -77.20847, 44.03571 ], [ -77.21433, 44.03083 ], [ -77.23264, 44.03058 ], [ -77.25022, 44.0235 ], [ -77.27, 44.01911 ], [ -77.27952, 44.02106 ], [ -77.3115, 44.02057 ], [ -77.33055, 44.01496 ], [ -77.35838, 44.01545 ], [ -77.3535, 44.0218 ], [ -77.34642, 44.02228 ], [ -77.32493, 44.03425 ], [ -77.30638, 44.03571 ], [ -77.29759, 44.03327 ], [ -77.28294, 44.04011 ], [ -77.26585, 44.04426 ], [ -77.2407, 44.04401 ], [ -77.22776, 44.04645 ], [ -77.21238, 44.04645 ], [ -77.19407, 44.05256 ], [ -77.18772, 44.05256 ], [ -77.17185, 44.05842 ], [ -77.1655, 44.05402 ], [ -77.18284, 44.04646 ] ] ] } },
{ "type": "Feature", "properties": { "major": "1", "components": [ { "class": "1", "sub": "", "pct": 100 } ] }, "geometry": { "type": "Polygon", "coordinates": [ [ [ -77.24778, 44.05036 ], [ -77.24021, 44.05402 ], [ -77.22776, 44.04841 ], [ -77.22776, 44.04645 ], [ -77.2407, 44.04401 ], [ -77.26585, 44.04426 ], [ -77.28294, 44.04011 ], [ -77.27219, 44.04792 ], [ -77.2634, 44.05207 ], [ -77.25681, 44.06012 ], [ -77.24998, 44.06183 ], [ -77.24753, 44.05475 ], [ -77.24778, 44.05036 ] ] ] } },
{ "type": "Feature", "properties": { "major": "6", "components": [ { "class": "6", "sub": "R", "pct": 100 } ] }, "geometry": { "type": "Polygon", "coordinates": [ [ [ -77.2844, 44.05451 ], [ -77.28269, 44.0506 ], [ -77.27219, 44.04792 ], [ -77.28294, 44.04011 ], [ -77.29759, 44.03327 ], [ -77.30638, 44.03571 ], [ -77.29246, 44.0423 ], [ -77.29514, 44.0467 ], [ -77.29075, 44.05036 ], [ -77.29197, 44.05793 ], [ -77.28123, 44.06305 ], [ -77.27732, 44.05939 ], [ -77.2844, 44.05451 ] ] ] } },
{ "type": "Feature", "properties": { "major": "2", "components": [ { "class": "2", "sub": "R", "pct": 100 } ] }, "geometry": { "type": "Polygon", "coordinates": [ [ [ -77.2595, 44.06403 ], [ -77.25364, 44.06769 ], [ -77.23899, 44.06696 ], [ -77.23459, 44.06647 ], [ -77.23289, 44.06354 ], [ -77.24753, 44.05475 ], [ -77.24998, 44.06183 ], [ -77.25681, 44.06012 ], [ -77.2634, 44.05207 ], [ -77.27219, 44.04792 ], [ -77.28269, 44.0506 ], [ -77.2844, 44.05451 ], [ -77.27732, 44.05939 ], [ -77.28123, 44.06305 ], [ -77.29197, 44.05793 ], [ -77.29075, 44.05036 ], [ -77.29514, 44.0467 ], [ -77.29246, 44.0423 ], [ -77.30638, 44.03571 ], [ -77.32493, 44.03425 ], [ -77.34642, 44.02228 ], [ -77.3535, 44.0218 ], [ -77.34617, 44.03229 ], [ -77.34617, 44.04499 ], [ -77.35813, 44.0362 ], [ -77.36814, 44.03718 ], [ -77.37938, 44.02839 ], [ -77.39988, 44.02277 ], [ -77.40086, 44.01838 ], [ -77.38768, 44.02058 ], [ -77.38157, 44.01667 ], [ -77.37523, 44.0174 ], [ -77.35984, 44.01374 ], [ -77.35838, 44.01545 ], [ -77.33055, 44.01496 ], [ -77.3115, 44.02057 ], [ -77.27952, 44.02106 ], [ -77.27, 44.01911 ], [ -77.25022, 44.0235 ], [ -77.23264, 44.03058 ], [ -77.2429, 44.01203 ], [ -77.23801, 44.00983 ], [ -77.23923, 44.00104 ], [ -77.22556, 44.00007 ], [ -77.21677, 44.00593 ], [ -77.21067, 44.00007 ], [ -77.20188, 44.00007 ], [ -77.21775, 43.99225 ], [ -77.21677, 43.9881 ], [ -77.22922, 43.98322 ], [ -77.22019, 43.98127 ], [ -77.22385, 43.97419 ], [ -77.23508, 43.96955 ], [ -77.23679, 43.96515 ], [ -77.25022, 43.96491 ], [ -77.249, 43.9737 ], [ -77.25901, 43.97541 ], [ -77.27073, 43.97394 ], [ -77.28953, 43.96198 ], [ -77.30149, 43.95759 ], [ -77.30906, 43.95124 ], [ -77.31956, 43.94733 ], [ -77.33079, 43.95173 ], [ -77.33763, 43.95148 ], [ -77.34959, 43.93561 ], [ -77.38524, 43.93366 ], [ -77.40062, 43.93122 ], [ -77.42528, 43.9239 ], [ -77.44457, 43.92121 ], [ -77.4785, 43.92072 ], [ -77.50023, 43.9156 ], [ -77.51415, 43.93122 ], [ -77.52733, 43.93708 ], [ -77.53075, 43.94221 ], [ -77.55101, 43.95612 ], [ -77.58617, 43.97834 ], [ -77.59691, 43.98811 ], [ -77.60082, 43.99445 ], [ -77.59911, 44.00007 ], [ -77.59227, 44.0113 ], [ -77.57445, 44.00422 ], [ -77.56395, 44.00349 ], [ -77.55614, 44.00593 ], [ -77.55346, 44.00788 ], [ -77.53441, 44.00471 ], [ -77.53319, 44.00959 ], [ -77.54052, 44.01399 ], [ -77.53783, 44.01765 ], [ -77.54564, 44.02473 ], [ -77.52635, 44.02912 ], [ -77.52318, 44.03596 ], [ -77.52709, 44.04597 ], [ -77.50585, 44.04939 ], [ -77.4846, 44.05525 ], [ -77.47972, 44.05891 ], [ -77.47044, 44.05573 ], [ -77.4409, 44.06574 ], [ -77.43993, 44.0594 ], [ -77.45482, 44.05085 ], [ -77.4453, 44.0445 ], [ -77.4265, 44.05207 ], [ -77.40892, 44.05525 ], [ -77.39866, 44.06501 ], [ -77.39256, 44.06648 ], [ -77.38499, 44.05964 ], [ -77.37449, 44.06501 ], [ -77.374, 44.05329 ], [ -77.36863, 44.05573 ], [ -77.36497, 44.06501 ], [ -77.34959, 44.06403 ], [ -77.34568, 44.06037 ], [ -77.32639, 44.06232 ], [ -77.32151, 44.05842 ], [ -77.32884, 44.05012 ], [ -77.32005, 44.04719 ], [ -77.30467, 44.05427 ], [ -77.29514, 44.06403 ], [ -77.28074, 44.06818 ], [ -77.27268, 44.06428 ], [ -77.2595, 44.06403 ] ], [ [ -77.53636, 44.0008 ], [ -77.53832, 43.99665 ], [ -77.52709, 43.99152 ], [ -77.52074, 43.99445 ], [ -77.51244, 43.98664 ], [ -77.49486, 43.99055 ], [ -77.489, 43.98274 ], [ -77.4807, 43.98103 ], [ -77.48143, 43.98713 ], [ -77.47484, 43.99421 ], [ -77.47923, 44.00178 ], [ -77.50487, 44.00007 ], [ -77.53636, 44.0008 ] ], [ [ -77.39305, 43.98029 ], [ -77.39305, 43.97639 ], [ -77.37303, 43.9798 ], [ -77.36522, 43.98786 ], [ -77.35301, 43.9947 ], [ -77.34764, 44.00031 ], [ -77.35716, 44.00007 ], [ -77.39305, 43.98029 ] ], [ [ -77.48143, 43.94245 ], [ -77.4868, 43.94465 ], [ -77.49437, 43.94074 ], [ -77.48461, 43.93635 ], [ -77.46263, 43.93855 ], [ -77.46459, 43.94685 ], [ -77.44554, 43.95881 ], [ -77.45433, 43.95857 ], [ -77.48143, 43.94245 ] ] ] } },
{ "type": "Feature", "properties": { "major": "1", "components": [ { "class": "1", "sub": "", "pct": 100 } ] }, "geometry": { "type": "Polygon", "coordinates": [ [ [ -77.14597, 44.06184 ], [ -77.12888, 44.06648 ], [ -77.11838, 44.06599 ], [ -77.1174, 44.05817 ], [ -77.10544, 44.05402 ], [ -77.08982, 44.06281 ], [ -77.07468, 44.0655 ], [ -77.06687, 44.05793 ], [ -77.06369, 44.04987 ], [ -77.07102, 44.04548 ], [ -77.08151, 44.04084 ], [ -77.09055, 44.04084 ], [ -77.10349, 44.03645 ], [ -77.11081, 44.03108 ], [ -77.11448, 44.01887 ], [ -77.10984, 44.00398 ], [ -77.11301, 44.00031 ], [ -77.12986, 44.00446 ], [ -77.13596, 44.00739 ], [ -77.13059, 44.01643 ], [ -77.1428, 44.01301 ], [ -77.14109, 44.02058 ], [ -77.14402, 44.0257 ], [ -77.15915, 44.01862 ], [ -77.16428, 44.02009 ], [ -77.17502, 44.01667 ], [ -77.18918, 44.01569 ], [ -77.18454, 44.01252 ], [ -77.20188, 44.00007 ], [ -77.21067, 44.00007 ], [ -77.21677, 44.00593 ], [ -77.22556, 44.00007 ], [ -77.23923, 44.00104 ], [ -77.23801, 44.00983 ], [ -77.2429, 44.01203 ], [ -77.23264, 44.03058 ], [ -77.21433, 44.03083 ], [ -77.20847, 44.03571 ], [ -77.19846, 44.03669 ], [ -77.18284, 44.04646 ], [ -77.1655, 44.05402 ], [ -77.17185, 44.05842 ], [ -77.16526, 44.06184 ], [ -77.16623, 44.06843 ], [ -77.15964, 44.07258 ], [ -77.14646, 44.06916 ], [ -77.14597, 44.06184 ] ], [ [ -77.16526, 44.03938 ], [ -77.16379, 44.03303 ], [ -77.17063, 44.03181 ], [ -77.16819, 44.02497 ], [ -77.15134, 44.03034 ], [ -77.14621, 44.04108 ], [ -77.15842, 44.04231 ], [ -77.15574, 44.04914 ], [ -77.18552, 44.0406 ], [ -77.16526, 44.03938 ] ] ] } },
{ "type": "Feature", "properties": { "major": "1", "components": [ { "class": "1", "sub": "", "pct": 50 }, { "class": "3", "sub": "P", "pct": 50 } ] }, "geometry": { "type": "Polygon", "coordinates": [ [ [ -76.96652, 44.05939 ], [ -76.98971, 44.05573 ], [ -76.9946, 44.05842 ], [ -76.98971, 44.06672 ], [ -76.98239, 44.0672 ], [ -76.96579, 44.07526 ], [ -76.95333, 44.07746 ], [ -76.9526, 44.06794 ], [ -76.96652, 44.05939 ] ] ] } },
{ "type": "Feature", "properties": { "major": "5", "components": [ { "class": "5", "sub": "W", "pct": 100 } ] }, "geometry": { "type": "Polygon", "coordinates": [ [ [ -77.23166, 44.07111 ], [ -77.23459, 44.06647 ], [ -77.23899, 44.06696 ], [ -77.23337, 44.07502 ], [ -77.22239, 44.07746 ], [ -77.22458, 44.07111 ], [ -77.23166, 44.07111 ] ] ] } },
{ "type": "Feature", "properties": { "major": "5", "components": [ { "class": "5", "sub": "W", "pct": 100 } ] }, "geometry": { "type": "Polygon", "coordinates": [ [ [ -77.20432, 44.06989 ], [ -77.21384, 44.0611 ], [ -77.21775, 44.0528 ], [ -77.22776, 44.04841 ], [ -77.24021, 44.05402 ], [ -77.24778, 44.05036 ], [ -77.24753, 44.05475 ], [ -77.23289, 44.06354 ], [ -77.22092, 44.06013 ], [ -77.21677, 44.06916 ], [ -77.19578, 44.07746 ], [ -77.19187, 44.08088 ], [ -77.18772, 44.07404 ], [ -77.20432, 44.06989 ] ] ] } },
{ "type": "Feature", "properties": { "major": "6", "components": [ { "class": "6", "sub": "R", "pct": 100 } ] }, "geometry": { "type": "Polygon", "coordinates": [ [ [ -76.91085, 44.05695 ], [ -76.91525, 44.05256 ], [ -76.90157, 44.04596 ], [ -76.90963, 44.04425 ], [ -76.90426, 44.03962 ], [ -76.89474, 44.0401 ], [ -76.89181, 44.03522 ], [ -76.89938, 44.02936 ], [ -76.90768, 44.02741 ], [ -76.91744, 44.03058 ], [ -76.91085, 44.03425 ], [ -76.91867, 44.04499 ], [ -76.93893, 44.04621 ], [ -76.93234, 44.05182 ], [ -76.93551, 44.05524 ], [ -76.94674, 44.05329 ], [ -76.96017, 44.04499 ], [ -76.97091, 44.04401 ], [ -76.99777, 44.03303 ], [ -77.00387, 44.03888 ], [ -76.98678, 44.04694 ], [ -76.96676, 44.0528 ], [ -76.93576, 44.06574 ], [ -76.92062, 44.07551 ], [ -76.90743, 44.08136 ], [ -76.90743, 44.06891 ], [ -76.91085, 44.05695 ] ] ] } },
{ "type": "Feature", "properties": { "major": "8", "components": [ { "class": "O", "sub": "", "pct": 100 } ] }, "geometry": { "type": "Polygon", "coordinates": [ [ [ -76.88839, 44.06769 ], [ -76.90475, 44.06525 ], [ -76.90231, 44.07135 ], [ -76.89034, 44.07673 ], [ -76.88424, 44.08356 ], [ -76.87325, 44.08552 ], [ -76.87472, 44.08112 ], [ -76.88839, 44.06769 ] ] ] } },
{ "type": "Feature", "properties": { "major": "2", "components": [ { "class": "2", "sub": "R", "pct": 100 } ] }, "geometry": { "type": "Polygon", "coordinates": [ [ [ -76.88107, 44.0611 ], [ -76.88473, 44.0611 ], [ -76.88668, 44.06476 ], [ -76.87277, 44.07721 ], [ -76.85275, 44.08307 ], [ -76.84786, 44.08845 ], [ -76.83981, 44.08576 ], [ -76.88107, 44.0611 ] ] ] } },
{ "type": "Feature", "properties": { "major": "2", "components": [ { "class": "2", "sub": "P", "pct": 100 } ] }, "geometry": { "type": "Polygon", "coordinates": [ [ [ -77.61376, 44.07404 ], [ -77.62, 44.06531 ], [ -77.62, 44.07681 ], [ -77.61962, 44.07697 ], [ -77.60351, 44.08698 ], [ -77.59667, 44.08845 ], [ -77.59789, 44.08503 ], [ -77.61376, 44.07404 ] ] ] } },
{ "type": "Feature", "properties": { "major": "2", "components": [ { "class": "2", "sub": "W", "pct": 100 } ] }, "geometry": { "type": "Polygon", "coordinates": [ [ [ -77.61962, 44.07697 ], [ -77.62, 44.07681 ], [ -77.62, 44.08285 ], [ -77.6101, 44.08845 ], [ -77.60351, 44.08698 ], [ -77.61962, 44.07697 ] ] ] } },
{ "type": "Feature", "properties": { "major": "6", "components": [ { "class": "6", "sub": "R", "pct": 100 } ] }, "geometry": { "type": "Polygon", "coordinates": [ [ [ -77.60936, 44.06306 ], [ -77.61181, 44.05232 ], [ -77.61889, 44.0511 ], [ -77.62, 44.05256 ], [ -77.62, 44.06531 ], [ -77.61376, 44.07404 ], [ -77.59789, 44.08503 ], [ -77.59667, 44.08845 ], [ -77.59765, 44.09358 ], [ -77.58812, 44.09528 ], [ -77.59032, 44.08698 ], [ -77.60936, 44.06306 ] ] ] } },
{ "type": "Feature", "properties": { "major": "1", "components": [ { "class": "1", "sub": "", "pct": 100 } ] }, "geometry": { "type": "Polygon", "coordinates": [ [ [ -77.59667, 44.08845 ], [ -77.60351, 44.08698 ], [ -77.6101, 44.08845 ], [ -77.62, 44.08285 ], [ -77.62, 44.09688 ], [ -77.61742, 44.09797 ], [ -77.60619, 44.10017 ], [ -77.60106, 44.10041 ], [ -77.59765, 44.09358 ], [ -77.59667, 44.08845 ] ] ] } },
{ "type": "Feature", "properties": { "major": "1", "components": [ { "class": "1", "sub": "", "pct": 100 } ] }, "geometry": { "type": "Polygon", "coordinates": [ [ [ -77.38133, 44.09211 ], [ -77.36814, 44.09431 ], [ -77.3679, 44.08942 ], [ -77.37815, 44.07868 ], [ -77.37864, 44.07502 ], [ -77.38768, 44.07063 ], [ -77.40696, 44.06574 ], [ -77.40989, 44.07038 ], [ -77.42308, 44.06574 ], [ -77.43431, 44.06721 ], [ -77.43382, 44.07649 ], [ -77.44578, 44.08161 ], [ -77.44432, 44.08723 ], [ -77.41917, 44.09553 ], [ -77.40818, 44.09382 ], [ -77.39598, 44.1009 ], [ -77.39012, 44.10041 ], [ -77.38133, 44.09211 ] ] ] } },
{ "type": "Feature", "properties": { "major": "5", "components": [ { "class": "5", "sub": "W", "pct": 100 } ] }, "geometry": { "type": "Polygon", "coordinates": [ [ [ -76.92721, 44.09577 ], [ -76.95333, 44.07746 ], [ -76.96579, 44.07526 ], [ -76.98239, 44.0672 ], [ -76.98971, 44.06672 ], [ -76.98312, 44.0738 ], [ -76.97702, 44.07599 ], [ -76.96579, 44.08674 ], [ -76.95626, 44.08991 ], [ -76.95187, 44.08844 ], [ -76.93405, 44.10212 ], [ -76.93331, 44.10578 ], [ -76.92184, 44.10138 ], [ -76.92721, 44.09577 ] ] ] } },
{ "type": "Feature", "properties": { "major": "1", "components": [ { "class": "1", "sub": "", "pct": 100 } ] }, "geometry": { "type": "Polygon", "coordinates": [ [ [ -76.93405, 44.10212 ], [ -76.95187, 44.08844 ], [ -76.95626, 44.08991 ], [ -76.95065, 44.09308 ], [ -76.95675, 44.09821 ], [ -76.94577, 44.10651 ], [ -76.93331, 44.10578 ], [ -76.93405, 44.10212 ] ] ] } },
{ "type": "Feature", "properties": { "major": "8", "components": [ { "class": "O", "sub": "", "pct": 100 } ] }, "geometry": { "type": "Polygon", "coordinates": [ [ [ -77.60106, 44.10041 ], [ -77.60619, 44.10017 ], [ -77.60546, 44.10676 ], [ -77.59642, 44.10505 ], [ -77.60106, 44.10041 ] ] ] } },
{ "type": "Feature", "properties": { "major": "2", "components": [ { "class": "2", "sub": "S", "pct": 100 } ] }, "geometry": { "type": "Polygon", "coordinates": [ [ [ -77.02121, 44.09406 ], [ -77.02829, 44.09308 ], [ -77.03781, 44.08698 ], [ -77.03928, 44.08063 ], [ -77.04514, 44.0777 ], [ -77.0549, 44.06623 ], [ -77.04611, 44.06135 ], [ -77.02951, 44.07014 ], [ -77.01926, 44.07331 ], [ -77.01608, 44.07868 ], [ -77.02145, 44.08137 ], [ -77.00778, 44.08454 ], [ -77.00387, 44.07624 ], [ -76.98971, 44.08576 ], [ -76.98141, 44.08722 ], [ -76.97262, 44.09455 ], [ -76.96334, 44.09211 ], [ -76.98434, 44.07551 ], [ -76.98312, 44.0738 ], [ -76.98971, 44.06672 ], [ -76.9946, 44.05842 ], [ -76.98971, 44.05573 ], [ -76.99313, 44.0528 ], [ -77.01999, 44.04377 ], [ -77.04782, 44.04255 ], [ -77.06369, 44.04987 ], [ -77.06687, 44.05793 ], [ -77.07468, 44.0655 ], [ -77.08151, 44.07453 ], [ -77.07614, 44.08405 ], [ -77.05246, 44.0965 ], [ -77.03903, 44.09602 ], [ -77.0195, 44.10505 ], [ -77.01266, 44.1048 ], [ -77.00461, 44.10895 ], [ -77.00339, 44.10334 ], [ -77.02121, 44.09406 ] ] ] } },
{ "type": "Feature", "properties": { "major": "6", "components": [ { "class": "6", "sub": "R", "pct": 100 } ] }, "geometry": { "type": "Polygon", "coordinates": [ [ [ -77.44188, 44.09724 ], [ -77.44407, 44.0926 ], [ -77.45433, 44.08503 ], [ -77.46605, 44.08723 ], [ -77.47728, 44.0865 ], [ -77.48631, 44.08088 ], [ -77.49583, 44.07942 ], [ -77.50267, 44.0821 ], [ -77.50072, 44.09358 ], [ -77.49315, 44.0965 ], [ -77.47972, 44.09724 ], [ -77.47044, 44.1009 ], [ -77.46214, 44.10847 ], [ -77.45116, 44.10896 ], [ -77.44456, 44.10481 ], [ -77.44188, 44.09724 ] ] ] } },
{ "type": "Feature", "properties": { "major": "8", "components": [ { "class": "O", "sub": "", "pct": 100 } ] }, "geometry": { "type": "Polygon", "coordinates": [ [ [ -77.61034, 44.10725 ], [ -77.61327, 44.10188 ], [ -77.62, 44.10202 ], [ -77.62, 44.10817 ], [ -77.61596, 44.10554 ], [ -77.61034, 44.10725 ] ] ] } },
{ "type": "Feature", "properties": { "major": "8", "components": [ { "class": "O", "sub": "", "pct": 100 } ] }, "geometry": { "type": "Polygon", "coordinates": [ [ [ -77.10349, 44.10603 ], [ -77.12473, 44.10188 ], [ -77.13767, 44.09406 ], [ -77.16013, 44.08601 ], [ -77.17673, 44.08576 ], [ -77.18528, 44.08112 ], [ -77.19163, 44.08186 ], [ -77.1926, 44.08552 ], [ -77.18308, 44.0948 ], [ -77.176, 44.09748 ], [ -77.17527, 44.10407 ], [ -77.16599, 44.10456 ], [ -77.16501, 44.0987 ], [ -77.15891, 44.09626 ], [ -77.14963, 44.09455 ], [ -77.13498, 44.1031 ], [ -77.12399, 44.10627 ], [ -77.1135, 44.11237 ], [ -77.10324, 44.10969 ], [ -77.10349, 44.10603 ] ] ] } },
{ "type": "Feature", "properties": { "major": "6", "components": [ { "class": "6", "sub": "R", "pct": 100 } ] }, "geometry": { "type": "Polygon", "coordinates": [ [ [ -77.17527, 44.10407 ], [ -77.176, 44.09748 ], [ -77.18308, 44.0948 ], [ -77.1926, 44.08552 ], [ -77.19163, 44.08186 ], [ -77.19187, 44.08088 ], [ -77.19578, 44.07746 ], [ -77.21677, 44.06916 ], [ -77.22092, 44.06013 ], [ -77.23289, 44.06354 ], [ -77.23459, 44.06647 ], [ -77.23166, 44.07111 ], [ -77.22458, 44.07111 ], [ -77.22239, 44.07746 ], [ -77.23337, 44.07502 ], [ -77.23899, 44.06696 ], [ -77.25364, 44.06769 ], [ -77.2595, 44.06403 ], [ -77.27268, 44.06428 ], [ -77.28074, 44.06818 ], [ -77.29514, 44.06403 ], [ -77.30467, 44.05427 ], [ -77.32005, 44.04719 ], [ -77.32884, 44.05012 ], [ -77.32151, 44.05842 ], [ -77.32639, 44.06232 ], [ -77.34568, 44.06037 ], [ -77.34959, 44.06403 ], [ -77.36497, 44.06501 ], [ -77.36863, 44.05573 ], [ -77.374, 44.05329 ], [ -77.37449, 44.06501 ], [ -77.38499, 44.05964 ], [ -77.39256, 44.06648 ], [ -77.39866, 44.06501 ], [ -77.40892, 44.05525 ], [ -77.4265, 44.05207 ], [ -77.4453, 44.0445 ], [ -77.45482, 44.05085 ], [ -77.43993, 44.0594 ], [ -77.4409, 44.06574 ], [ -77.47044, 44.05573 ], [ -77.47972, 44.05891 ], [ -77.4846, 44.05525 ], [ -77.50585, 44.04939 ], [ -77.52709, 44.04597 ], [ -77.53221, 44.04646 ], [ -77.54051, 44.04914 ], [ -77.55223, 44.0445 ], [ -77.55883, 44.04694 ], [ -77.57152, 44.04499 ], [ -77.5764, 44.03986 ], [ -77.59447, 44.03376 ], [ -77.59911, 44.02717 ], [ -77.61425, 44.02912 ], [ -77.62, 44.03819 ], [ -77.62, 44.04182 ], [ -77.61181, 44.04182 ], [ -77.60473, 44.03791 ], [ -77.57982, 44.05012 ], [ -77.5764, 44.05622 ], [ -77.56957, 44.05842 ], [ -77.54296, 44.07893 ], [ -77.53246, 44.08186 ], [ -77.5183, 44.06965 ], [ -77.52147, 44.06501 ], [ -77.53173, 44.05866 ], [ -77.52904, 44.04939 ], [ -77.49657, 44.05671 ], [ -77.48412, 44.06403 ], [ -77.468, 44.06672 ], [ -77.44798, 44.076 ], [ -77.43382, 44.07649 ], [ -77.43431, 44.06721 ], [ -77.42308, 44.06574 ], [ -77.40989, 44.07038 ], [ -77.40696, 44.06574 ], [ -77.38768, 44.07063 ], [ -77.37864, 44.07502 ], [ -77.36497, 44.07868 ], [ -77.34544, 44.07697 ], [ -77.31687, 44.08137 ], [ -77.32493, 44.086 ], [ -77.31736, 44.09601 ], [ -77.31614, 44.107 ], [ -77.30393, 44.10505 ], [ -77.29832, 44.10114 ], [ -77.2927, 44.08918 ], [ -77.28147, 44.08698 ], [ -77.26755, 44.08942 ], [ -77.25608, 44.08283 ], [ -77.23874, 44.08576 ], [ -77.21799, 44.08747 ], [ -77.20652, 44.09479 ], [ -77.19895, 44.10651 ], [ -77.19114, 44.11335 ], [ -77.18186, 44.10944 ], [ -77.17527, 44.10407 ] ] ] } },
{ "type": "Feature", "properties": { "major": "1", "components": [ { "class": "1", "sub": "", "pct": 100 } ] }, "geometry": { "type": "Polygon", "coordinates": [ [ [ -76.83614, 44.1048 ], [ -76.83639, 44.08674 ], [ -76.83981, 44.08576 ], [ -76.84786, 44.08845 ], [ -76.85275, 44.08307 ], [ -76.87277, 44.07721 ], [ -76.88668, 44.06476 ], [ -76.88473, 44.0611 ], [ -76.88888, 44.05549 ], [ -76.89474, 44.0401 ], [ -76.90426, 44.03962 ], [ -76.90963, 44.04425 ], [ -76.90157, 44.04596 ], [ -76.91525, 44.05256 ], [ -76.91085, 44.05695 ], [ -76.90743, 44.06891 ], [ -76.90743, 44.08136 ], [ -76.89913, 44.08967 ], [ -76.88424, 44.09943 ], [ -76.87081, 44.10261 ], [ -76.85274, 44.11457 ], [ -76.84151, 44.11384 ], [ -76.83614, 44.1048 ] ], [ [ -76.89034, 44.07673 ], [ -76.90231, 44.07135 ], [ -76.90475, 44.06525 ], [ -76.88839, 44.06769 ], [ -76.87472, 44.08112 ], [ -76.87325, 44.08552 ], [ -76.88424, 44.08356 ], [ -76.89034, 44.07673 ] ] ] } },
{ "type": "Feature", "properties": { "major": "5", "components": [ { "class": "5", "sub": "P", "pct": 100 } ] }, "geometry": { "type": "Polygon", "coordinates": [ [ [ -77.54833, 44.09895 ], [ -77.56102, 44.09431 ], [ -77.57445, 44.09626 ], [ -77.58373, 44.10236 ], [ -77.58764, 44.10822 ], [ -77.57494, 44.11726 ], [ -77.55419, 44.12068 ], [ -77.54882, 44.10603 ], [ -77.54833, 44.09895 ] ] ] } },
{ "type": "Feature", "properties": { "major": "1", "components": [ { "class": "1", "sub": "", "pct": 100 } ] }, "geometry": { "type": "Polygon", "coordinates": [ [ [ -77.36643, 44.11189 ], [ -77.35447, 44.11628 ], [ -77.35154, 44.11091 ], [ -77.3618, 44.10505 ], [ -77.38011, 44.10261 ], [ -77.39378, 44.10652 ], [ -77.38255, 44.11164 ], [ -77.37059, 44.1219 ], [ -77.37303, 44.11482 ], [ -77.36643, 44.11189 ] ] ] } },
{ "type": "Feature", "properties": { "major": "5", "components": [ { "class": "5", "sub": "W", "pct": 100 } ] }, "geometry": { "type": "Polygon", "coordinates": [ [ [ -77.1135, 44.11237 ], [ -77.12399, 44.10627 ], [ -77.13498, 44.1031 ], [ -77.14963, 44.09455 ], [ -77.15891, 44.09626 ], [ -77.1528, 44.09821 ], [ -77.1445, 44.10847 ], [ -77.13742, 44.10822 ], [ -77.1152, 44.12214 ], [ -77.10739, 44.11848 ], [ -77.1135, 44.11237 ] ] ] } },
{ "type": "Feature", "properties": { "major": "3", "components": [ { "class": "3", "sub": "W", "pct": 100 } ] }, "geometry": { "type": "Polygon", "coordinates": [ [ [ -77.01852, 44.11433 ], [ -77.03757, 44.10529 ], [ -77.05881, 44.0987 ], [ -77.0715, 44.10188 ], [ -77.06735, 44.11604 ], [ -77.04782, 44.12458 ], [ -77.03683, 44.12556 ], [ -77.03293, 44.12116 ], [ -77.01462, 44.1258 ], [ -77.01315, 44.12238 ], [ -77.01852, 44.11433 ] ] ] } },
{ "type": "Feature", "properties": { "major": "3", "components": [ { "class": "3", "sub": "S", "pct": 100 } ] }, "geometry": { "type": "Polygon", "coordinates": [ [ [ -77.50218, 44.1153 ], [ -77.49461, 44.10798 ], [ -77.51195, 44.09821 ], [ -77.52391, 44.10749 ], [ -77.52635, 44.11384 ], [ -77.51146, 44.12629 ], [ -77.50462, 44.12385 ], [ -77.50218, 44.1153 ] ] ] } },
{ "type": "Feature", "properties": { "major": "4", "components": [ { "class": "4", "sub": "R", "pct": 100 } ] }, "geometry": { "type": "Polygon", "coordinates": [ [ [ -76.9382, 44.11335 ], [ -76.94577, 44.10651 ], [ -76.95675, 44.09821 ], [ -76.96969, 44.09772 ], [ -76.95504, 44.10969 ], [ -76.95382, 44.11384 ], [ -76.94284, 44.11896 ], [ -76.93209, 44.12702 ], [ -76.93014, 44.11945 ], [ -76.9382, 44.11335 ] ] ] } },
{ "type": "Feature", "properties": { "major": "1", "components": [ { "class": "1", "sub": "", "pct": 100 } ] }, "geometry": { "type": "Polygon", "coordinates": [ [ [ -77.0986, 44.11823 ], [ -77.10739, 44.11848 ], [ -77.1152, 44.12214 ], [ -77.13742, 44.10822 ], [ -77.1445, 44.10847 ], [ -77.1528, 44.09821 ], [ -77.15891, 44.09626 ], [ -77.16501, 44.0987 ], [ -77.16599, 44.10456 ], [ -77.13767, 44.12409 ], [ -77.11691, 44.13068 ], [ -77.10422, 44.12971 ], [ -77.0986, 44.11823 ] ] ] } },
{ "type": "Feature", "properties": { "major": "2", "components": [ { "class": "2", "sub": "R", "pct": 100 } ] }, "geometry": { "type": "Polygon", "coordinates": [ [ [ -77.33567, 44.12653 ], [ -77.34715, 44.12702 ], [ -77.3552, 44.12458 ], [ -77.34446, 44.11677 ], [ -77.3347, 44.12019 ], [ -77.33738, 44.11677 ], [ -77.35154, 44.11091 ], [ -77.35447, 44.11628 ], [ -77.36643, 44.11189 ], [ -77.37303, 44.11482 ], [ -77.37059, 44.1219 ], [ -77.36863, 44.12678 ], [ -77.36106, 44.12458 ], [ -77.35301, 44.13093 ], [ -77.34007, 44.13239 ], [ -77.33323, 44.1302 ], [ -77.33567, 44.12653 ] ] ] } },
{ "type": "Feature", "properties": { "major": "3", "components": [ { "class": "3", "sub": "W", "pct": 100 } ] }, "geometry": { "type": "Polygon", "coordinates": [ [ [ -76.93209, 44.12702 ], [ -76.94284, 44.11896 ], [ -76.95382, 44.11384 ], [ -76.95504, 44.10969 ], [ -76.96969, 44.09772 ], [ -76.95675, 44.09821 ], [ -76.95065, 44.09308 ], [ -76.95626, 44.08991 ], [ -76.96579, 44.08674 ], [ -76.97702, 44.07599 ], [ -76.98312, 44.0738 ], [ -76.98434, 44.07551 ], [ -76.96334, 44.09211 ], [ -76.97262, 44.09455 ], [ -76.98141, 44.08722 ], [ -76.98971, 44.08576 ], [ -77.00387, 44.07624 ], [ -77.00778, 44.08454 ], [ -77.02145, 44.08137 ], [ -77.01608, 44.07868 ], [ -77.01926, 44.07331 ], [ -77.02951, 44.07014 ], [ -77.04611, 44.06135 ], [ -77.0549, 44.06623 ], [ -77.04514, 44.0777 ], [ -77.03928, 44.08063 ], [ -77.03781, 44.08698 ], [ -77.02829, 44.09308 ], [ -77.02121, 44.09406 ], [ -77.00339, 44.10334 ], [ -77.00461, 44.10895 ], [ -76.99704, 44.10895 ], [ -76.99289, 44.11628 ], [ -76.97409, 44.12385 ], [ -76.96334, 44.12653 ], [ -76.95578, 44.12189 ], [ -76.9443, 44.12482 ], [ -76.93453, 44.13288 ], [ -76.93087, 44.12995 ], [ -76.93209, 44.12702 ] ] ] } },
{ "type": "Feature", "properties": { "major": "8", "components": [ { "class": "O", "sub": "", "pct": 100 } ] }, "geometry": { "type": "Polygon", "coordinates": [ [ [ -77.20359, 44.1175 ], [ -77.20725, 44.11188 ], [ -77.22043, 44.10578 ], [ -77.2302, 44.09186 ], [ -77.24143, 44.08942 ], [ -77.23874, 44.08576 ], [ -77.25608, 44.08283 ], [ -77.26755, 44.08942 ], [ -77.25608, 44.09894 ], [ -77.25242, 44.0965 ], [ -77.24412, 44.10212 ], [ -77.2258, 44.10822 ], [ -77.20896, 44.1258 ], [ -77.19895, 44.12727 ], [ -77.18918, 44.13557 ], [ -77.18625, 44.12751 ], [ -77.20359, 44.1175 ] ] ] } },
{ "type": "Feature", "properties": { "major": "1", "components": [ { "class": "1", "sub": "", "pct": 100 } ] }, "geometry": { "type": "Polygon", "coordinates": [ [ [ -77.23435, 44.11384 ], [ -77.22214, 44.11652 ], [ -77.20896, 44.1258 ], [ -77.2258, 44.10822 ], [ -77.24412, 44.10212 ], [ -77.25242, 44.0965 ], [ -77.25608, 44.09894 ], [ -77.26755, 44.08942 ], [ -77.28147, 44.08698 ], [ -77.2927, 44.08918 ], [ -77.29832, 44.10114 ], [ -77.30393, 44.10505 ], [ -77.31614, 44.107 ], [ -77.32542, 44.10456 ], [ -77.32932, 44.09431 ], [ -77.34568, 44.08967 ], [ -77.35325, 44.09553 ], [ -77.34373, 44.10529 ], [ -77.33689, 44.10187 ], [ -77.32737, 44.11335 ], [ -77.32835, 44.11921 ], [ -77.31956, 44.12629 ], [ -77.30393, 44.12824 ], [ -77.29563, 44.12409 ], [ -77.30222, 44.11896 ], [ -77.29221, 44.11652 ], [ -77.28367, 44.11921 ], [ -77.26438, 44.12922 ], [ -77.23972, 44.1363 ], [ -77.21824, 44.13776 ], [ -77.22239, 44.12507 ], [ -77.23435, 44.11384 ] ] ] } },
{ "type": "Feature", "properties": { "major": "8", "components": [ { "class": "O", "sub": "", "pct": 100 } ] }, "geometry": { "type": "Polygon", "coordinates": [ [ [ -77.10422, 44.12971 ], [ -77.11691, 44.13068 ], [ -77.10666, 44.13825 ], [ -77.10275, 44.13825 ], [ -77.10422, 44.12971 ] ] ] } },
{ "type": "Feature", "properties": { "major": "8", "components": [ { "class": "O", "sub": "", "pct": 100 } ] }, "geometry": { "type": "Polygon", "coordinates": [ [ [ -77.30393, 44.12824 ], [ -77.31956, 44.12629 ], [ -77.32835, 44.11921 ], [ -77.32737, 44.11335 ], [ -77.33689, 44.10187 ], [ -77.34373, 44.10529 ], [ -77.35325, 44.09553 ], [ -77.34568, 44.08967 ], [ -77.32932, 44.09431 ], [ -77.32542, 44.10456 ], [ -77.31614, 44.107 ], [ -77.31736, 44.09601 ], [ -77.32493, 44.086 ], [ -77.31687, 44.08137 ], [ -77.34544, 44.07697 ], [ -77.36497, 44.07868 ], [ -77.37864, 44.07502 ], [ -77.37815, 44.07868 ], [ -77.3679, 44.08942 ], [ -77.36814, 44.09431 ], [ -77.38133, 44.09211 ], [ -77.39012, 44.10041 ], [ -77.39598, 44.1009 ], [ -77.40818, 44.09382 ], [ -77.41917, 44.09553 ], [ -77.44432, 44.08723 ], [ -77.44578, 44.08161 ], [ -77.43382, 44.07649 ], [ -77.44798, 44.076 ], [ -77.468, 44.06672 ], [ -77.48412, 44.06403 ], [ -77.49657, 44.05671 ], [ -77.52904, 44.04939 ], [ -77.53173, 44.05866 ], [ -77.52147, 44.06501 ], [ -77.51439, 44.06257 ], [ -77.49706, 44.06623 ], [ -77.48241, 44.07697 ], [ -77.46849, 44.07722 ], [ -77.45433, 44.08503 ], [ -77.44407, 44.0926 ], [ -77.41258, 44.09919 ], [ -77.39036, 44.11555 ], [ -77.36863, 44.12678 ], [ -77.37059, 44.1219 ], [ -77.38255, 44.11164 ], [ -77.39378, 44.10652 ], [ -77.38011, 44.10261 ], [ -77.3618, 44.10505 ], [ -77.35154, 44.11091 ], [ -77.33738, 44.11677 ], [ -77.3347, 44.12019 ], [ -77.32517, 44.12898 ], [ -77.30662, 44.13508 ], [ -77.30003, 44.13947 ], [ -77.29588, 44.13728 ], [ -77.30393, 44.12824 ] ] ] } },
{ "type": "Feature", "properties": { "major": "2", "components": [ { "class": "2", "sub": "S", "pct": 100 } ] }, "geometry": { "type": "Polygon", "coordinates": [ [ [ -76.89254, 44.13337 ], [ -76.90231, 44.12873 ], [ -76.87277, 44.13263 ], [ -76.8586, 44.14118 ], [ -76.84444, 44.13923 ], [ -76.85055, 44.13239 ], [ -76.87399, 44.12018 ], [ -76.88497, 44.11262 ], [ -76.89865, 44.10676 ], [ -76.9172, 44.10114 ], [ -76.92184, 44.10138 ], [ -76.93331, 44.10578 ], [ -76.94577, 44.10651 ], [ -76.9382, 44.11335 ], [ -76.92697, 44.11237 ], [ -76.92111, 44.11774 ], [ -76.90914, 44.12238 ], [ -76.91647, 44.12507 ], [ -76.9067, 44.13263 ], [ -76.89742, 44.14289 ], [ -76.88888, 44.13874 ], [ -76.89254, 44.13337 ] ] ] } },
{ "type": "Feature", "properties": { "major": "6", "components": [ { "class": "6", "sub": "R", "pct": 100 } ] }, "geometry": { "type": "Polygon", "coordinates": [ [ [ -77.18918, 44.13557 ], [ -77.19895, 44.12727 ], [ -77.20896, 44.1258 ], [ -77.22214, 44.11652 ], [ -77.23435, 44.11384 ], [ -77.22239, 44.12507 ], [ -77.21824, 44.13776 ], [ -77.2031, 44.14289 ], [ -77.1948, 44.14362 ], [ -77.18723, 44.13947 ], [ -77.18918, 44.13557 ] ] ] } },
{ "type": "Feature", "properties": { "major": "2", "components": [ { "class": "2", "sub": "W", "pct": 100 } ] }, "geometry": { "type": "Polygon", "coordinates": [ [ [ -76.9067, 44.13263 ], [ -76.91647, 44.12507 ], [ -76.90914, 44.12238 ], [ -76.92111, 44.11774 ], [ -76.92697, 44.11237 ], [ -76.9382, 44.11335 ], [ -76.93014, 44.11945 ], [ -76.93209, 44.12702 ], [ -76.93087, 44.12995 ], [ -76.91989, 44.13312 ], [ -76.90866, 44.14191 ], [ -76.89767, 44.14582 ], [ -76.89742, 44.14289 ], [ -76.9067, 44.13263 ] ] ] } },
{ "type": "Feature", "properties": { "major": "6", "components": [ { "class": "6", "sub": "R", "pct": 100 } ] }, "geometry": { "type": "Polygon", "coordinates": [ [ [ -76.80123, 44.11286 ], [ -76.81222, 44.1236 ], [ -76.80977, 44.13654 ], [ -76.80489, 44.14045 ], [ -76.8, 44.14237 ], [ -76.8, 44.11323 ], [ -76.80123, 44.11286 ] ] ] } },
{ "type": "Feature", "properties": { "major": "2", "components": [ { "class": "2", "sub": "R", "pct": 100 } ] }, "geometry": { "type": "Polygon", "coordinates": [ [ [ -77.082, 44.12824 ], [ -77.0881, 44.11579 ], [ -77.08518, 44.0948 ], [ -77.10398, 44.07404 ], [ -77.11838, 44.06599 ], [ -77.12888, 44.06648 ], [ -77.14597, 44.06184 ], [ -77.14646, 44.06916 ], [ -77.15964, 44.07258 ], [ -77.16623, 44.06843 ], [ -77.16526, 44.06184 ], [ -77.17185, 44.05842 ], [ -77.18772, 44.05256 ], [ -77.19407, 44.05256 ], [ -77.21238, 44.04645 ], [ -77.22776, 44.04645 ], [ -77.22776, 44.04841 ], [ -77.21775, 44.0528 ], [ -77.21384, 44.0611 ], [ -77.20432, 44.06989 ], [ -77.18772, 44.07404 ], [ -77.19187, 44.08088 ], [ -77.19163, 44.08186 ], [ -77.18528, 44.08112 ], [ -77.17673, 44.08576 ], [ -77.16013, 44.08601 ], [ -77.13767, 44.09406 ], [ -77.12473, 44.10188 ], [ -77.10349, 44.10603 ], [ -77.10324, 44.10969 ], [ -77.1135, 44.11237 ], [ -77.10739, 44.11848 ], [ -77.0986, 44.11823 ], [ -77.10422, 44.12971 ], [ -77.10275, 44.13825 ], [ -77.10666, 44.13825 ], [ -77.11691, 44.13068 ], [ -77.13767, 44.12409 ], [ -77.16599, 44.10456 ], [ -77.17527, 44.10407 ], [ -77.18186, 44.10944 ], [ -77.16745, 44.12141 ], [ -77.16745, 44.12995 ], [ -77.16257, 44.13923 ], [ -77.1528, 44.14314 ], [ -77.15451, 44.13459 ], [ -77.13547, 44.13825 ], [ -77.1301, 44.13313 ], [ -77.12448, 44.13361 ], [ -77.09909, 44.14411 ], [ -77.08908, 44.14655 ], [ -77.07834, 44.14387 ], [ -77.082, 44.12824 ] ] ] } },
{ "type": "Feature", "properties": { "major": "1", "components": [ { "class": "1", "sub": "", "pct": 50 }, { "class": "3", "sub": "P", "pct": 50 } ] }, "geometry": { "type": "Polygon", "coordinates": [ [ [ -77.60546, 44.1341 ], [ -77.61742, 44.12043 ], [ -77.61937, 44.12727 ], [ -77.62, 44.12765 ], [ -77.62, 44.13724 ], [ -77.6079, 44.15241 ], [ -77.60277, 44.14216 ], [ -77.60546, 44.1341 ] ] ] } },
{ "type": "Feature", "properties": { "major": "2", "components": [ { "class": "2", "sub": "S", "pct": 100 } ] }, "geometry": { "type": "Polygon", "coordinates": [ [ [ -76.89767, 44.14582 ], [ -76.90866, 44.14191 ], [ -76.91989, 44.13312 ], [ -76.93087, 44.12995 ], [ -76.93453, 44.13288 ], [ -76.92379, 44.14997 ], [ -76.91232, 44.15412 ], [ -76.89913, 44.15314 ], [ -76.89767, 44.14582 ] ] ] } },
{ "type": "Feature", "properties": { "major": "3", "components": [ { "class": "3", "sub": "R", "pct": 100 } ] }, "geometry": { "type": "Polygon", "coordinates": [ [ [ -77.38865, 44.14631 ], [ -77.3994, 44.14314 ], [ -77.41356, 44.13557 ], [ -77.42235, 44.13337 ], [ -77.42845, 44.13679 ], [ -77.42332, 44.14314 ], [ -77.43431, 44.14289 ], [ -77.42283, 44.15778 ], [ -77.41575, 44.15632 ], [ -77.41111, 44.1507 ], [ -77.40208, 44.15339 ], [ -77.39451, 44.15949 ], [ -77.38524, 44.1551 ], [ -77.38865, 44.14631 ] ] ] } },
{ "type": "Feature", "properties": { "major": "1", "components": [ { "class": "1", "sub": "", "pct": 100 } ] }, "geometry": { "type": "Polygon", "coordinates": [ [ [ -77.52709, 44.14655 ], [ -77.53588, 44.13532 ], [ -77.54173, 44.13191 ], [ -77.54833, 44.12287 ], [ -77.55419, 44.12068 ], [ -77.57494, 44.11726 ], [ -77.58251, 44.12751 ], [ -77.57982, 44.14314 ], [ -77.57347, 44.14875 ], [ -77.56566, 44.15241 ], [ -77.56249, 44.14875 ], [ -77.57006, 44.13874 ], [ -77.56322, 44.14118 ], [ -77.55614, 44.14973 ], [ -77.55248, 44.14631 ], [ -77.55858, 44.13899 ], [ -77.55516, 44.13508 ], [ -77.54784, 44.13801 ], [ -77.53661, 44.15217 ], [ -77.5266, 44.16023 ], [ -77.52294, 44.15925 ], [ -77.52709, 44.14655 ] ] ] } },
{ "type": "Feature", "properties": { "major": "1", "components": [ { "class": "1", "sub": "", "pct": 100 } ] }, "geometry": { "type": "MultiPolygon", "coordinates": [ [ [ [ -77.62, 44.1526 ], [ -77.62, 44.16044 ], [ -77.61937, 44.16047 ], [ -77.61937, 44.15388 ], [ -77.62, 44.1526 ] ] ], [ [ [ -77.61718, 44.15241 ], [ -77.61058, 44.15705 ], [ -77.6079, 44.15241 ], [ -77.62, 44.13724 ], [ -77.62, 44.14395 ], [ -77.61718, 44.15241 ] ] ] ] } },
{ "type": "Feature", "properties": { "major": "6", "components": [ { "class": "6", "sub": "R", "pct": 100 } ] }, "geometry": { "type": "Polygon", "coordinates": [ [ [ -77.11301, 44.15168 ], [ -77.12643, 44.14875 ], [ -77.13571, 44.15314 ], [ -77.12912, 44.15974 ], [ -77.11984, 44.16218 ], [ -77.11154, 44.15485 ], [ -77.11301, 44.15168 ] ] ] } },
{ "type": "Feature", "properties": { "major": "1", "components": [ { "class": "1", "sub": "", "pct": 100 } ] }, "geometry": { "type": "Polygon", "coordinates": [ [ [ -77.08346, 44.15949 ], [ -77.07272, 44.15876 ], [ -77.07931, 44.1551 ], [ -77.0986, 44.14948 ], [ -77.09909, 44.14411 ], [ -77.12448, 44.13361 ], [ -77.1301, 44.13313 ], [ -77.13547, 44.13825 ], [ -77.15451, 44.13459 ], [ -77.1528, 44.14314 ], [ -77.16257, 44.13923 ], [ -77.16745, 44.12995 ], [ -77.16745, 44.12141 ], [ -77.18186, 44.10944 ], [ -77.19114, 44.11335 ], [ -77.19895, 44.10651 ], [ -77.20652, 44.09479 ], [ -77.21799, 44.08747 ], [ -77.23874, 44.08576 ], [ -77.24143, 44.08942 ], [ -77.2302, 44.09186 ], [ -77.22043, 44.10578 ], [ -77.20725, 44.11188 ], [ -77.20359, 44.1175 ], [ -77.18625, 44.12751 ], [ -77.18918, 44.13557 ], [ -77.18723, 44.13947 ], [ -77.17942, 44.1468 ], [ -77.16379, 44.15168 ], [ -77.14084, 44.15168 ], [ -77.13571, 44.15314 ], [ -77.12643, 44.14875 ], [ -77.11301, 44.15168 ], [ -77.11154, 44.15485 ], [ -77.11984, 44.16218 ], [ -77.10324, 44.16706 ], [ -77.0925, 44.16706 ], [ -77.08346, 44.15949 ] ] ] } },
{ "type": "Feature", "properties": { "major": "4", "components": [ { "class": "4", "sub": "R", "pct": 100 } ] }, "geometry": { "type": "Polygon", "coordinates": [ [ [ -77.39183, 44.16486 ], [ -77.39451, 44.15949 ], [ -77.40208, 44.15339 ], [ -77.41111, 44.1507 ], [ -77.41575, 44.15632 ], [ -77.41429, 44.16364 ], [ -77.40843, 44.16706 ], [ -77.39525, 44.16682 ], [ -77.39183, 44.16486 ] ] ] } },
{ "type": "Feature", "properties": { "major": "1", "components": [ { "class": "1", "sub": "", "pct": 100 } ] }, "geometry": { "type": "Polygon", "coordinates": [ [ [ -76.8149, 44.15974 ], [ -76.8, 44.1653 ], [ -76.8, 44.15946 ], [ -76.80318, 44.15754 ], [ -76.83175, 44.14411 ], [ -76.84444, 44.13923 ], [ -76.8586, 44.14118 ], [ -76.86056, 44.14411 ], [ -76.84884, 44.15168 ], [ -76.83346, 44.15607 ], [ -76.8276, 44.16144 ], [ -76.83639, 44.159 ], [ -76.84225, 44.16437 ], [ -76.83956, 44.1673 ], [ -76.82564, 44.16999 ], [ -76.82198, 44.16389 ], [ -76.8149, 44.15974 ] ] ] } },
{ "type": "Feature", "properties": { "major": "2", "components": [ { "class": "2", "sub": "S", "pct": 100 } ] }, "geometry": { "type": "Polygon", "coordinates": [ [ [ -77.36351, 44.16609 ], [ -77.37571, 44.15632 ], [ -77.36692, 44.15241 ], [ -77.35423, 44.15485 ], [ -77.34104, 44.15168 ], [ -77.35081, 44.14558 ], [ -77.36277, 44.14436 ], [ -77.37645, 44.14558 ], [ -77.38792, 44.14362 ], [ -77.41722, 44.12873 ], [ -77.4619, 44.11555 ], [ -77.49461, 44.10798 ], [ -77.50218, 44.1153 ], [ -77.50462, 44.12385 ], [ -77.51146, 44.12629 ], [ -77.5056, 44.1385 ], [ -77.48753, 44.13093 ], [ -77.48827, 44.12556 ], [ -77.46434, 44.12531 ], [ -77.45482, 44.12946 ], [ -77.46336, 44.13191 ], [ -77.46287, 44.13606 ], [ -77.45482, 44.13923 ], [ -77.44139, 44.13899 ], [ -77.43431, 44.14289 ], [ -77.42332, 44.14314 ], [ -77.42845, 44.13679 ], [ -77.42235, 44.13337 ], [ -77.41356, 44.13557 ], [ -77.3994, 44.14314 ], [ -77.38865, 44.14631 ], [ -77.38524, 44.1551 ], [ -77.39451, 44.15949 ], [ -77.39183, 44.16486 ], [ -77.3762, 44.17219 ], [ -77.36473, 44.16901 ], [ -77.36351, 44.16609 ] ] ] } },
{ "type": "Feature", "properties": { "major": "4", "components": [ { "class": "4", "sub": "R", "pct": 100 } ] }, "geometry": { "type": "Polygon", "coordinates": [ [ [ -76.9946, 44.16511 ], [ -76.99142, 44.15559 ], [ -76.99752, 44.15119 ], [ -76.99679, 44.15827 ], [ -77.00265, 44.16267 ], [ -77.01169, 44.15412 ], [ -77.02023, 44.15266 ], [ -77.00924, 44.1468 ], [ -77.01754, 44.13654 ], [ -77.02633, 44.12995 ], [ -77.03561, 44.12897 ], [ -77.03683, 44.12556 ], [ -77.04782, 44.12458 ], [ -77.05124, 44.13605 ], [ -77.04391, 44.1424 ], [ -77.03073, 44.14777 ], [ -77.02902, 44.15095 ], [ -77.03561, 44.15852 ], [ -77.03634, 44.16535 ], [ -77.02536, 44.1695 ], [ -77.01095, 44.17194 ], [ -77.00436, 44.17585 ], [ -77.00119, 44.16804 ], [ -76.9946, 44.16511 ] ] ] } },
{ "type": "Feature", "properties": { "major": "2", "components": [ { "class": "2", "sub": "S", "pct": 100 } ] }, "geometry": { "type": "Polygon", "coordinates": [ [ [ -76.8149, 44.15974 ], [ -76.82198, 44.16389 ], [ -76.81319, 44.17292 ], [ -76.80538, 44.17683 ], [ -76.8, 44.17055 ], [ -76.8, 44.1653 ], [ -76.8149, 44.15974 ] ] ] } },
{ "type": "Feature", "properties": { "major": "4", "components": [ { "class": "4", "sub": "S", "pct": 100 } ] }, "geometry": { "type": "Polygon", "coordinates": [ [ [ -77.61937, 44.12727 ], [ -77.61742, 44.12043 ], [ -77.60546, 44.1341 ], [ -77.59813, 44.1341 ], [ -77.59252, 44.14094 ], [ -77.58739, 44.13923 ], [ -77.59105, 44.12531 ], [ -77.59203, 44.11262 ], [ -77.58764, 44.10822 ], [ -77.58373, 44.10236 ], [ -77.57445, 44.09626 ], [ -77.56102, 44.09431 ], [ -77.54833, 44.09895 ], [ -77.54882, 44.10603 ], [ -77.55419, 44.12068 ], [ -77.54833, 44.12287 ], [ -77.53221, 44.12385 ], [ -77.52635, 44.11384 ], [ -77.52391, 44.10749 ], [ -77.51195, 44.09821 ], [ -77.53246, 44.08186 ], [ -77.54296, 44.07893 ], [ -77.56957, 44.05842 ], [ -77.5764, 44.05622 ], [ -77.57982, 44.05012 ], [ -77.60473, 44.03791 ], [ -77.61181, 44.04182 ], [ -77.59691, 44.04817 ], [ -77.61181, 44.05232 ], [ -77.60936, 44.06306 ], [ -77.59032, 44.08698 ], [ -77.58812, 44.09528 ], [ -77.59765, 44.09358 ], [ -77.60106, 44.10041 ], [ -77.59642, 44.10505 ], [ -77.60546, 44.10676 ], [ -77.60619, 44.10017 ], [ -77.61742, 44.09797 ], [ -77.62, 44.09688 ], [ -77.62, 44.10202 ], [ -77.61327, 44.10188 ], [ -77.61034, 44.10725 ], [ -77.61596, 44.10554 ], [ -77.62, 44.10817 ], [ -77.62, 44.12765 ], [ -77.61937, 44.12727 ] ] ] } },
{ "type": "Feature", "properties": { "major": "3", "components": [ { "class": "3", "sub": "R", "pct": 100 } ] }, "geometry": { "type": "Polygon", "coordinates": [ [ [ -77.39183, 44.16486 ], [ -77.39525, 44.16682 ], [ -77.38328, 44.18122 ], [ -77.3762, 44.17219 ], [ -77.39183, 44.16486 ] ] ] } },
{ "type": "Feature", "properties": { "major": "2", "components": [ { "class": "2", "sub": "W", "pct": 100 } ] }, "geometry": { "type": "Polygon", "coordinates": [ [ [ -77.34788, 44.18586 ], [ -77.34324, 44.18562 ], [ -77.34153, 44.17976 ], [ -77.33104, 44.17316 ], [ -77.33152, 44.16364 ], [ -77.34104, 44.15168 ], [ -77.35423, 44.15485 ], [ -77.36692, 44.15241 ], [ -77.37571, 44.15632 ], [ -77.36351, 44.16609 ], [ -77.36473, 44.16901 ], [ -77.36009, 44.17414 ], [ -77.36644, 44.17732 ], [ -77.37034, 44.18586 ], [ -77.35203, 44.18391 ], [ -77.34788, 44.18586 ] ] ] } },
{ "type": "Feature", "properties": { "major": "1", "components": [ { "class": "1", "sub": "", "pct": 100 } ] }, "geometry": { "type": "Polygon", "coordinates": [ [ [ -77.39525, 44.16682 ], [ -77.40843, 44.16706 ], [ -77.41429, 44.16364 ], [ -77.41575, 44.15632 ], [ -77.42283, 44.15778 ], [ -77.41429, 44.16779 ], [ -77.42259, 44.17268 ], [ -77.41478, 44.18171 ], [ -77.40501, 44.18342 ], [ -77.39451, 44.19196 ], [ -77.38328, 44.18122 ], [ -77.39525, 44.16682 ] ] ] } },
{ "type": "Feature", "properties": { "major": "7", "components": [ { "class": "7", "sub": "W", "pct": 100 } ] }, "geometry": { "type": "Polygon", "coordinates": [ [ [ -77.18625, 44.18098 ], [ -77.20872, 44.16267 ], [ -77.21213, 44.16242 ], [ -77.22825, 44.17268 ], [ -77.22874, 44.17707 ], [ -77.2114, 44.18415 ], [ -77.19602, 44.19245 ], [ -77.1843, 44.1905 ], [ -77.18625, 44.18098 ] ] ] } },
{ "type": "Feature", "properties": { "major": "6", "components": [ { "class": "6", "sub": "R", "pct": 100 } ] }, "geometry": { "type": "Polygon", "coordinates": [ [ [ -77.59423, 44.18464 ], [ -77.58129, 44.17463 ], [ -77.58324, 44.16267 ], [ -77.57347, 44.14875 ], [ -77.57982, 44.14314 ], [ -77.58251, 44.12751 ], [ -77.57494, 44.11726 ], [ -77.58764, 44.10822 ], [ -77.59203, 44.11262 ], [ -77.59105, 44.12531 ], [ -77.58739, 44.13923 ], [ -77.59252, 44.14094 ], [ -77.59813, 44.1341 ], [ -77.60546, 44.1341 ], [ -77.60277, 44.14216 ], [ -77.6079, 44.15241 ], [ -77.61058, 44.15705 ], [ -77.61449, 44.17219 ], [ -77.6101, 44.18195 ], [ -77.60033, 44.1927 ], [ -77.59301, 44.18952 ], [ -77.59423, 44.18464 ] ] ] } },
{ "type": "Feature", "properties": { "major": "1", "components": [ { "class": "1", "sub": "", "pct": 60 }, { "class": "3", "sub": "T", "pct": 40 } ] }, "geometry": { "type": "Polygon", "coordinates": [ [ [ -77.6101, 44.18195 ], [ -77.61449, 44.17219 ], [ -77.61058, 44.15705 ], [ -77.61718, 44.15241 ], [ -77.62, 44.14395 ], [ -77.62, 44.1526 ], [ -77.61937, 44.15388 ], [ -77.61937, 44.16047 ], [ -77.62, 44.16044 ], [ -77.62, 44.19256 ], [ -77.6101, 44.18195 ] ] ] } },
{ "type": "Feature", "properties": { "major": "6", "components": [ { "class": "6", "sub": "R", "pct": 100 } ] }, "geometry": { "type": "Polygon", "coordinates": [ [ [ -76.98239, 44.18537 ], [ -76.96774, 44.18244 ], [ -76.96628, 44.17658 ], [ -76.9548, 44.1844 ], [ -76.95187, 44.18147 ], [ -76.96628, 44.16828 ], [ -76.96701, 44.16364 ], [ -76.94821, 44.16682 ], [ -76.93209, 44.16559 ], [ -76.92379, 44.16096 ], [ -76.91183, 44.15876 ], [ -76.91232, 44.15412 ], [ -76.92379, 44.14997 ], [ -76.93453, 44.13288 ], [ -76.9443, 44.12482 ], [ -76.95578, 44.12189 ], [ -76.96334, 44.12653 ], [ -76.97409, 44.12385 ], [ -76.99289, 44.11628 ], [ -76.99704, 44.10895 ], [ -77.00461, 44.10895 ], [ -77.01266, 44.1048 ], [ -77.0195, 44.10505 ], [ -77.03903, 44.09602 ], [ -77.05246, 44.0965 ], [ -77.07614, 44.08405 ], [ -77.08151, 44.07453 ], [ -77.07468, 44.0655 ], [ -77.08982, 44.06281 ], [ -77.10544, 44.05402 ], [ -77.1174, 44.05817 ], [ -77.11838, 44.06599 ], [ -77.10398, 44.07404 ], [ -77.08518, 44.0948 ], [ -77.0881, 44.11579 ], [ -77.082, 44.12824 ], [ -77.07834, 44.14387 ], [ -77.08908, 44.14655 ], [ -77.09909, 44.14411 ], [ -77.0986, 44.14948 ], [ -77.07931, 44.1551 ], [ -77.07272, 44.15876 ], [ -77.08346, 44.15949 ], [ -77.0925, 44.16706 ], [ -77.10324, 44.16706 ], [ -77.10764, 44.1717 ], [ -77.11862, 44.17219 ], [ -77.12692, 44.17561 ], [ -77.11935, 44.18562 ], [ -77.09665, 44.18757 ], [ -77.08493, 44.1861 ], [ -77.07614, 44.17658 ], [ -77.06369, 44.17658 ], [ -77.0527, 44.17194 ], [ -77.0444, 44.17561 ], [ -77.02511, 44.19025 ], [ -77.01657, 44.19343 ], [ -76.99167, 44.19318 ], [ -76.98239, 44.18537 ] ], [ [ -77.02536, 44.1695 ], [ -77.03634, 44.16535 ], [ -77.03561, 44.15852 ], [ -77.02902, 44.15095 ], [ -77.03073, 44.14777 ], [ -77.04391, 44.1424 ], [ -77.05124, 44.13605 ], [ -77.04782, 44.12458 ], [ -77.06735, 44.11604 ], [ -77.0715, 44.10188 ], [ -77.05881, 44.0987 ], [ -77.03757, 44.10529 ], [ -77.01852, 44.11433 ], [ -77.01315, 44.12238 ], [ -77.01462, 44.1258 ], [ -77.03293, 44.12116 ], [ -77.03683, 44.12556 ], [ -77.03561, 44.12897 ], [ -77.02633, 44.12995 ], [ -77.01754, 44.13654 ], [ -77.00924, 44.1468 ], [ -77.02023, 44.15266 ], [ -77.01169, 44.15412 ], [ -77.00265, 44.16267 ], [ -76.99679, 44.15827 ], [ -76.99752, 44.15119 ], [ -76.99142, 44.15559 ], [ -76.9946, 44.16511 ], [ -77.00119, 44.16804 ], [ -77.00436, 44.17585 ], [ -77.01095, 44.17194 ], [ -77.02536, 44.1695 ] ] ] } },
{ "type": "Feature", "properties": { "major": "3", "components": [ { "class": "3", "sub": "W", "pct": 100 } ] }, "geometry": { "type": "Polygon", "coordinates": [ [ [ -77.30052, 44.19074 ], [ -77.30052, 44.18439 ], [ -77.3076, 44.18098 ], [ -77.31248, 44.17023 ], [ -77.33152, 44.16364 ], [ -77.33104, 44.17316 ], [ -77.34153, 44.17976 ], [ -77.34324, 44.18562 ], [ -77.33445, 44.19196 ], [ -77.32005, 44.19489 ], [ -77.30898, 44.2 ], [ -77.29852, 44.2 ], [ -77.29392, 44.19318 ], [ -77.30052, 44.19074 ] ] ] } },
{ "type": "Feature", "properties": { "major": "4", "components": [ { "class": "4", "sub": "T", "pct": 100 } ] }, "geometry": { "type": "Polygon", "coordinates": [ [ [ -77.56908, 44.18659 ], [ -77.56591, 44.17756 ], [ -77.5598, 44.17146 ], [ -77.56322, 44.16242 ], [ -77.54808, 44.16145 ], [ -77.55516, 44.1551 ], [ -77.55614, 44.14973 ], [ -77.56322, 44.14118 ], [ -77.57006, 44.13874 ], [ -77.56249, 44.14875 ], [ -77.56566, 44.15241 ], [ -77.57347, 44.14875 ], [ -77.58324, 44.16267 ], [ -77.58129, 44.17463 ], [ -77.59423, 44.18464 ], [ -77.59301, 44.18952 ], [ -77.58031, 44.19685 ], [ -77.57729, 44.2 ], [ -77.56416, 44.2 ], [ -77.56908, 44.18659 ] ] ] } },
{ "type": "Feature", "properties": { "major": "1", "components": [ { "class": "1", "sub": "", "pct": 100 } ] }, "geometry": { "type": "Polygon", "coordinates": [ [ [ -77.61327, 44.19734 ], [ -77.61816, 44.2 ], [ -77.60808, 44.2 ], [ -77.61327, 44.19734 ] ] ] } },
{ "type": "Feature", "properties": { "major": "6", "components": [ { "class": "6", "sub": "R", "pct": 100 } ] }, "geometry": { "type": "Polygon", "coordinates": [ [ [ -76.9277, 44.19904 ], [ -76.93454, 44.19123 ], [ -76.9404, 44.18952 ], [ -76.93869, 44.19709 ], [ -76.94821, 44.19465 ], [ -76.96579, 44.19758 ], [ -76.97995, 44.19465 ], [ -76.9841, 44.19904 ], [ -76.9835, 44.2 ], [ -76.92967, 44.2 ], [ -76.9277, 44.19904 ] ] ] } },
{ "type": "Feature", "properties": { "major": "4", "components": [ { "class": "4", "sub": "T", "pct": 100 } ] }, "geometry": { "type": "Polygon", "coordinates": [ [ [ -77.46898, 44.19489 ], [ -77.46873, 44.18903 ], [ -77.48265, 44.18391 ], [ -77.48729, 44.18659 ], [ -77.48851, 44.17707 ], [ -77.48021, 44.17902 ], [ -77.48216, 44.17487 ], [ -77.49388, 44.17268 ], [ -77.49876, 44.17707 ], [ -77.50633, 44.17048 ], [ -77.50633, 44.18 ], [ -77.5139, 44.16438 ], [ -77.51927, 44.1634 ], [ -77.51903, 44.16975 ], [ -77.52757, 44.16706 ], [ -77.52318, 44.17414 ], [ -77.53368, 44.17854 ], [ -77.52489, 44.19245 ], [ -77.51825, 44.2 ], [ -77.46561, 44.2 ], [ -77.46898, 44.19489 ] ] ] } },
{ "type": "Feature", "properties": { "major": "3", "components": [ { "class": "3", "sub": "W", "pct": 100 } ] }, "geometry": { "type": "Polygon", "coordinates": [ [ [ -77.42308, 44.1905 ], [ -77.42894, 44.18659 ], [ -77.44701, 44.18806 ], [ -77.45042, 44.18391 ], [ -77.44969, 44.1739 ], [ -77.43846, 44.16975 ], [ -77.41527, 44.18537 ], [ -77.4138, 44.19026 ], [ -77.39989, 44.19807 ], [ -77.39451, 44.19196 ], [ -77.40501, 44.18342 ], [ -77.41478, 44.18171 ], [ -77.42259, 44.17268 ], [ -77.41429, 44.16779 ], [ -77.42283, 44.15778 ], [ -77.43431, 44.14289 ], [ -77.44139, 44.13899 ], [ -77.45482, 44.13923 ], [ -77.46287, 44.13606 ], [ -77.46336, 44.13191 ], [ -77.45482, 44.12946 ], [ -77.46434, 44.12531 ], [ -77.48827, 44.12556 ], [ -77.48753, 44.13093 ], [ -77.5056, 44.1385 ], [ -77.51146, 44.12629 ], [ -77.52635, 44.11384 ], [ -77.53221, 44.12385 ], [ -77.54833, 44.12287 ], [ -77.54173, 44.13191 ], [ -77.53588, 44.13532 ], [ -77.52709, 44.14655 ], [ -77.52294, 44.15925 ], [ -77.5266, 44.16023 ], [ -77.52757, 44.16706 ], [ -77.51903, 44.16975 ], [ -77.51927, 44.1634 ], [ -77.5139, 44.16438 ], [ -77.50633, 44.18 ], [ -77.50633, 44.17048 ], [ -77.49876, 44.17707 ], [ -77.49388, 44.17268 ], [ -77.48216, 44.17487 ], [ -77.48021, 44.17902 ], [ -77.48851, 44.17707 ], [ -77.48729, 44.18659 ], [ -77.48265, 44.18391 ], [ -77.46873, 44.18903 ], [ -77.46898, 44.19489 ], [ -77.46561, 44.2 ], [ -77.42089, 44.2 ], [ -77.42308, 44.1905 ] ] ] } },
{ "type": "Feature", "properties": { "major": "1", "components": [ { "class": "1", "sub": "", "pct": 100 } ] }, "geometry": { "type": "Polygon", "coordinates": [ [ [ -77.41478, 44.19221 ], [ -77.4138, 44.19026 ], [ -77.41527, 44.18537 ], [ -77.43846, 44.16975 ], [ -77.44969, 44.1739 ], [ -77.45042, 44.18391 ], [ -77.44701, 44.18806 ], [ -77.42894, 44.18659 ], [ -77.42308, 44.1905 ], [ -77.42089, 44.2 ], [ -77.40476, 44.2 ], [ -77.41478, 44.19221 ] ] ] } },
{ "type": "Feature", "properties": { "major": "6", "components": [ { "class": "6", "sub": "R", "pct": 100 } ] }, "geometry": { "type": "Polygon", "coordinates": [ [ [ -77.3762, 44.19392 ], [ -77.35569, 44.19563 ], [ -77.35594, 44.19074 ], [ -77.34788, 44.18586 ], [ -77.35203, 44.18391 ], [ -77.37034, 44.18586 ], [ -77.36644, 44.17732 ], [ -77.36009, 44.17414 ], [ -77.36473, 44.16901 ], [ -77.3762, 44.17219 ], [ -77.38328, 44.18122 ], [ -77.39451, 44.19196 ], [ -77.39989, 44.19807 ], [ -77.4138, 44.19026 ], [ -77.41478, 44.19221 ], [ -77.40476, 44.2 ], [ -77.36961, 44.2 ], [ -77.3762, 44.19392 ] ] ] } },
{ "type": "Feature", "properties": { "major": "2", "components": [ { "class": "2", "sub": "S", "pct": 100 } ] }, "geometry": { "type": "Polygon", "coordinates": [ [ [ -76.9841, 44.19904 ], [ -77.0068, 44.19563 ], [ -77.0151, 44.19807 ], [ -77.01369, 44.2 ], [ -76.9835, 44.2 ], [ -76.9841, 44.19904 ] ] ] } },
{ "type": "Feature", "properties": { "major": "9", "components": [ { "class": "8", "sub": "Z", "pct": 100 } ] }, "geometry": { "type": "MultiPolygon", "coordinates": [ [ [ [ -77.59911, 44.00007 ], [ -77.60082, 43.99445 ], [ -77.59691, 43.98811 ], [ -77.58617, 43.97834 ], [ -77.55101, 43.95612 ], [ -77.53075, 43.94221 ], [ -77.52733, 43.93708 ], [ -77.53246, 43.92341 ], [ -77.55394, 43.90119 ], [ -77.55297, 43.89582 ], [ -77.5454, 43.89167 ], [ -77.53807, 43.89362 ], [ -77.51195, 43.91096 ], [ -77.50023, 43.9156 ], [ -77.4785, 43.92072 ], [ -77.44457, 43.92121 ], [ -77.42528, 43.9239 ], [ -77.40062, 43.93122 ], [ -77.38524, 43.93366 ], [ -77.34959, 43.93561 ], [ -77.33567, 43.9322 ], [ -77.32127, 43.92365 ], [ -77.31199, 43.9134 ], [ -77.30101, 43.89631 ], [ -77.29759, 43.88996 ], [ -77.2866, 43.88288 ], [ -77.27561, 43.88288 ], [ -77.26023, 43.88679 ], [ -77.25266, 43.88654 ], [ -77.24925, 43.88142 ], [ -77.25388, 43.87214 ], [ -77.26512, 43.86262 ], [ -77.26292, 43.85798 ], [ -77.249, 43.84822 ], [ -77.23216, 43.84773 ], [ -77.22703, 43.84944 ], [ -77.20017, 43.85529 ], [ -77.18943, 43.85529 ], [ -77.17991, 43.84455 ], [ -77.17185, 43.83259 ], [ -77.16038, 43.82624 ], [ -77.14548, 43.8238 ], [ -77.12473, 43.83405 ], [ -77.11496, 43.83845 ], [ -77.08884, 43.85334 ], [ -77.07639, 43.85993 ], [ -77.04123, 43.87409 ], [ -77.02267, 43.8802 ], [ -76.98898, 43.88947 ], [ -76.95456, 43.90143 ], [ -76.91671, 43.91437 ], [ -76.88082, 43.92243 ], [ -76.83468, 43.93146 ], [ -76.81075, 43.93732 ], [ -76.8, 43.93732 ], [ -76.8, 43.8 ], [ -77.62, 43.8 ], [ -77.62, 44.00007 ], [ -77.59911, 44.00007 ] ] ], [ [ [ -76.81271, 43.97248 ], [ -76.83492, 43.97175 ], [ -76.84982, 43.96808 ], [ -76.87106, 43.96198 ], [ -76.88253, 43.95514 ], [ -76.89987, 43.94855 ], [ -76.9277, 43.9444 ], [ -76.94186, 43.94709 ], [ -76.96823, 43.94782 ], [ -76.98849, 43.94636 ], [ -76.99679, 43.94807 ], [ -77.01755, 43.9527 ], [ -77.0134, 43.9593 ], [ -77.00314, 43.9632 ], [ -76.99216, 43.97346 ], [ -76.97091, 43.97272 ], [ -76.9609, 43.97638 ], [ -76.95138, 43.98493 ], [ -76.94943, 44.00055 ], [ -76.95919, 44.00983 ], [ -76.96042, 44.01423 ], [ -76.94479, 44.01374 ], [ -76.94015, 44.01569 ], [ -76.93502, 44.01496 ], [ -76.9111, 44.02326 ], [ -76.90768, 44.02741 ], [ -76.89938, 44.02936 ], [ -76.89181, 44.03522 ], [ -76.89474, 44.0401 ], [ -76.88888, 44.05549 ], [ -76.88473, 44.0611 ], [ -76.88107, 44.0611 ], [ -76.83981, 44.08576 ], [ -76.83639, 44.08674 ], [ -76.83614, 44.1048 ], [ -76.84151, 44.11384 ], [ -76.85274, 44.11457 ], [ -76.87081, 44.10261 ], [ -76.88424, 44.09943 ], [ -76.89913, 44.08967 ], [ -76.90743, 44.08136 ], [ -76.92062, 44.07551 ], [ -76.93576, 44.06574 ], [ -76.96676, 44.0528 ], [ -76.98678, 44.04694 ], [ -77.00387, 44.03888 ], [ -77.0112, 44.03718 ], [ -77.02072, 44.03522 ], [ -77.02731, 44.03766 ], [ -77.04807, 44.04059 ], [ -77.07102, 44.04548 ], [ -77.06369, 44.04987 ], [ -77.04782, 44.04255 ], [ -77.01999, 44.04377 ], [ -76.99313, 44.0528 ], [ -76.98971, 44.05573 ], [ -76.96652, 44.05939 ], [ -76.9526, 44.06794 ], [ -76.95333, 44.07746 ], [ -76.92721, 44.09577 ], [ -76.92184, 44.10138 ], [ -76.9172, 44.10114 ], [ -76.89865, 44.10676 ], [ -76.88497, 44.11262 ], [ -76.87399, 44.12018 ], [ -76.85055, 44.13239 ], [ -76.84444, 44.13923 ], [ -76.83175, 44.14411 ], [ -76.80318, 44.15754 ], [ -76.8, 44.15946 ], [ -76.8, 44.14237 ], [ -76.80489, 44.14045 ], [ -76.80977, 44.13654 ], [ -76.81222, 44.1236 ], [ -76.80123, 44.11286 ], [ -76.8, 44.11323 ], [ -76.8, 43.97021 ], [ -76.81271, 43.97248 ] ] ] ] } },
{ "type": "Feature", "properties": { "major": "3", "components": [ { "class": "3", "sub": "W", "pct": 100 } ] }, "geometry": { "type": "MultiPolygon", "coordinates": [ [ [ [ -77.24827, 44.19904 ], [ -77.24888, 44.2 ], [ -77.24731, 44.2 ], [ -77.24827, 44.19904 ] ] ], [ [ [ -77.27244, 44.19831 ], [ -77.27171, 44.19221 ], [ -77.28367, 44.18635 ], [ -77.29051, 44.1861 ], [ -77.28123, 44.19343 ], [ -77.27929, 44.2 ], [ -77.26878, 44.2 ], [ -77.27244, 44.19831 ] ] ] ] } },
{ "type": "Feature", "properties": { "major": "3", "components": [ { "class": "3", "sub": "W", "pct": 100 } ] }, "geometry": { "type": "Polygon", "coordinates": [ [ [ -77.52489, 44.19245 ], [ -77.53441, 44.19367 ], [ -77.52889, 44.2 ], [ -77.51825, 44.2 ], [ -77.52489, 44.19245 ] ] ] } },
{ "type": "Feature", "properties": { "major": "3", "components": [ { "class": "3", "sub": "W", "pct": 100 } ] }, "geometry": { "type": "Polygon", "coordinates": [ [ [ -77.35569, 44.19563 ], [ -77.3762, 44.19392 ], [ -77.36961, 44.2 ], [ -77.34819, 44.2 ], [ -77.35569, 44.19563 ] ] ] } },
{ "type": "Feature", "properties": { "major": "3", "components": [ { "class": "3", "sub": "S", "pct": 100 } ] }, "geometry": { "type": "MultiPolygon", "coordinates": [ [ [ [ -77.53441, 44.19367 ], [ -77.52489, 44.19245 ], [ -77.53368, 44.17854 ], [ -77.52318, 44.17414 ], [ -77.52757, 44.16706 ], [ -77.5266, 44.16023 ], [ -77.53661, 44.15217 ], [ -77.54784, 44.13801 ], [ -77.55516, 44.13508 ], [ -77.55858, 44.13899 ], [ -77.55248, 44.14631 ], [ -77.55614, 44.14973 ], [ -77.55516, 44.1551 ], [ -77.54808, 44.16145 ], [ -77.56322, 44.16242 ], [ -77.5598, 44.17146 ], [ -77.56591, 44.17756 ], [ -77.56908, 44.18659 ], [ -77.56416, 44.2 ], [ -77.52889, 44.2 ], [ -77.53441, 44.19367 ] ] ], [ [ [ -77.58031, 44.19685 ], [ -77.59301, 44.18952 ], [ -77.60033, 44.1927 ], [ -77.6101, 44.18195 ], [ -77.62, 44.19256 ], [ -77.62, 44.2 ], [ -77.61816, 44.2 ], [ -77.61327, 44.19734 ], [ -77.60808, 44.2 ], [ -77.57729, 44.2 ], [ -77.58031, 44.19685 ] ] ] ] } },
{ "type": "Feature", "properties": { "major": "3", "components": [ { "class": "3", "sub": "W", "pct": 100 } ] }, "geometry": { "type": "Polygon", "coordinates": [ [ [ -77.0151, 44.19807 ], [ -77.0068, 44.19563 ], [ -76.9841, 44.19904 ], [ -76.97995, 44.19465 ], [ -76.96579, 44.19758 ], [ -76.94821, 44.19465 ], [ -76.93869, 44.19709 ], [ -76.9404, 44.18952 ], [ -76.93454, 44.19123 ], [ -76.9277, 44.19904 ], [ -76.92967, 44.2 ], [ -76.8, 44.2 ], [ -76.8, 44.17055 ], [ -76.80538, 44.17683 ], [ -76.81319, 44.17292 ], [ -76.82198, 44.16389 ], [ -76.82564, 44.16999 ], [ -76.83956, 44.1673 ], [ -76.84225, 44.16437 ], [ -76.83639, 44.159 ], [ -76.8276, 44.16144 ], [ -76.83346, 44.15607 ], [ -76.84884, 44.15168 ], [ -76.86056, 44.14411 ], [ -76.8586, 44.14118 ], [ -76.87277, 44.13263 ], [ -76.90231, 44.12873 ], [ -76.89254, 44.13337 ], [ -76.88888, 44.13874 ], [ -76.89742, 44.14289 ], [ -76.89767, 44.14582 ], [ -76.89913, 44.15314 ], [ -76.91232, 44.15412 ], [ -76.91183, 44.15876 ], [ -76.92379, 44.16096 ], [ -76.93209, 44.16559 ], [ -76.94821, 44.16682 ], [ -76.96701, 44.16364 ], [ -76.96628, 44.16828 ], [ -76.95187, 44.18147 ], [ -76.9548, 44.1844 ], [ -76.96628, 44.17658 ], [ -76.96774, 44.18244 ], [ -76.98239, 44.18537 ], [ -76.99167, 44.19318 ], [ -77.01657, 44.19343 ], [ -77.02511, 44.19025 ], [ -77.0444, 44.17561 ], [ -77.0527, 44.17194 ], [ -77.06369, 44.17658 ], [ -77.07614, 44.17658 ], [ -77.08493, 44.1861 ], [ -77.09665, 44.18757 ], [ -77.11935, 44.18562 ], [ -77.12692, 44.17561 ], [ -77.11862, 44.17219 ], [ -77.10764, 44.1717 ], [ -77.10324, 44.16706 ], [ -77.11984, 44.16218 ], [ -77.12912, 44.15974 ], [ -77.13571, 44.15314 ], [ -77.14084, 44.15168 ], [ -77.16379, 44.15168 ], [ -77.17942, 44.1468 ], [ -77.18723, 44.13947 ], [ -77.1948, 44.14362 ], [ -77.2031, 44.14289 ], [ -77.21824, 44.13776 ], [ -77.23972, 44.1363 ], [ -77.26438, 44.12922 ], [ -77.28367, 44.11921 ], [ -77.29221, 44.11652 ], [ -77.30222, 44.11896 ], [ -77.29563, 44.12409 ], [ -77.30393, 44.12824 ], [ -77.29588, 44.13728 ], [ -77.30003, 44.13947 ], [ -77.3054, 44.14655 ], [ -77.28391, 44.15144 ], [ -77.26975, 44.159 ], [ -77.26414, 44.16535 ], [ -77.26243, 44.1778 ], [ -77.24827, 44.18342 ], [ -77.22654, 44.1966 ], [ -77.22374, 44.2 ], [ -77.01369, 44.2 ], [ -77.0151, 44.19807 ] ], [ [ -77.22874, 44.17707 ], [ -77.22825, 44.17268 ], [ -77.21213, 44.16242 ], [ -77.20872, 44.16267 ], [ -77.18625, 44.18098 ], [ -77.1843, 44.1905 ], [ -77.19602, 44.19245 ], [ -77.2114, 44.18415 ], [ -77.22874, 44.17707 ] ] ] } },
{ "type": "Feature", "properties": { "major": "1", "components": [ { "class": "1", "sub": "", "pct": 100 } ] }, "geometry": { "type": "MultiPolygon", "coordinates": [ [ [ [ -77.28123, 44.19343 ], [ -77.29051, 44.1861 ], [ -77.28367, 44.18635 ], [ -77.29978, 44.17683 ], [ -77.29637, 44.16926 ], [ -77.30833, 44.16267 ], [ -77.32151, 44.1612 ], [ -77.33641, 44.1363 ], [ -77.3264, 44.13752 ], [ -77.33323, 44.1302 ], [ -77.34007, 44.13239 ], [ -77.35301, 44.13093 ], [ -77.36106, 44.12458 ], [ -77.36863, 44.12678 ], [ -77.39036, 44.11555 ], [ -77.41258, 44.09919 ], [ -77.44407, 44.0926 ], [ -77.44188, 44.09724 ], [ -77.44456, 44.10481 ], [ -77.45116, 44.10896 ], [ -77.46214, 44.10847 ], [ -77.47044, 44.1009 ], [ -77.47972, 44.09724 ], [ -77.49315, 44.0965 ], [ -77.50072, 44.09358 ], [ -77.50267, 44.0821 ], [ -77.49583, 44.07942 ], [ -77.48631, 44.08088 ], [ -77.47728, 44.0865 ], [ -77.46605, 44.08723 ], [ -77.45433, 44.08503 ], [ -77.46849, 44.07722 ], [ -77.48241, 44.07697 ], [ -77.49706, 44.06623 ], [ -77.51439, 44.06257 ], [ -77.52147, 44.06501 ], [ -77.5183, 44.06965 ], [ -77.53246, 44.08186 ], [ -77.51195, 44.09821 ], [ -77.49461, 44.10798 ], [ -77.4619, 44.11555 ], [ -77.41722, 44.12873 ], [ -77.38792, 44.14362 ], [ -77.37645, 44.14558 ], [ -77.36277, 44.14436 ], [ -77.35081, 44.14558 ], [ -77.34104, 44.15168 ], [ -77.33152, 44.16364 ], [ -77.31248, 44.17023 ], [ -77.3076, 44.18098 ], [ -77.30052, 44.18439 ], [ -77.30052, 44.19074 ], [ -77.29392, 44.19318 ], [ -77.29852, 44.2 ], [ -77.27929, 44.2 ], [ -77.28123, 44.19343 ] ] ], [ [ [ -77.32005, 44.19489 ], [ -77.33445, 44.19196 ], [ -77.34324, 44.18562 ], [ -77.34788, 44.18586 ], [ -77.35594, 44.19074 ], [ -77.35569, 44.19563 ], [ -77.34819, 44.2 ], [ -77.30898, 44.2 ], [ -77.32005, 44.19489 ] ] ] ] } },
{ "type": "Feature", "properties": { "major": "6", "components": [ { "class": "6", "sub": "R", "pct": 100 } ] }, "geometry": { "type": "Polygon", "coordinates": [ [ [ -77.22654, 44.1966 ], [ -77.24827, 44.18342 ], [ -77.26243, 44.1778 ], [ -77.26414, 44.16535 ], [ -77.26975, 44.159 ], [ -77.28391, 44.15144 ], [ -77.3054, 44.14655 ], [ -77.30003, 44.13947 ], [ -77.30662, 44.13508 ], [ -77.32517, 44.12898 ], [ -77.3347, 44.12019 ], [ -77.34446, 44.11677 ], [ -77.3552, 44.12458 ], [ -77.34715, 44.12702 ], [ -77.33567, 44.12653 ], [ -77.33323, 44.1302 ], [ -77.3264, 44.13752 ], [ -77.33641, 44.1363 ], [ -77.32151, 44.1612 ], [ -77.30833, 44.16267 ], [ -77.29637, 44.16926 ], [ -77.29978, 44.17683 ], [ -77.28367, 44.18635 ], [ -77.27171, 44.19221 ], [ -77.27244, 44.19831 ], [ -77.26878, 44.2 ], [ -77.24888, 44.2 ], [ -77.24827, 44.19904 ], [ -77.24731, 44.2 ], [ -77.22374, 44.2 ], [ -77.22654, 44.1966 ] ] ] } }
]
}
