{
"type": "FeatureCollection",
"name": "pec-outline",
"crs": { "type": "name", "properties": { "name": "urn:ogc:def:crs:OGC:1.3:CRS84" } },
"xy_coordinate_resolution": 1e-05,
"features": [
{ "type": "Feature", "properties": { }, "geometry": { "type": "MultiLineString", "coordinates": [ [ [ -77.59699, 44.00105 ], [ -77.59516, 44.00051 ], [ -77.59544, 43.99998 ], [ -77.59446, 43.99919 ], [ -77.58987, 43.99699 ], [ -77.58831, 43.99575 ], [ -77.58689, 43.994 ], [ -77.58215, 43.99126 ], [ -77.58192, 43.99058 ], [ -77.5827, 43.99038 ], [ -77.58278, 43.99004 ], [ -77.57818, 43.98676 ], [ -77.57762, 43.98551 ], [ -77.57452, 43.98204 ], [ -77.57389, 43.98075 ], [ -77.57358, 43.9806 ], [ -77.57115, 43.98095 ], [ -77.57036, 43.98166 ], [ -77.57039, 43.98197 ], [ -77.57076, 43.98213 ], [ -77.57241, 43.9817 ], [ -77.57296, 43.98175 ], [ -77.57311, 43.98209 ], [ -77.57139, 43.98357 ], [ -77.57086, 43.98519 ], [ -77.5711, 43.98605 ], [ -77.5721, 43.9871 ], [ -77.57467, 43.98732 ], [ -77.57514, 43.98761 ], [ -77.57499, 43.988 ], [ -77.57391, 43.9885 ], [ -77.57108, 43.9893 ], [ -77.57008, 43.99003 ], [ -77.56953, 43.99104 ], [ -77.56781, 43.9912 ], [ -77.56462, 43.99109 ], [ -77.56369, 43.99053 ], [ -77.56318, 43.98959 ], [ -77.56174, 43.98912 ], [ -77.56181, 43.98713 ], [ -77.56145, 43.98662 ], [ -77.56078, 43.98638 ], [ -77.55956, 43.98638 ], [ -77.55372, 43.98722 ], [ -77.55021, 43.98829 ], [ -77.54709, 43.98993 ], [ -77.54678, 43.99099 ], [ -77.54617, 43.99166 ], [ -77.54538, 43.99206 ], [ -77.54406, 43.99206 ], [ -77.54344, 43.99183 ], [ -77.54244, 43.99038 ], [ -77.54172, 43.98986 ], [ -77.54041, 43.98925 ], [ -77.53906, 43.98916 ], [ -77.5371, 43.98977 ], [ -77.53121, 43.99273 ], [ -77.53049, 43.99327 ], [ -77.52981, 43.99442 ], [ -77.52833, 43.9942 ], [ -77.52793, 43.99432 ], [ -77.52779, 43.99496 ], [ -77.52848, 43.99543 ], [ -77.52833, 43.9956 ], [ -77.52685, 43.99605 ], [ -77.52627, 43.99555 ], [ -77.52583, 43.99558 ], [ -77.52536, 43.99717 ], [ -77.52419, 43.99869 ], [ -77.52358, 43.99894 ], [ -77.52316, 43.99957 ], [ -77.52246, 44.0 ], [ -77.52178, 44.00018 ], [ -77.52146, 44.00203 ], [ -77.52077, 44.00234 ], [ -77.52074, 44.00282 ], [ -77.52161, 44.00339 ], [ -77.52244, 44.00323 ], [ -77.52386, 44.00419 ], [ -77.52533, 44.00441 ], [ -77.52637, 44.00531 ], [ -77.52847, 44.00641 ], [ -77.53104, 44.00692 ], [ -77.53259, 44.00784 ], [ -77.53259, 44.00876 ], [ -77.53302, 44.00903 ], [ -77.5338, 44.00899 ], [ -77.53427, 44.00867 ], [ -77.53509, 44.00912 ], [ -77.53602, 44.00914 ], [ -77.53671, 44.00945 ], [ -77.54112, 44.00959 ], [ -77.54152, 44.0093 ], [ -77.5427, 44.00983 ], [ -77.54362, 44.00971 ], [ -77.54756, 44.01007 ], [ -77.54964, 44.0105 ], [ -77.55034, 44.01018 ], [ -77.55386, 44.01121 ], [ -77.55562, 44.01306 ], [ -77.557, 44.013 ], [ -77.55766, 44.01337 ], [ -77.55831, 44.01311 ], [ -77.5583, 44.01273 ], [ -77.55966, 44.01187 ], [ -77.55968, 44.01137 ], [ -77.56048, 44.01098 ], [ -77.56127, 44.00989 ], [ -77.56279, 44.00903 ], [ -77.56445, 44.0087 ], [ -77.56774, 44.00755 ], [ -77.56954, 44.00816 ], [ -77.57075, 44.00913 ], [ -77.57065, 44.01017 ], [ -77.56993, 44.01156 ], [ -77.57049, 44.01257 ], [ -77.57059, 44.01367 ], [ -77.57211, 44.01554 ], [ -77.57308, 44.01558 ], [ -77.5732, 44.01603 ], [ -77.5742, 44.01619 ], [ -77.57554, 44.01561 ], [ -77.578, 44.01551 ], [ -77.57812, 44.01499 ], [ -77.58182, 44.01553 ], [ -77.58365, 44.01493 ], [ -77.58651, 44.01649 ], [ -77.587, 44.01738 ], [ -77.58632, 44.01923 ], [ -77.58364, 44.02023 ], [ -77.58366, 44.02104 ], [ -77.58209, 44.02154 ], [ -77.58157, 44.02194 ], [ -77.58093, 44.02216 ], [ -77.57927, 44.0222 ], [ -77.57891, 44.023 ], [ -77.57781, 44.02357 ], [ -77.5775, 44.02612 ], [ -77.57783, 44.02627 ], [ -77.57839, 44.02615 ], [ -77.57899, 44.0246 ], [ -77.5811, 44.02332 ], [ -77.58208, 44.02372 ], [ -77.58252, 44.02452 ], [ -77.58199, 44.02474 ], [ -77.58193, 44.02501 ], [ -77.58314, 44.02577 ], [ -77.58564, 44.02446 ], [ -77.58574, 44.02526 ], [ -77.58631, 44.0257 ], [ -77.58795, 44.02508 ], [ -77.58881, 44.02521 ], [ -77.58952, 44.02465 ], [ -77.58919, 44.02429 ], [ -77.58927, 44.02395 ], [ -77.59007, 44.02385 ], [ -77.59163, 44.02487 ], [ -77.59032, 44.02527 ], [ -77.58976, 44.02585 ], [ -77.58958, 44.02726 ], [ -77.59013, 44.02736 ], [ -77.59077, 44.02685 ], [ -77.59226, 44.02626 ], [ -77.59285, 44.02569 ], [ -77.59292, 44.02625 ], [ -77.59241, 44.02685 ], [ -77.59225, 44.02784 ], [ -77.59312, 44.02953 ], [ -77.59472, 44.03158 ], [ -77.59596, 44.03225 ], [ -77.5972, 44.03259 ], [ -77.59756, 44.03311 ], [ -77.59566, 44.03268 ], [ -77.59503, 44.03305 ], [ -77.59436, 44.03452 ], [ -77.59511, 44.03556 ], [ -77.5912, 44.03913 ], [ -77.59012, 44.03973 ], [ -77.5887, 44.04098 ], [ -77.57954, 44.05014 ], [ -77.5789, 44.05103 ], [ -77.57876, 44.05214 ], [ -77.57913, 44.05471 ], [ -77.57871, 44.0561 ], [ -77.57694, 44.05561 ], [ -77.57605, 44.0556 ], [ -77.57474, 44.05621 ], [ -77.57367, 44.05635 ], [ -77.57171, 44.05539 ], [ -77.57017, 44.05569 ], [ -77.56856, 44.05687 ], [ -77.56579, 44.05982 ], [ -77.56374, 44.06108 ], [ -77.56038, 44.064 ], [ -77.55458, 44.06681 ], [ -77.55208, 44.06943 ], [ -77.55109, 44.0698 ], [ -77.54847, 44.07187 ], [ -77.54736, 44.07316 ], [ -77.54104, 44.07766 ], [ -77.53755, 44.07937 ], [ -77.53503, 44.08006 ], [ -77.52928, 44.07965 ], [ -77.52837, 44.0805 ], [ -77.52669, 44.081 ], [ -77.52469, 44.08205 ], [ -77.5246, 44.08251 ], [ -77.52416, 44.08263 ], [ -77.52351, 44.08344 ], [ -77.52143, 44.08434 ], [ -77.52042, 44.08525 ], [ -77.51741, 44.08657 ], [ -77.51643, 44.08748 ], [ -77.51082, 44.09049 ], [ -77.51015, 44.09138 ], [ -77.5094, 44.09167 ], [ -77.50915, 44.09257 ], [ -77.50835, 44.09338 ], [ -77.50835, 44.09411 ], [ -77.50737, 44.09416 ], [ -77.50687, 44.09481 ], [ -77.50565, 44.09463 ], [ -77.50472, 44.09509 ], [ -77.5048, 44.09599 ], [ -77.50636, 44.09594 ], [ -77.50669, 44.0963 ], [ -77.50651, 44.0971 ], [ -77.50502, 44.0972 ], [ -77.50411, 44.09814 ], [ -77.503, 44.09831 ], [ -77.50199, 44.09809 ], [ -77.50083, 44.09856 ], [ -77.50016, 44.09925 ], [ -77.50011, 44.10023 ], [ -77.50039, 44.10089 ], [ -77.50022, 44.10216 ], [ -77.4997, 44.1025 ], [ -77.49919, 44.1035 ], [ -77.4989, 44.10378 ], [ -77.49827, 44.10388 ], [ -77.49725, 44.10359 ], [ -77.49627, 44.10362 ], [ -77.49584, 44.10385 ], [ -77.49576, 44.10465 ], [ -77.49748, 44.10498 ], [ -77.4979, 44.10529 ], [ -77.49784, 44.10611 ], [ -77.49677, 44.10697 ], [ -77.4945, 44.10752 ], [ -77.49379, 44.10748 ], [ -77.49323, 44.10725 ], [ -77.49306, 44.10687 ], [ -77.49232, 44.10665 ], [ -77.48969, 44.10744 ], [ -77.48773, 44.10734 ], [ -77.4872, 44.10772 ], [ -77.48608, 44.10773 ], [ -77.48582, 44.10748 ], [ -77.48648, 44.10617 ], [ -77.48624, 44.10594 ], [ -77.48572, 44.10592 ], [ -77.48252, 44.10779 ], [ -77.47816, 44.10954 ], [ -77.47672, 44.11052 ], [ -77.47342, 44.11105 ], [ -77.47269, 44.11098 ], [ -77.47073, 44.11162 ], [ -77.46893, 44.11182 ], [ -77.46592, 44.11301 ], [ -77.46374, 44.11307 ], [ -77.46136, 44.11371 ], [ -77.4594, 44.11384 ], [ -77.45683, 44.11466 ], [ -77.45584, 44.1145 ], [ -77.45219, 44.1156 ], [ -77.45041, 44.11568 ], [ -77.4499, 44.11548 ], [ -77.44872, 44.11567 ], [ -77.44465, 44.11671 ], [ -77.44245, 44.11795 ], [ -77.43373, 44.11919 ], [ -77.42941, 44.12083 ], [ -77.4277, 44.12094 ], [ -77.42609, 44.12163 ], [ -77.42472, 44.12159 ], [ -77.42331, 44.12252 ], [ -77.42071, 44.12375 ], [ -77.4188, 44.12413 ], [ -77.41811, 44.12463 ], [ -77.41723, 44.12479 ], [ -77.41685, 44.12537 ], [ -77.41647, 44.1253 ], [ -77.41579, 44.12565 ], [ -77.41495, 44.12571 ], [ -77.41362, 44.12532 ], [ -77.41156, 44.12569 ], [ -77.41044, 44.12562 ], [ -77.40757, 44.12681 ], [ -77.40648, 44.12759 ], [ -77.40447, 44.12849 ], [ -77.40397, 44.12901 ], [ -77.40317, 44.12894 ], [ -77.40297, 44.1298 ], [ -77.40223, 44.13004 ], [ -77.40219, 44.13062 ], [ -77.40061, 44.13193 ], [ -77.39876, 44.13259 ], [ -77.39821, 44.13249 ], [ -77.39771, 44.13266 ], [ -77.39776, 44.13372 ], [ -77.397, 44.13432 ], [ -77.39646, 44.13448 ], [ -77.39559, 44.13425 ], [ -77.39474, 44.13496 ], [ -77.39375, 44.1353 ], [ -77.38894, 44.1395 ], [ -77.38727, 44.14173 ], [ -77.3859, 44.14261 ], [ -77.38576, 44.14352 ], [ -77.38515, 44.14327 ], [ -77.38374, 44.14341 ], [ -77.38095, 44.14221 ], [ -77.37903, 44.14102 ], [ -77.37896, 44.14034 ], [ -77.37809, 44.1396 ], [ -77.37672, 44.14026 ], [ -77.37593, 44.14093 ], [ -77.37543, 44.14101 ], [ -77.37512, 44.14078 ], [ -77.37523, 44.14046 ], [ -77.37608, 44.14014 ], [ -77.37643, 44.1395 ], [ -77.3756, 44.13781 ], [ -77.37424, 44.1363 ], [ -77.37119, 44.13424 ], [ -77.36856, 44.13347 ], [ -77.36687, 44.13359 ], [ -77.36575, 44.13458 ], [ -77.36276, 44.13649 ], [ -77.36169, 44.13763 ], [ -77.35938, 44.13851 ], [ -77.35916, 44.13924 ], [ -77.35809, 44.13935 ], [ -77.35766, 44.13904 ], [ -77.35703, 44.13907 ], [ -77.35588, 44.13868 ], [ -77.35342, 44.13951 ], [ -77.35094, 44.13956 ], [ -77.34734, 44.14295 ], [ -77.34597, 44.14389 ], [ -77.34405, 44.14477 ], [ -77.34344, 44.14457 ], [ -77.34324, 44.14375 ], [ -77.34191, 44.14317 ], [ -77.34356, 44.14153 ], [ -77.34551, 44.14052 ], [ -77.34583, 44.13986 ], [ -77.34563, 44.1396 ], [ -77.34389, 44.13985 ], [ -77.34322, 44.13973 ], [ -77.34142, 44.13989 ], [ -77.34025, 44.14024 ], [ -77.33797, 44.1402 ], [ -77.33544, 44.14159 ], [ -77.33463, 44.14177 ], [ -77.33433, 44.14171 ], [ -77.33439, 44.1408 ], [ -77.33387, 44.14066 ], [ -77.33116, 44.14207 ], [ -77.33072, 44.14207 ], [ -77.33042, 44.1418 ], [ -77.32953, 44.14182 ], [ -77.32732, 44.14285 ], [ -77.326, 44.14283 ], [ -77.3244, 44.14365 ], [ -77.32199, 44.1458 ], [ -77.32139, 44.14562 ], [ -77.32048, 44.14597 ], [ -77.3202, 44.14505 ], [ -77.31884, 44.14516 ], [ -77.31561, 44.14792 ], [ -77.31318, 44.14866 ], [ -77.31157, 44.1486 ], [ -77.31085, 44.14817 ], [ -77.31084, 44.14774 ], [ -77.30989, 44.14756 ], [ -77.308, 44.1464 ], [ -77.308, 44.14589 ], [ -77.3097, 44.14433 ], [ -77.31094, 44.14356 ], [ -77.31067, 44.14262 ], [ -77.30949, 44.14177 ], [ -77.30979, 44.14083 ], [ -77.31117, 44.13914 ], [ -77.30975, 44.13764 ], [ -77.30697, 44.13831 ], [ -77.30578, 44.13815 ], [ -77.30331, 44.1396 ], [ -77.30245, 44.13953 ], [ -77.30207, 44.14021 ], [ -77.3012, 44.14065 ], [ -77.30077, 44.14028 ], [ -77.30039, 44.14059 ], [ -77.2994, 44.14067 ], [ -77.29904, 44.14114 ], [ -77.29753, 44.14094 ], [ -77.29841, 44.13905 ], [ -77.3026, 44.13633 ], [ -77.30375, 44.1351 ], [ -77.3044, 44.13497 ], [ -77.30453, 44.13465 ], [ -77.30564, 44.13511 ], [ -77.3066, 44.13483 ], [ -77.30671, 44.13397 ], [ -77.30629, 44.13381 ], [ -77.30575, 44.13408 ], [ -77.30559, 44.13342 ], [ -77.30404, 44.13247 ], [ -77.30418, 44.13187 ], [ -77.3059, 44.13156 ], [ -77.30765, 44.13183 ], [ -77.30808, 44.13251 ], [ -77.30926, 44.13255 ], [ -77.3124, 44.13016 ], [ -77.31484, 44.12927 ], [ -77.31983, 44.12847 ], [ -77.32136, 44.12839 ], [ -77.32324, 44.12859 ], [ -77.32421, 44.12751 ], [ -77.32498, 44.12721 ], [ -77.326, 44.12597 ], [ -77.32732, 44.1256 ], [ -77.32781, 44.12449 ], [ -77.32875, 44.12404 ], [ -77.32889, 44.12169 ], [ -77.33056, 44.11995 ], [ -77.33317, 44.11865 ], [ -77.33483, 44.11703 ], [ -77.33566, 44.11685 ], [ -77.33695, 44.11713 ], [ -77.3398, 44.1156 ], [ -77.34164, 44.11416 ], [ -77.34254, 44.11247 ], [ -77.3413, 44.11163 ], [ -77.34089, 44.11162 ], [ -77.34062, 44.11331 ], [ -77.34008, 44.11441 ], [ -77.33898, 44.11513 ], [ -77.33769, 44.11557 ], [ -77.33687, 44.11648 ], [ -77.33644, 44.11654 ], [ -77.33589, 44.11586 ], [ -77.3341, 44.11632 ], [ -77.33255, 44.11812 ], [ -77.33176, 44.1186 ], [ -77.33046, 44.11894 ], [ -77.32936, 44.11878 ], [ -77.3239, 44.12167 ], [ -77.32161, 44.12204 ], [ -77.32002, 44.12261 ], [ -77.31891, 44.1223 ], [ -77.3178, 44.12233 ], [ -77.31662, 44.12301 ], [ -77.31509, 44.12329 ], [ -77.31456, 44.12301 ], [ -77.31401, 44.12315 ], [ -77.31288, 44.12233 ], [ -77.31227, 44.12217 ], [ -77.31142, 44.12246 ], [ -77.31102, 44.12286 ], [ -77.31059, 44.12286 ], [ -77.31048, 44.12236 ], [ -77.30968, 44.12185 ], [ -77.30985, 44.12152 ], [ -77.30923, 44.11938 ], [ -77.30954, 44.11914 ], [ -77.30958, 44.11836 ], [ -77.31118, 44.11576 ], [ -77.31242, 44.11477 ], [ -77.31324, 44.1146 ], [ -77.31296, 44.11386 ], [ -77.31347, 44.11408 ], [ -77.31436, 44.11399 ], [ -77.31485, 44.11351 ], [ -77.3155, 44.11342 ], [ -77.317, 44.11253 ], [ -77.31808, 44.11266 ], [ -77.31876, 44.11226 ], [ -77.31907, 44.11242 ], [ -77.31988, 44.11235 ], [ -77.32125, 44.11173 ], [ -77.3221, 44.11101 ], [ -77.32225, 44.1101 ], [ -77.32156, 44.1089 ], [ -77.32123, 44.10697 ], [ -77.32141, 44.10637 ], [ -77.32075, 44.10508 ], [ -77.32113, 44.10445 ], [ -77.32096, 44.10368 ], [ -77.32199, 44.10237 ], [ -77.32153, 44.10165 ], [ -77.32109, 44.10163 ], [ -77.32088, 44.10196 ], [ -77.32041, 44.10187 ], [ -77.3202, 44.10153 ], [ -77.31955, 44.1014 ], [ -77.31953, 44.10094 ], [ -77.32144, 44.10024 ], [ -77.32117, 44.09877 ], [ -77.32165, 44.0973 ], [ -77.32317, 44.09636 ], [ -77.32585, 44.09616 ], [ -77.32644, 44.09577 ], [ -77.3274, 44.09562 ], [ -77.3277, 44.09531 ], [ -77.32759, 44.09495 ], [ -77.32828, 44.09478 ], [ -77.32833, 44.09439 ], [ -77.32897, 44.094 ], [ -77.33129, 44.09112 ], [ -77.33132, 44.09072 ], [ -77.33252, 44.09036 ], [ -77.33344, 44.08958 ], [ -77.33365, 44.08868 ], [ -77.33585, 44.08742 ], [ -77.33714, 44.08698 ], [ -77.33889, 44.08672 ], [ -77.33916, 44.08729 ], [ -77.33997, 44.08741 ], [ -77.33999, 44.08659 ], [ -77.34067, 44.08618 ], [ -77.34094, 44.08528 ], [ -77.34072, 44.08505 ], [ -77.34017, 44.08506 ], [ -77.3396, 44.08536 ], [ -77.33873, 44.08544 ], [ -77.33796, 44.08594 ], [ -77.33741, 44.08572 ], [ -77.33703, 44.08436 ], [ -77.33596, 44.08431 ], [ -77.33552, 44.08466 ], [ -77.33591, 44.08516 ], [ -77.33569, 44.086 ], [ -77.33346, 44.08739 ], [ -77.3321, 44.08935 ], [ -77.33096, 44.08745 ], [ -77.3251, 44.08291 ], [ -77.32239, 44.08196 ], [ -77.31981, 44.08204 ], [ -77.31767, 44.08161 ], [ -77.31633, 44.08167 ], [ -77.31715, 44.0812 ], [ -77.31717, 44.08085 ], [ -77.31624, 44.07983 ], [ -77.31499, 44.07902 ], [ -77.31119, 44.07786 ], [ -77.3074, 44.07728 ], [ -77.30525, 44.07812 ], [ -77.30371, 44.07905 ], [ -77.30049, 44.08026 ], [ -77.29766, 44.08199 ], [ -77.29402, 44.08229 ], [ -77.29069, 44.08299 ], [ -77.28954, 44.08254 ], [ -77.28845, 44.08144 ], [ -77.28729, 44.08101 ], [ -77.28611, 44.0811 ], [ -77.28272, 44.08211 ], [ -77.27876, 44.08274 ], [ -77.27464, 44.08247 ], [ -77.27282, 44.08279 ], [ -77.26809, 44.08408 ], [ -77.26603, 44.08504 ], [ -77.26416, 44.08648 ], [ -77.26348, 44.08646 ], [ -77.2618, 44.08762 ], [ -77.26059, 44.08779 ], [ -77.25944, 44.08842 ], [ -77.25998, 44.08993 ], [ -77.26111, 44.09088 ], [ -77.2607, 44.09138 ], [ -77.25872, 44.09225 ], [ -77.25799, 44.09399 ], [ -77.25762, 44.09423 ], [ -77.2571, 44.09393 ], [ -77.25657, 44.09423 ], [ -77.25495, 44.09418 ], [ -77.25316, 44.09527 ], [ -77.25276, 44.09584 ], [ -77.25294, 44.09613 ], [ -77.25523, 44.09515 ], [ -77.2572, 44.095 ], [ -77.25852, 44.09578 ], [ -77.25942, 44.09548 ], [ -77.2607, 44.09584 ], [ -77.26259, 44.09583 ], [ -77.2635, 44.09565 ], [ -77.26639, 44.09436 ], [ -77.26777, 44.09511 ], [ -77.27061, 44.09556 ], [ -77.27227, 44.09621 ], [ -77.27373, 44.09624 ], [ -77.27495, 44.09599 ], [ -77.27817, 44.09406 ], [ -77.28434, 44.09272 ], [ -77.28563, 44.09225 ], [ -77.28928, 44.09196 ], [ -77.28998, 44.09304 ], [ -77.29065, 44.09336 ], [ -77.29117, 44.09412 ], [ -77.29077, 44.09512 ], [ -77.2897, 44.09545 ], [ -77.28906, 44.09605 ], [ -77.28923, 44.09712 ], [ -77.2888, 44.09825 ], [ -77.28945, 44.09941 ], [ -77.29005, 44.09944 ], [ -77.28993, 44.1002 ], [ -77.29019, 44.10079 ], [ -77.28963, 44.10103 ], [ -77.28956, 44.10155 ], [ -77.29021, 44.10281 ], [ -77.2902, 44.1034 ], [ -77.29155, 44.10511 ], [ -77.2922, 44.10546 ], [ -77.29101, 44.10606 ], [ -77.29027, 44.1073 ], [ -77.29046, 44.10799 ], [ -77.29107, 44.10842 ], [ -77.29053, 44.10929 ], [ -77.29054, 44.11035 ], [ -77.28967, 44.11303 ], [ -77.28825, 44.11449 ], [ -77.28866, 44.11572 ], [ -77.28713, 44.11585 ], [ -77.28586, 44.11564 ], [ -77.28344, 44.1159 ], [ -77.28277, 44.11549 ], [ -77.2828, 44.11528 ], [ -77.284, 44.11413 ], [ -77.284, 44.11339 ], [ -77.28253, 44.11283 ], [ -77.28036, 44.11293 ], [ -77.27832, 44.11389 ], [ -77.27798, 44.11454 ], [ -77.27844, 44.11636 ], [ -77.2754, 44.11893 ], [ -77.27187, 44.12139 ], [ -77.26792, 44.12328 ], [ -77.2657, 44.12407 ], [ -77.26369, 44.12527 ], [ -77.26174, 44.1268 ], [ -77.26009, 44.1276 ], [ -77.25716, 44.12872 ], [ -77.25358, 44.12929 ], [ -77.24974, 44.1312 ], [ -77.24779, 44.13185 ], [ -77.2425, 44.13258 ], [ -77.23958, 44.13421 ], [ -77.23823, 44.13463 ], [ -77.23475, 44.13486 ], [ -77.23368, 44.13513 ], [ -77.23172, 44.13453 ], [ -77.2294, 44.13471 ], [ -77.22683, 44.13441 ], [ -77.22034, 44.1361 ], [ -77.21763, 44.13751 ], [ -77.21468, 44.13828 ], [ -77.21274, 44.13949 ], [ -77.21143, 44.13969 ], [ -77.21129, 44.13923 ], [ -77.21096, 44.13909 ], [ -77.20886, 44.13958 ], [ -77.20748, 44.13922 ], [ -77.20529, 44.13982 ], [ -77.20209, 44.14142 ], [ -77.19689, 44.14277 ], [ -77.1959, 44.14284 ], [ -77.19499, 44.14154 ], [ -77.19542, 44.14139 ], [ -77.19545, 44.14111 ], [ -77.19459, 44.14056 ], [ -77.1938, 44.13924 ], [ -77.19244, 44.13805 ], [ -77.19291, 44.13637 ], [ -77.19385, 44.13525 ], [ -77.19415, 44.13328 ], [ -77.19454, 44.13278 ], [ -77.19555, 44.13225 ], [ -77.19764, 44.13155 ], [ -77.19802, 44.13068 ], [ -77.19898, 44.12994 ], [ -77.19974, 44.12857 ], [ -77.20373, 44.12596 ], [ -77.20451, 44.12509 ], [ -77.20697, 44.12412 ], [ -77.20707, 44.12368 ], [ -77.20658, 44.12332 ], [ -77.2056, 44.12377 ], [ -77.20457, 44.12371 ], [ -77.2024, 44.12445 ], [ -77.20139, 44.12434 ], [ -77.19792, 44.12559 ], [ -77.1954, 44.1268 ], [ -77.19435, 44.12832 ], [ -77.19458, 44.12976 ], [ -77.19357, 44.13067 ], [ -77.19333, 44.13125 ], [ -77.19251, 44.13178 ], [ -77.19033, 44.13232 ], [ -77.18934, 44.13192 ], [ -77.1881, 44.13276 ], [ -77.18776, 44.1341 ], [ -77.18789, 44.13487 ], [ -77.18733, 44.13543 ], [ -77.18755, 44.1362 ], [ -77.18661, 44.13704 ], [ -77.1868, 44.13783 ], [ -77.18421, 44.13909 ], [ -77.18403, 44.13962 ], [ -77.18429, 44.14014 ], [ -77.18312, 44.14156 ], [ -77.18358, 44.14216 ], [ -77.18349, 44.1423 ], [ -77.18289, 44.14213 ], [ -77.18222, 44.14253 ], [ -77.182, 44.14369 ], [ -77.17994, 44.14449 ], [ -77.17972, 44.14502 ], [ -77.18014, 44.14549 ], [ -77.17875, 44.14603 ], [ -77.17761, 44.14581 ], [ -77.17666, 44.14641 ], [ -77.17546, 44.14633 ], [ -77.17447, 44.14688 ], [ -77.17375, 44.14784 ], [ -77.17233, 44.14857 ], [ -77.16822, 44.14921 ], [ -77.16743, 44.14908 ], [ -77.1669, 44.14854 ], [ -77.16555, 44.14849 ], [ -77.15954, 44.14972 ], [ -77.15814, 44.1488 ], [ -77.15692, 44.14881 ], [ -77.15579, 44.14854 ], [ -77.15233, 44.14897 ], [ -77.1503, 44.14836 ], [ -77.14902, 44.14926 ], [ -77.14754, 44.14969 ], [ -77.14422, 44.15151 ], [ -77.13935, 44.15234 ], [ -77.1389, 44.15193 ], [ -77.13884, 44.15149 ], [ -77.13769, 44.15164 ], [ -77.13652, 44.15261 ], [ -77.13555, 44.15296 ], [ -77.13544, 44.15368 ], [ -77.13505, 44.1541 ], [ -77.13428, 44.15434 ], [ -77.13334, 44.15539 ], [ -77.13339, 44.15571 ], [ -77.13423, 44.15605 ], [ -77.13359, 44.15669 ], [ -77.13076, 44.15819 ], [ -77.12892, 44.15876 ], [ -77.12623, 44.16061 ], [ -77.12427, 44.16148 ], [ -77.12232, 44.16159 ], [ -77.12103, 44.16096 ], [ -77.12031, 44.16096 ], [ -77.11894, 44.16168 ], [ -77.11746, 44.16178 ], [ -77.11735, 44.16209 ], [ -77.11786, 44.16256 ], [ -77.11662, 44.16325 ], [ -77.11584, 44.16305 ], [ -77.11568, 44.16233 ], [ -77.11531, 44.16216 ], [ -77.11321, 44.16328 ], [ -77.10822, 44.16372 ], [ -77.10689, 44.16428 ], [ -77.1065, 44.16391 ], [ -77.10572, 44.16379 ], [ -77.10215, 44.16437 ], [ -77.09444, 44.16644 ], [ -77.08635, 44.17094 ], [ -77.08582, 44.17085 ], [ -77.08529, 44.17114 ], [ -77.08419, 44.17061 ], [ -77.0836, 44.1706 ], [ -77.08289, 44.17091 ], [ -77.08106, 44.17068 ], [ -77.07913, 44.17129 ], [ -77.07565, 44.17311 ], [ -77.07488, 44.17313 ], [ -77.07252, 44.17438 ], [ -77.072, 44.17437 ], [ -77.07174, 44.17412 ], [ -77.07206, 44.17324 ], [ -77.07155, 44.17252 ], [ -77.07001, 44.17274 ], [ -77.06931, 44.17314 ], [ -77.06698, 44.1738 ], [ -77.06624, 44.17336 ], [ -77.06632, 44.17243 ], [ -77.06609, 44.17218 ], [ -77.06652, 44.17076 ], [ -77.06583, 44.16964 ], [ -77.06624, 44.16903 ], [ -77.06678, 44.16892 ], [ -77.06682, 44.16852 ], [ -77.06901, 44.16626 ], [ -77.06905, 44.1659 ], [ -77.06833, 44.16502 ], [ -77.06849, 44.16462 ], [ -77.0692, 44.16415 ], [ -77.06918, 44.16382 ], [ -77.06847, 44.1636 ], [ -77.06718, 44.1637 ], [ -77.06189, 44.16536 ], [ -77.06165, 44.16528 ], [ -77.06147, 44.16447 ], [ -77.05972, 44.16467 ], [ -77.0588, 44.16444 ], [ -77.05926, 44.16322 ], [ -77.05882, 44.16248 ], [ -77.05973, 44.16145 ], [ -77.05987, 44.16005 ], [ -77.06108, 44.15876 ], [ -77.06168, 44.15588 ], [ -77.06222, 44.15533 ], [ -77.06205, 44.15228 ], [ -77.06285, 44.15114 ], [ -77.06468, 44.15036 ], [ -77.06515, 44.14942 ], [ -77.06499, 44.14824 ], [ -77.06713, 44.14657 ], [ -77.06758, 44.14409 ], [ -77.06744, 44.14207 ], [ -77.06803, 44.14164 ], [ -77.06805, 44.141 ], [ -77.06947, 44.13843 ], [ -77.0694, 44.13706 ], [ -77.06984, 44.13601 ], [ -77.06957, 44.13515 ], [ -77.07136, 44.1336 ], [ -77.07172, 44.13273 ], [ -77.07271, 44.13194 ], [ -77.07321, 44.13095 ], [ -77.07325, 44.13015 ], [ -77.07407, 44.12911 ], [ -77.07458, 44.12765 ], [ -77.07441, 44.12666 ], [ -77.07381, 44.12558 ], [ -77.07402, 44.12092 ], [ -77.07512, 44.1183 ], [ -77.07526, 44.11698 ], [ -77.07836, 44.11464 ], [ -77.07937, 44.1135 ], [ -77.08014, 44.11338 ], [ -77.08111, 44.11236 ], [ -77.08113, 44.11087 ], [ -77.07928, 44.10981 ], [ -77.07974, 44.1088 ], [ -77.07794, 44.1059 ], [ -77.07783, 44.10529 ], [ -77.0781, 44.10381 ], [ -77.07892, 44.10277 ], [ -77.07962, 44.10215 ], [ -77.08169, 44.10123 ], [ -77.08207, 44.10074 ], [ -77.0818, 44.10029 ], [ -77.0803, 44.09947 ], [ -77.07975, 44.09805 ], [ -77.07973, 44.09733 ], [ -77.08031, 44.09629 ], [ -77.08023, 44.09523 ], [ -77.08279, 44.09243 ], [ -77.08337, 44.09078 ], [ -77.08898, 44.08713 ], [ -77.08901, 44.08384 ], [ -77.09109, 44.08232 ], [ -77.09148, 44.08169 ], [ -77.09156, 44.08081 ], [ -77.0932, 44.07953 ], [ -77.09338, 44.07867 ], [ -77.09313, 44.07754 ], [ -77.09391, 44.07642 ], [ -77.10852, 44.06676 ], [ -77.1095, 44.06353 ], [ -77.11592, 44.05612 ], [ -77.11897, 44.05204 ], [ -77.11965, 44.05076 ], [ -77.12011, 44.04897 ], [ -77.1219, 44.04726 ], [ -77.12389, 44.04605 ], [ -77.12374, 44.04387 ], [ -77.1252, 44.04167 ], [ -77.12522, 44.04107 ], [ -77.12653, 44.03941 ], [ -77.13378, 44.03499 ], [ -77.13569, 44.03419 ], [ -77.13838, 44.03379 ], [ -77.13829, 44.03347 ], [ -77.13699, 44.03313 ], [ -77.13414, 44.03113 ], [ -77.13306, 44.02954 ], [ -77.1326, 44.02767 ], [ -77.13384, 44.02578 ], [ -77.13252, 44.0245 ], [ -77.13326, 44.0236 ], [ -77.13286, 44.02221 ], [ -77.13337, 44.02101 ], [ -77.13316, 44.02026 ], [ -77.13363, 44.0194 ], [ -77.13326, 44.01913 ], [ -77.13273, 44.01931 ], [ -77.13293, 44.0189 ], [ -77.13254, 44.01833 ], [ -77.13261, 44.01701 ], [ -77.13137, 44.01606 ], [ -77.13191, 44.01568 ], [ -77.13339, 44.01559 ], [ -77.13386, 44.01526 ], [ -77.13478, 44.01387 ], [ -77.13496, 44.01283 ], [ -77.1371, 44.01036 ], [ -77.13712, 44.00997 ], [ -77.13667, 44.00977 ], [ -77.13686, 44.00927 ], [ -77.13649, 44.00908 ], [ -77.13613, 44.00921 ], [ -77.13523, 44.01053 ], [ -77.13431, 44.01066 ], [ -77.13334, 44.01191 ], [ -77.13363, 44.01305 ], [ -77.13312, 44.01324 ], [ -77.13149, 44.01289 ], [ -77.12914, 44.01612 ], [ -77.12814, 44.0167 ], [ -77.1274, 44.01658 ], [ -77.12704, 44.01679 ], [ -77.12652, 44.01797 ], [ -77.12478, 44.02034 ], [ -77.12386, 44.02272 ], [ -77.12265, 44.02449 ], [ -77.12282, 44.02568 ], [ -77.12251, 44.0265 ], [ -77.12197, 44.02674 ], [ -77.12069, 44.02871 ], [ -77.12066, 44.02993 ], [ -77.12154, 44.03067 ], [ -77.12171, 44.03136 ], [ -77.12035, 44.03388 ], [ -77.11689, 44.03779 ], [ -77.11434, 44.04011 ], [ -77.11102, 44.04215 ], [ -77.1095, 44.04277 ], [ -77.10607, 44.0436 ], [ -77.10358, 44.04456 ], [ -77.10122, 44.04483 ], [ -77.09954, 44.04523 ], [ -77.09911, 44.04555 ], [ -77.09779, 44.04553 ], [ -77.09606, 44.04581 ], [ -77.09531, 44.04566 ], [ -77.09046, 44.04579 ], [ -77.08766, 44.04623 ], [ -77.08562, 44.04597 ], [ -77.08389, 44.04604 ], [ -77.07753, 44.04473 ], [ -77.07408, 44.04487 ], [ -77.07214, 44.04472 ], [ -77.06932, 44.04353 ], [ -77.06701, 44.04369 ], [ -77.06548, 44.04317 ], [ -77.06472, 44.04341 ], [ -77.06378, 44.04336 ], [ -77.06259, 44.04291 ], [ -77.0611, 44.0428 ], [ -77.05932, 44.0416 ], [ -77.05864, 44.0417 ], [ -77.05746, 44.04138 ], [ -77.05428, 44.04032 ], [ -77.05119, 44.03959 ], [ -77.04691, 44.03811 ], [ -77.04562, 44.0381 ], [ -77.04153, 44.03909 ], [ -77.04034, 44.03836 ], [ -77.03919, 44.03825 ], [ -77.03749, 44.03737 ], [ -77.03488, 44.03678 ], [ -77.0326, 44.03589 ], [ -77.03191, 44.03592 ], [ -77.03058, 44.03643 ], [ -77.02909, 44.0361 ], [ -77.02828, 44.03581 ], [ -77.02677, 44.03456 ], [ -77.0253, 44.03445 ], [ -77.02377, 44.03343 ], [ -77.02257, 44.03356 ], [ -77.0217, 44.03402 ], [ -77.01845, 44.03654 ], [ -77.01519, 44.03741 ], [ -77.01305, 44.03686 ], [ -77.01087, 44.03758 ], [ -77.00977, 44.03766 ], [ -77.00333, 44.04011 ], [ -77.0022, 44.0403 ], [ -77.00069, 44.04022 ], [ -76.99806, 44.03909 ], [ -76.99322, 44.03935 ], [ -76.9928, 44.03982 ], [ -76.99354, 44.04017 ], [ -76.99362, 44.04074 ], [ -76.99237, 44.04232 ], [ -76.99052, 44.0433 ], [ -76.98647, 44.04474 ], [ -76.98515, 44.04536 ], [ -76.98502, 44.04562 ], [ -76.98438, 44.0456 ], [ -76.98297, 44.0464 ], [ -76.97871, 44.04803 ], [ -76.97833, 44.04863 ], [ -76.97759, 44.04833 ], [ -76.97605, 44.04856 ], [ -76.97264, 44.04954 ], [ -76.97048, 44.04973 ], [ -76.96534, 44.05087 ], [ -76.96052, 44.05221 ], [ -76.95652, 44.0538 ], [ -76.9538, 44.05589 ], [ -76.95309, 44.05593 ], [ -76.95044, 44.05685 ], [ -76.94682, 44.05847 ], [ -76.94361, 44.05952 ], [ -76.93976, 44.06027 ], [ -76.93804, 44.06032 ], [ -76.93688, 44.06074 ], [ -76.93633, 44.06121 ], [ -76.93664, 44.06222 ], [ -76.93645, 44.06271 ], [ -76.93494, 44.06331 ], [ -76.93289, 44.063 ], [ -76.93159, 44.06373 ], [ -76.92913, 44.06567 ], [ -76.92734, 44.06868 ], [ -76.92444, 44.0707 ], [ -76.92034, 44.07307 ], [ -76.91452, 44.07716 ], [ -76.90779, 44.08085 ], [ -76.90491, 44.08203 ], [ -76.90372, 44.08201 ], [ -76.90284, 44.08243 ], [ -76.90248, 44.08296 ], [ -76.90238, 44.08447 ], [ -76.90198, 44.08516 ], [ -76.89378, 44.09243 ], [ -76.89137, 44.09421 ], [ -76.88668, 44.09613 ], [ -76.88588, 44.09806 ], [ -76.88596, 44.09928 ], [ -76.88271, 44.09938 ], [ -76.88129, 44.10025 ], [ -76.87801, 44.10011 ], [ -76.8773, 44.09981 ], [ -76.87648, 44.09862 ], [ -76.8765, 44.09758 ], [ -76.87681, 44.09699 ], [ -76.87957, 44.09526 ], [ -76.87998, 44.09479 ], [ -76.88136, 44.09408 ], [ -76.88122, 44.09265 ], [ -76.88555, 44.08982 ], [ -76.88601, 44.08892 ], [ -76.88535, 44.08846 ], [ -76.88346, 44.08919 ], [ -76.88266, 44.08885 ], [ -76.88226, 44.08892 ], [ -76.882, 44.08939 ], [ -76.87922, 44.09164 ], [ -76.87964, 44.09246 ], [ -76.87869, 44.09271 ], [ -76.87585, 44.0946 ], [ -76.87588, 44.09496 ], [ -76.875, 44.09555 ], [ -76.87223, 44.09911 ], [ -76.86954, 44.10043 ], [ -76.86802, 44.10168 ], [ -76.868, 44.10199 ], [ -76.86563, 44.1032 ], [ -76.86247, 44.10576 ], [ -76.85736, 44.1087 ], [ -76.85558, 44.11031 ], [ -76.85509, 44.11023 ], [ -76.85396, 44.11076 ], [ -76.85218, 44.11122 ], [ -76.8512, 44.11177 ], [ -76.85042, 44.11297 ], [ -76.85086, 44.11343 ], [ -76.85113, 44.115 ], [ -76.85004, 44.11372 ], [ -76.84886, 44.11303 ], [ -76.84833, 44.11295 ], [ -76.84738, 44.11326 ], [ -76.84542, 44.11249 ], [ -76.84329, 44.11049 ], [ -76.8435, 44.10735 ], [ -76.84204, 44.10496 ], [ -76.84253, 44.10288 ], [ -76.84341, 44.10082 ], [ -76.84318, 44.09962 ], [ -76.84348, 44.09451 ], [ -76.84415, 44.09328 ], [ -76.84635, 44.09083 ], [ -76.84653, 44.08992 ], [ -76.85052, 44.08671 ], [ -76.85229, 44.08453 ], [ -76.85271, 44.08359 ], [ -76.85557, 44.08175 ], [ -76.8573, 44.08098 ], [ -76.86359, 44.07886 ], [ -76.86681, 44.07719 ], [ -76.86809, 44.07716 ], [ -76.869, 44.07689 ], [ -76.87665, 44.07233 ], [ -76.88201, 44.06959 ], [ -76.88325, 44.06867 ], [ -76.88573, 44.06614 ], [ -76.88678, 44.06561 ], [ -76.88866, 44.0651 ], [ -76.89022, 44.06397 ], [ -76.89213, 44.06317 ], [ -76.89443, 44.06186 ], [ -76.89526, 44.06046 ], [ -76.89736, 44.05904 ], [ -76.90023, 44.05598 ], [ -76.90114, 44.05448 ], [ -76.90107, 44.0535 ], [ -76.90145, 44.05268 ], [ -76.90159, 44.05106 ], [ -76.9028, 44.04904 ], [ -76.90193, 44.04613 ], [ -76.90065, 44.04484 ], [ -76.90054, 44.04347 ], [ -76.90091, 44.04285 ], [ -76.90286, 44.04175 ], [ -76.90296, 44.04094 ], [ -76.90249, 44.04039 ], [ -76.90204, 44.03901 ], [ -76.89881, 44.03595 ], [ -76.89878, 44.03554 ], [ -76.89996, 44.03414 ], [ -76.90179, 44.03328 ], [ -76.90402, 44.03278 ], [ -76.91032, 44.0307 ], [ -76.91188, 44.02955 ], [ -76.91465, 44.02823 ], [ -76.91695, 44.02758 ], [ -76.92521, 44.02442 ], [ -76.92774, 44.02446 ], [ -76.93075, 44.02357 ], [ -76.93162, 44.02351 ], [ -76.93444, 44.02087 ], [ -76.93582, 44.02043 ], [ -76.93668, 44.01972 ], [ -76.94028, 44.02012 ], [ -76.94138, 44.01962 ], [ -76.9431, 44.01968 ], [ -76.94342, 44.01947 ], [ -76.94574, 44.02016 ], [ -76.94698, 44.01952 ], [ -76.94691, 44.01877 ], [ -76.94748, 44.01878 ], [ -76.94836, 44.01925 ], [ -76.95051, 44.01906 ], [ -76.95535, 44.01919 ], [ -76.96248, 44.01762 ], [ -76.96528, 44.01727 ], [ -76.9677, 44.01583 ], [ -76.97111, 44.01303 ], [ -76.97282, 44.012 ], [ -76.97438, 44.01158 ], [ -76.97561, 44.01094 ], [ -76.97799, 44.00862 ], [ -76.98075, 44.00718 ], [ -76.98245, 44.00473 ], [ -76.983, 44.00578 ], [ -76.98367, 44.00602 ], [ -76.98433, 44.00582 ], [ -76.98734, 44.00431 ], [ -76.98971, 44.00214 ], [ -76.99161, 44.0011 ], [ -76.99174, 44.00069 ], [ -76.99223, 44.00079 ], [ -76.9937, 44.0 ], [ -76.99998, 43.99917 ], [ -77.00176, 43.99939 ], [ -77.00234, 43.99927 ], [ -77.00302, 44.0 ], [ -77.00361, 44.0001 ], [ -77.00696, 43.99906 ], [ -77.00766, 43.99905 ], [ -77.00778, 43.99962 ], [ -77.00636, 44.00095 ], [ -77.00634, 44.00139 ], [ -77.00678, 44.00151 ], [ -77.0098, 43.99965 ], [ -77.0118, 43.99937 ], [ -77.01215, 43.99977 ], [ -77.01285, 43.99999 ], [ -77.01419, 43.99949 ], [ -77.015, 43.9989 ], [ -77.01639, 43.99846 ], [ -77.02236, 43.99418 ], [ -77.02334, 43.99382 ], [ -77.0253, 43.99242 ], [ -77.02675, 43.99101 ], [ -77.02664, 43.99068 ], [ -77.02706, 43.99057 ], [ -77.0282, 43.98939 ], [ -77.02946, 43.98615 ], [ -77.02945, 43.98528 ], [ -77.02905, 43.98457 ], [ -77.02781, 43.98395 ], [ -77.02661, 43.98395 ], [ -77.02576, 43.98452 ], [ -77.02429, 43.98462 ], [ -77.02318, 43.98531 ], [ -77.02169, 43.98573 ], [ -77.01775, 43.98562 ], [ -77.01678, 43.98678 ], [ -77.01533, 43.98772 ], [ -77.0139, 43.98926 ], [ -77.01167, 43.99058 ], [ -77.01172, 43.99116 ], [ -77.01074, 43.99086 ], [ -77.01024, 43.9901 ], [ -77.00965, 43.99 ], [ -77.00878, 43.98929 ], [ -77.00781, 43.98925 ], [ -77.0068, 43.98736 ], [ -77.00559, 43.98626 ], [ -77.00481, 43.9862 ], [ -77.00412, 43.98661 ], [ -77.00273, 43.98672 ], [ -77.00196, 43.98717 ], [ -77.00044, 43.98743 ], [ -77.00004, 43.98681 ], [ -76.99909, 43.98641 ], [ -76.99757, 43.98638 ], [ -76.99764, 43.98543 ], [ -76.99875, 43.98374 ], [ -77.00238, 43.98156 ], [ -77.00367, 43.98109 ], [ -77.00554, 43.97962 ], [ -77.00618, 43.97938 ], [ -77.0072, 43.97787 ], [ -77.00689, 43.97735 ], [ -77.00703, 43.97691 ], [ -77.00843, 43.97545 ], [ -77.00981, 43.97511 ], [ -77.00973, 43.97339 ], [ -77.00919, 43.97269 ], [ -77.0074, 43.97267 ], [ -77.00529, 43.97178 ], [ -77.00507, 43.97077 ], [ -77.00544, 43.96952 ], [ -77.0066, 43.96861 ], [ -77.00924, 43.96775 ], [ -77.01001, 43.96774 ], [ -77.01217, 43.96828 ], [ -77.01621, 43.96769 ], [ -77.01718, 43.96779 ], [ -77.02091, 43.96652 ], [ -77.02256, 43.96674 ], [ -77.02215, 43.96721 ], [ -77.02317, 43.96756 ], [ -77.02612, 43.96778 ], [ -77.0277, 43.96721 ], [ -77.02966, 43.96714 ], [ -77.03261, 43.9663 ], [ -77.03232, 43.96552 ], [ -77.03143, 43.96533 ], [ -77.02953, 43.96611 ], [ -77.02888, 43.96615 ], [ -77.02842, 43.96583 ], [ -77.02542, 43.96607 ], [ -77.02387, 43.96589 ], [ -77.0222, 43.96508 ], [ -77.02188, 43.96457 ], [ -77.02188, 43.96367 ], [ -77.02441, 43.95993 ], [ -77.0255, 43.95877 ], [ -77.02695, 43.95773 ], [ -77.03333, 43.95427 ], [ -77.03579, 43.95329 ], [ -77.03773, 43.95177 ], [ -77.04018, 43.95147 ], [ -77.04256, 43.94967 ], [ -77.04226, 43.94658 ], [ -77.04141, 43.94416 ], [ -77.04176, 43.94248 ], [ -77.04248, 43.94147 ], [ -77.04231, 43.94031 ], [ -77.03835, 43.93654 ], [ -77.03825, 43.93538 ], [ -77.03956, 43.93109 ], [ -77.04163, 43.92948 ], [ -77.04295, 43.92889 ], [ -77.04337, 43.9283 ], [ -77.04436, 43.92789 ], [ -77.04555, 43.92698 ], [ -77.04556, 43.92624 ], [ -77.04422, 43.92582 ], [ -77.04401, 43.92507 ], [ -77.04542, 43.92305 ], [ -77.04615, 43.92131 ], [ -77.04706, 43.92072 ], [ -77.04763, 43.91968 ], [ -77.04724, 43.91936 ], [ -77.0466, 43.91949 ], [ -77.04495, 43.92079 ], [ -77.04339, 43.92094 ], [ -77.0398, 43.91946 ], [ -77.03779, 43.91799 ], [ -77.03716, 43.91671 ], [ -77.03721, 43.91603 ], [ -77.03749, 43.9154 ], [ -77.03915, 43.91364 ], [ -77.03991, 43.91219 ], [ -77.03973, 43.91188 ], [ -77.03848, 43.912 ], [ -77.03282, 43.91351 ], [ -77.02837, 43.91779 ], [ -77.0264, 43.9191 ], [ -77.02452, 43.92202 ], [ -77.02449, 43.92306 ], [ -77.02377, 43.92343 ], [ -77.02318, 43.92438 ], [ -77.0222, 43.92525 ], [ -77.02234, 43.9256 ], [ -77.02334, 43.926 ], [ -77.02297, 43.92618 ], [ -77.02289, 43.92665 ], [ -77.02226, 43.92651 ], [ -77.02176, 43.92668 ], [ -77.02118, 43.92778 ], [ -77.02062, 43.92822 ], [ -77.02117, 43.92921 ], [ -77.0212, 43.9299 ], [ -77.02041, 43.93193 ], [ -77.02039, 43.93293 ], [ -77.01881, 43.93526 ], [ -77.01896, 43.93567 ], [ -77.01972, 43.93589 ], [ -77.01918, 43.93774 ], [ -77.0184, 43.9388 ], [ -77.01871, 43.93953 ], [ -77.01741, 43.94003 ], [ -77.01626, 43.94092 ], [ -77.01344, 43.94182 ], [ -77.00997, 43.94183 ], [ -77.00727, 43.94246 ], [ -77.00641, 43.94213 ], [ -77.00668, 43.94149 ], [ -77.00646, 43.94106 ], [ -77.00713, 43.94036 ], [ -77.00684, 43.93981 ], [ -77.00703, 43.93875 ], [ -77.00673, 43.93785 ], [ -77.00554, 43.93618 ], [ -77.00368, 43.93521 ], [ -77.00058, 43.93438 ], [ -76.99613, 43.93455 ], [ -76.99505, 43.9349 ], [ -76.9924, 43.93651 ], [ -76.99161, 43.93673 ], [ -76.99022, 43.93672 ], [ -76.98959, 43.93627 ], [ -76.98927, 43.93472 ], [ -76.98779, 43.93364 ], [ -76.98601, 43.93305 ], [ -76.98255, 43.93292 ], [ -76.98117, 43.9333 ], [ -76.97872, 43.93454 ], [ -76.9741, 43.9375 ], [ -76.97058, 43.93888 ], [ -76.96602, 43.9396 ], [ -76.96021, 43.94086 ], [ -76.95763, 43.94096 ], [ -76.95663, 43.94062 ], [ -76.9551, 43.93906 ], [ -76.95397, 43.93852 ], [ -76.95135, 43.93783 ], [ -76.94865, 43.93478 ], [ -76.94519, 43.93156 ], [ -76.94364, 43.93059 ], [ -76.94248, 43.93019 ], [ -76.93929, 43.93029 ], [ -76.93771, 43.93006 ], [ -76.93624, 43.93055 ], [ -76.93439, 43.93028 ], [ -76.93227, 43.93076 ], [ -76.9275, 43.9312 ], [ -76.9197, 43.93463 ], [ -76.91822, 43.93496 ], [ -76.9154, 43.93495 ], [ -76.91355, 43.93533 ], [ -76.91213, 43.93584 ], [ -76.91009, 43.93723 ], [ -76.90578, 43.93818 ], [ -76.90221, 43.94034 ], [ -76.89879, 43.94049 ], [ -76.89766, 43.94074 ], [ -76.89634, 43.94171 ], [ -76.89408, 43.94265 ], [ -76.88834, 43.94419 ], [ -76.88728, 43.94509 ], [ -76.88447, 43.94558 ], [ -76.88225, 43.94564 ], [ -76.87974, 43.94639 ], [ -76.87846, 43.94707 ], [ -76.8755, 43.94761 ], [ -76.87141, 43.94626 ], [ -76.87025, 43.94659 ], [ -76.86849, 43.94785 ], [ -76.86677, 43.94857 ], [ -76.86536, 43.94857 ], [ -76.86474, 43.94834 ], [ -76.86444, 43.94779 ], [ -76.86358, 43.94527 ], [ -76.85929, 43.94134 ], [ -76.85915, 43.94082 ], [ -76.86046, 43.93921 ], [ -76.86065, 43.9383 ], [ -76.86347, 43.93662 ], [ -76.8638, 43.93616 ], [ -76.86301, 43.93601 ], [ -76.85964, 43.93723 ], [ -76.85886, 43.93733 ], [ -76.85856, 43.93717 ], [ -76.85848, 43.93666 ], [ -76.85928, 43.93492 ], [ -76.85945, 43.93357 ], [ -76.86165, 43.93222 ], [ -76.86407, 43.93129 ], [ -76.86766, 43.93035 ], [ -76.8694, 43.92918 ], [ -76.87072, 43.92862 ], [ -76.8732, 43.92858 ], [ -76.87933, 43.92929 ], [ -76.88142, 43.92931 ], [ -76.88488, 43.92887 ], [ -76.88711, 43.92828 ], [ -76.89025, 43.92656 ], [ -76.89139, 43.92503 ], [ -76.89283, 43.92422 ], [ -76.89443, 43.92364 ], [ -76.89787, 43.92333 ], [ -76.89983, 43.92198 ], [ -76.90138, 43.92187 ], [ -76.90232, 43.92155 ], [ -76.9049, 43.92201 ], [ -76.90776, 43.92202 ], [ -76.91525, 43.92094 ], [ -76.91712, 43.92095 ], [ -76.91994, 43.9218 ], [ -76.92399, 43.92261 ], [ -76.928, 43.92264 ], [ -76.93089, 43.92225 ], [ -76.93635, 43.92037 ], [ -76.93674, 43.9206 ], [ -76.93627, 43.92104 ], [ -76.93422, 43.9222 ], [ -76.93443, 43.92254 ], [ -76.93528, 43.92254 ], [ -76.93808, 43.92147 ], [ -76.93907, 43.92017 ], [ -76.93923, 43.91957 ], [ -76.93849, 43.91594 ], [ -76.93881, 43.91504 ], [ -76.94062, 43.91359 ], [ -76.94405, 43.9126 ], [ -76.95419, 43.9118 ], [ -76.95752, 43.91123 ], [ -76.96129, 43.9102 ], [ -76.96523, 43.90854 ], [ -76.96674, 43.90759 ], [ -76.9709, 43.90345 ], [ -76.97194, 43.90204 ], [ -76.97467, 43.90042 ], [ -76.9778, 43.89982 ], [ -76.98373, 43.89985 ], [ -76.99076, 43.89955 ], [ -76.9934, 43.8992 ], [ -76.99583, 43.89803 ], [ -77.00051, 43.89503 ], [ -77.0025, 43.89317 ], [ -77.00936, 43.89032 ], [ -77.01368, 43.8896 ], [ -77.01943, 43.88917 ], [ -77.01987, 43.88892 ], [ -77.02881, 43.88762 ], [ -77.0316, 43.8874 ], [ -77.03276, 43.88761 ], [ -77.03427, 43.88881 ], [ -77.03591, 43.88972 ], [ -77.03833, 43.89045 ], [ -77.04174, 43.89074 ], [ -77.04515, 43.89017 ], [ -77.04805, 43.88884 ], [ -77.05203, 43.886 ], [ -77.05406, 43.88409 ], [ -77.0573, 43.88264 ], [ -77.06178, 43.87952 ], [ -77.06341, 43.87895 ], [ -77.06939, 43.87594 ], [ -77.07524, 43.87242 ], [ -77.07961, 43.86919 ], [ -77.08063, 43.86757 ], [ -77.08478, 43.86599 ], [ -77.08898, 43.86385 ], [ -77.0904, 43.86377 ], [ -77.09341, 43.86315 ], [ -77.09389, 43.86324 ], [ -77.09323, 43.86389 ], [ -77.094, 43.86434 ], [ -77.09629, 43.86377 ], [ -77.09662, 43.86339 ], [ -77.09643, 43.8631 ], [ -77.09499, 43.86303 ], [ -77.09322, 43.86229 ], [ -77.09263, 43.86274 ], [ -77.09176, 43.8622 ], [ -77.09039, 43.86018 ], [ -77.0906, 43.85952 ], [ -77.0933, 43.86197 ], [ -77.09645, 43.8629 ], [ -77.09804, 43.86299 ], [ -77.1018, 43.86273 ], [ -77.10325, 43.86216 ], [ -77.10775, 43.86103 ], [ -77.11161, 43.8593 ], [ -77.11263, 43.85838 ], [ -77.11356, 43.858 ], [ -77.11402, 43.85733 ], [ -77.11685, 43.85601 ], [ -77.11947, 43.85402 ], [ -77.12083, 43.85265 ], [ -77.12113, 43.8517 ], [ -77.12238, 43.85002 ], [ -77.1248, 43.84864 ], [ -77.12611, 43.84725 ], [ -77.12744, 43.84694 ], [ -77.12798, 43.84638 ], [ -77.12934, 43.84578 ], [ -77.13448, 43.84625 ], [ -77.13688, 43.84619 ], [ -77.14008, 43.84569 ], [ -77.14082, 43.84534 ], [ -77.1413, 43.84441 ], [ -77.14462, 43.84255 ], [ -77.14681, 43.84192 ], [ -77.14784, 43.84185 ], [ -77.14894, 43.84124 ], [ -77.15042, 43.83971 ], [ -77.15154, 43.83929 ], [ -77.15351, 43.83929 ], [ -77.15539, 43.83876 ], [ -77.15764, 43.8405 ], [ -77.15867, 43.8422 ], [ -77.1602, 43.84378 ], [ -77.16014, 43.8462 ], [ -77.16088, 43.84842 ], [ -77.16161, 43.84929 ], [ -77.16268, 43.84936 ], [ -77.16293, 43.84962 ], [ -77.16229, 43.85075 ], [ -77.16244, 43.85147 ], [ -77.16212, 43.85218 ], [ -77.16153, 43.85254 ], [ -77.16078, 43.85265 ], [ -77.1595, 43.85463 ], [ -77.15999, 43.85673 ], [ -77.16055, 43.85759 ], [ -77.16209, 43.85845 ], [ -77.16387, 43.85861 ], [ -77.16454, 43.85894 ], [ -77.16461, 43.85987 ], [ -77.16572, 43.8611 ], [ -77.16686, 43.86318 ], [ -77.16845, 43.86468 ], [ -77.17408, 43.86694 ], [ -77.17678, 43.86829 ], [ -77.17931, 43.86897 ], [ -77.18124, 43.86924 ], [ -77.18405, 43.86916 ], [ -77.18703, 43.86855 ], [ -77.18874, 43.86703 ], [ -77.19284, 43.86522 ], [ -77.19419, 43.86416 ], [ -77.19561, 43.86349 ], [ -77.19654, 43.86212 ], [ -77.19726, 43.86171 ], [ -77.19837, 43.86116 ], [ -77.20062, 43.86059 ], [ -77.20112, 43.86018 ], [ -77.20572, 43.8592 ], [ -77.20674, 43.85874 ], [ -77.20718, 43.85814 ], [ -77.20697, 43.8564 ], [ -77.20761, 43.85605 ], [ -77.20927, 43.85583 ], [ -77.21425, 43.856 ], [ -77.21673, 43.85554 ], [ -77.21894, 43.85575 ], [ -77.22283, 43.85542 ], [ -77.22549, 43.85588 ], [ -77.22708, 43.85653 ], [ -77.22963, 43.85692 ], [ -77.23308, 43.85658 ], [ -77.23458, 43.85676 ], [ -77.23914, 43.85813 ], [ -77.2404, 43.85787 ], [ -77.24041, 43.85729 ], [ -77.24162, 43.85732 ], [ -77.24314, 43.85705 ], [ -77.24435, 43.85715 ], [ -77.24449, 43.8578 ], [ -77.24291, 43.85859 ], [ -77.2427, 43.86013 ], [ -77.24126, 43.862 ], [ -77.23634, 43.86512 ], [ -77.23549, 43.86632 ], [ -77.23137, 43.86873 ], [ -77.22986, 43.87026 ], [ -77.22994, 43.87153 ], [ -77.22954, 43.87192 ], [ -77.22507, 43.87495 ], [ -77.2239, 43.87608 ], [ -77.22218, 43.87698 ], [ -77.21967, 43.8796 ], [ -77.21733, 43.88126 ], [ -77.21623, 43.88173 ], [ -77.21451, 43.88322 ], [ -77.21475, 43.88408 ], [ -77.21736, 43.88774 ], [ -77.21793, 43.88901 ], [ -77.21796, 43.89 ], [ -77.21937, 43.89081 ], [ -77.223, 43.89452 ], [ -77.22603, 43.8972 ], [ -77.23109, 43.90078 ], [ -77.23644, 43.90339 ], [ -77.24183, 43.9045 ], [ -77.24414, 43.90426 ], [ -77.24524, 43.90354 ], [ -77.24603, 43.90232 ], [ -77.24665, 43.90188 ], [ -77.24944, 43.90163 ], [ -77.25112, 43.90094 ], [ -77.25391, 43.89923 ], [ -77.25615, 43.89845 ], [ -77.25853, 43.89793 ], [ -77.26053, 43.89777 ], [ -77.26214, 43.89724 ], [ -77.26866, 43.8959 ], [ -77.2703, 43.89573 ], [ -77.27139, 43.89601 ], [ -77.27256, 43.89599 ], [ -77.27437, 43.89429 ], [ -77.27599, 43.89376 ], [ -77.27767, 43.89247 ], [ -77.27797, 43.89194 ], [ -77.27916, 43.89167 ], [ -77.28021, 43.89171 ], [ -77.28146, 43.89289 ], [ -77.28148, 43.8934 ], [ -77.28085, 43.895 ], [ -77.28008, 43.89577 ], [ -77.28014, 43.89711 ], [ -77.27966, 43.89722 ], [ -77.27914, 43.89776 ], [ -77.27927, 43.89832 ], [ -77.28604, 43.90619 ], [ -77.29233, 43.91245 ], [ -77.29824, 43.91944 ], [ -77.30506, 43.92512 ], [ -77.31109, 43.93108 ], [ -77.32271, 43.94127 ], [ -77.32865, 43.94539 ], [ -77.33176, 43.94711 ], [ -77.33341, 43.94774 ], [ -77.33726, 43.94901 ], [ -77.33801, 43.94882 ], [ -77.34067, 43.95008 ], [ -77.34432, 43.95104 ], [ -77.34924, 43.9505 ], [ -77.3506, 43.95061 ], [ -77.35397, 43.9497 ], [ -77.35953, 43.9488 ], [ -77.36124, 43.94804 ], [ -77.36425, 43.94737 ], [ -77.36719, 43.946 ], [ -77.36889, 43.94575 ], [ -77.36942, 43.94513 ], [ -77.37486, 43.94277 ], [ -77.37882, 43.94193 ], [ -77.38029, 43.94188 ], [ -77.3856, 43.9402 ], [ -77.38705, 43.94011 ], [ -77.38983, 43.93897 ], [ -77.39192, 43.93861 ], [ -77.3935, 43.93774 ], [ -77.39643, 43.9367 ], [ -77.40027, 43.93558 ], [ -77.40816, 43.93412 ], [ -77.41091, 43.93399 ], [ -77.41613, 43.93308 ], [ -77.42, 43.93274 ], [ -77.42297, 43.93149 ], [ -77.42599, 43.93113 ], [ -77.42712, 43.93039 ], [ -77.42952, 43.93046 ], [ -77.43199, 43.93168 ], [ -77.4332, 43.9318 ], [ -77.43445, 43.93137 ], [ -77.43703, 43.93118 ], [ -77.43904, 43.93064 ], [ -77.44218, 43.92853 ], [ -77.44315, 43.92818 ], [ -77.44421, 43.92831 ], [ -77.44737, 43.92806 ], [ -77.44832, 43.92766 ], [ -77.44997, 43.92738 ], [ -77.45126, 43.92735 ], [ -77.4536, 43.92802 ], [ -77.45802, 43.9286 ], [ -77.46102, 43.92972 ], [ -77.46331, 43.92954 ], [ -77.46495, 43.92967 ], [ -77.46686, 43.92955 ], [ -77.46894, 43.92906 ], [ -77.47116, 43.92922 ], [ -77.47329, 43.92902 ], [ -77.47559, 43.92821 ], [ -77.47772, 43.92803 ], [ -77.47984, 43.92717 ], [ -77.48776, 43.92553 ], [ -77.48959, 43.92553 ], [ -77.49165, 43.92658 ], [ -77.4948, 43.92618 ], [ -77.49548, 43.92651 ], [ -77.49419, 43.9275 ], [ -77.49366, 43.92906 ], [ -77.49318, 43.92964 ], [ -77.49343, 43.93088 ], [ -77.49429, 43.93268 ], [ -77.4972, 43.93642 ], [ -77.49862, 43.93784 ], [ -77.49954, 43.93853 ], [ -77.49991, 43.93843 ], [ -77.49999, 43.93809 ], [ -77.50311, 43.94111 ], [ -77.50296, 43.94132 ], [ -77.50218, 43.94134 ], [ -77.50169, 43.94158 ], [ -77.50115, 43.9424 ], [ -77.49736, 43.94454 ], [ -77.4972, 43.94492 ], [ -77.49588, 43.94596 ], [ -77.49591, 43.94635 ], [ -77.49669, 43.94669 ], [ -77.49618, 43.94686 ], [ -77.49599, 43.9472 ], [ -77.49627, 43.9484 ], [ -77.49682, 43.94851 ], [ -77.49728, 43.94937 ], [ -77.49841, 43.94907 ], [ -77.49936, 43.94914 ], [ -77.49912, 43.94998 ], [ -77.49856, 43.95003 ], [ -77.49799, 43.95057 ], [ -77.49642, 43.95119 ], [ -77.49626, 43.95155 ], [ -77.49411, 43.95249 ], [ -77.49417, 43.95328 ], [ -77.49453, 43.95353 ], [ -77.49438, 43.95423 ], [ -77.49342, 43.95507 ], [ -77.49259, 43.9552 ], [ -77.49201, 43.95569 ], [ -77.48682, 43.95756 ], [ -77.48559, 43.95826 ], [ -77.48566, 43.95879 ], [ -77.48468, 43.95943 ], [ -77.48497, 43.95982 ], [ -77.48562, 43.95998 ], [ -77.48563, 43.96036 ], [ -77.48648, 43.961 ], [ -77.48758, 43.96138 ], [ -77.48825, 43.96125 ], [ -77.48924, 43.96155 ], [ -77.48997, 43.96144 ], [ -77.49033, 43.96112 ], [ -77.49129, 43.96124 ], [ -77.49278, 43.96051 ], [ -77.49476, 43.95836 ], [ -77.49744, 43.95461 ], [ -77.49869, 43.95429 ], [ -77.49978, 43.95445 ], [ -77.5019, 43.95246 ], [ -77.50349, 43.95195 ], [ -77.50548, 43.95043 ], [ -77.50807, 43.95008 ], [ -77.5087, 43.95056 ], [ -77.51253, 43.94971 ], [ -77.51539, 43.94967 ], [ -77.51618, 43.94847 ], [ -77.51541, 43.94746 ], [ -77.51443, 43.94707 ], [ -77.51311, 43.94575 ], [ -77.5102, 43.94633 ], [ -77.50897, 43.94542 ], [ -77.50762, 43.94527 ], [ -77.50747, 43.94487 ], [ -77.50856, 43.94353 ], [ -77.50933, 43.9433 ], [ -77.51144, 43.94337 ], [ -77.51291, 43.94217 ], [ -77.51556, 43.9411 ], [ -77.51611, 43.94116 ], [ -77.51774, 43.94206 ], [ -77.51784, 43.94327 ], [ -77.52276, 43.95044 ], [ -77.52413, 43.95101 ], [ -77.5239, 43.95225 ], [ -77.52419, 43.95324 ], [ -77.52636, 43.95671 ], [ -77.53027, 43.96107 ], [ -77.53172, 43.96307 ], [ -77.53215, 43.96331 ], [ -77.53313, 43.96332 ], [ -77.53666, 43.96264 ], [ -77.53947, 43.96326 ], [ -77.54071, 43.96411 ], [ -77.54189, 43.96581 ], [ -77.54402, 43.96805 ], [ -77.54543, 43.96936 ], [ -77.54619, 43.96965 ], [ -77.54944, 43.9695 ], [ -77.55383, 43.97012 ], [ -77.55598, 43.97001 ], [ -77.5573, 43.97017 ], [ -77.55928, 43.97096 ], [ -77.56476, 43.97146 ], [ -77.56547, 43.97175 ], [ -77.56578, 43.97208 ], [ -77.56566, 43.97349 ], [ -77.56611, 43.9744 ], [ -77.56701, 43.97526 ], [ -77.57428, 43.97911 ], [ -77.5749, 43.97967 ], [ -77.57529, 43.98085 ], [ -77.57671, 43.98288 ], [ -77.58526, 43.99169 ], [ -77.58911, 43.9948 ], [ -77.59692, 43.99949 ], [ -77.59699, 44.00105 ] ], [ [ -76.88907, 44.0775 ], [ -76.88877, 44.07716 ], [ -76.88827, 44.07736 ], [ -76.88859, 44.07778 ], [ -76.88907, 44.0775 ] ], [ [ -76.88972, 44.07434 ], [ -76.89038, 44.074 ], [ -76.89026, 44.07374 ], [ -76.88929, 44.07338 ], [ -76.88891, 44.07346 ], [ -76.88874, 44.07378 ], [ -76.88905, 44.07407 ], [ -76.88972, 44.07434 ] ], [ [ -76.89144, 44.07424 ], [ -76.89123, 44.07385 ], [ -76.89038, 44.07403 ], [ -76.89086, 44.07448 ], [ -76.89144, 44.07424 ] ], [ [ -76.89362, 44.07105 ], [ -76.89315, 44.07069 ], [ -76.89269, 44.07089 ], [ -76.89305, 44.07139 ], [ -76.89343, 44.07135 ], [ -76.89362, 44.07105 ] ], [ [ -76.89965, 44.08231 ], [ -76.89946, 44.08205 ], [ -76.89905, 44.08208 ], [ -76.89866, 44.08246 ], [ -76.89879, 44.08282 ], [ -76.89942, 44.08279 ], [ -76.89965, 44.08231 ] ], [ [ -76.90129, 44.08376 ], [ -76.90094, 44.08352 ], [ -76.90028, 44.0838 ], [ -76.89934, 44.08368 ], [ -76.89884, 44.08416 ], [ -76.89914, 44.08437 ], [ -76.90082, 44.0844 ], [ -76.90128, 44.08418 ], [ -76.90129, 44.08376 ] ], [ [ -76.99022, 43.93335 ], [ -76.99046, 43.93306 ], [ -76.99022, 43.93268 ], [ -76.98916, 43.93234 ], [ -76.98861, 43.93243 ], [ -76.98854, 43.93276 ], [ -76.98913, 43.93321 ], [ -76.99022, 43.93335 ] ], [ [ -77.04317, 43.96341 ], [ -77.04435, 43.96237 ], [ -77.04392, 43.96216 ], [ -77.0425, 43.96265 ], [ -77.04234, 43.96294 ], [ -77.04187, 43.96291 ], [ -77.0399, 43.9642 ], [ -77.03814, 43.96371 ], [ -77.03739, 43.96375 ], [ -77.03444, 43.96616 ], [ -77.03441, 43.96646 ], [ -77.0352, 43.96669 ], [ -77.03691, 43.96604 ], [ -77.03684, 43.96554 ], [ -77.03783, 43.96582 ], [ -77.03859, 43.96503 ], [ -77.03969, 43.965 ], [ -77.04014, 43.9647 ], [ -77.04184, 43.96443 ], [ -77.04272, 43.9637 ], [ -77.04245, 43.96307 ], [ -77.04317, 43.96341 ] ], [ [ -77.04595, 43.96047 ], [ -77.04648, 43.9602 ], [ -77.04627, 43.95985 ], [ -77.04557, 43.95994 ], [ -77.04435, 43.96082 ], [ -77.04404, 43.9615 ], [ -77.04446, 43.9616 ], [ -77.04521, 43.96116 ], [ -77.04566, 43.96117 ], [ -77.04595, 43.96047 ] ], [ [ -77.05043, 43.9575 ], [ -77.04817, 43.95767 ], [ -77.04782, 43.95809 ], [ -77.04955, 43.95853 ], [ -77.05065, 43.95783 ], [ -77.05043, 43.9575 ] ], [ [ -77.06904, 44.0341 ], [ -77.06904, 44.03366 ], [ -77.06784, 44.03342 ], [ -77.0664, 44.03265 ], [ -77.06338, 44.0327 ], [ -77.0619, 44.03158 ], [ -77.06166, 44.03073 ], [ -77.06088, 44.02996 ], [ -77.05863, 44.02948 ], [ -77.05838, 44.02896 ], [ -77.05803, 44.02885 ], [ -77.05459, 44.03096 ], [ -77.05462, 44.03126 ], [ -77.05515, 44.03147 ], [ -77.05319, 44.03341 ], [ -77.05293, 44.03426 ], [ -77.05333, 44.03459 ], [ -77.05252, 44.03498 ], [ -77.05237, 44.03558 ], [ -77.05328, 44.03671 ], [ -77.05447, 44.03632 ], [ -77.05533, 44.03725 ], [ -77.05515, 44.03791 ], [ -77.05623, 44.03872 ], [ -77.05672, 44.03953 ], [ -77.05772, 44.0394 ], [ -77.05839, 44.0396 ], [ -77.05971, 44.0394 ], [ -77.06243, 44.03787 ], [ -77.06437, 44.03768 ], [ -77.06602, 44.03661 ], [ -77.06803, 44.03613 ], [ -77.06844, 44.03452 ], [ -77.06904, 44.0341 ] ], [ [ -77.05146, 43.95401 ], [ -77.05186, 43.95272 ], [ -77.05144, 43.95249 ], [ -77.05103, 43.95277 ], [ -77.05075, 43.95364 ], [ -77.05094, 43.9541 ], [ -77.05146, 43.95401 ] ], [ [ -77.05695, 43.94962 ], [ -77.05605, 43.94978 ], [ -77.05599, 43.95016 ], [ -77.05706, 43.95008 ], [ -77.05719, 43.94982 ], [ -77.05695, 43.94962 ] ], [ [ -77.05894, 43.94828 ], [ -77.05915, 43.94854 ], [ -77.05956, 43.9485 ], [ -77.05986, 43.94774 ], [ -77.05933, 43.94771 ], [ -77.05894, 43.94828 ] ], [ [ -77.06314, 43.94597 ], [ -77.06273, 43.94568 ], [ -77.0619, 43.94604 ], [ -77.06022, 43.94707 ], [ -77.06018, 43.94739 ], [ -77.06056, 43.94752 ], [ -77.06131, 43.94726 ], [ -77.06304, 43.94624 ], [ -77.06314, 43.94597 ] ], [ [ -77.07024, 44.02534 ], [ -77.07031, 44.02447 ], [ -77.06983, 44.02429 ], [ -77.06918, 44.0246 ], [ -77.06854, 44.02454 ], [ -77.0678, 44.02495 ], [ -77.06683, 44.02504 ], [ -77.06632, 44.02548 ], [ -77.06687, 44.02593 ], [ -77.06809, 44.02571 ], [ -77.06923, 44.02594 ], [ -77.07024, 44.02534 ] ], [ [ -77.06458, 43.94452 ], [ -77.0638, 43.94493 ], [ -77.06407, 43.94517 ], [ -77.06484, 43.94486 ], [ -77.06458, 43.94452 ] ], [ [ -77.06581, 43.94426 ], [ -77.06565, 43.94402 ], [ -77.06527, 43.94399 ], [ -77.06487, 43.9446 ], [ -77.06537, 43.94471 ], [ -77.06581, 43.94426 ] ], [ [ -77.06775, 43.94124 ], [ -77.06699, 43.94122 ], [ -77.06683, 43.94159 ], [ -77.06774, 43.94172 ], [ -77.06793, 43.94148 ], [ -77.06775, 43.94124 ] ], [ [ -77.07562, 43.93924 ], [ -77.07568, 43.93892 ], [ -77.07525, 43.93879 ], [ -77.07432, 43.93923 ], [ -77.07421, 43.9395 ], [ -77.07494, 43.93967 ], [ -77.07562, 43.93924 ] ], [ [ -77.0778, 43.93348 ], [ -77.07736, 43.93345 ], [ -77.07613, 43.934 ], [ -77.07528, 43.93403 ], [ -77.07504, 43.9345 ], [ -77.07536, 43.93465 ], [ -77.07702, 43.93448 ], [ -77.07808, 43.93387 ], [ -77.0778, 43.93348 ] ], [ [ -77.08215, 43.93166 ], [ -77.08155, 43.93167 ], [ -77.08123, 43.93213 ], [ -77.08138, 43.93239 ], [ -77.08234, 43.93221 ], [ -77.08245, 43.93192 ], [ -77.08215, 43.93166 ] ], [ [ -77.09798, 43.9363 ], [ -77.09826, 43.93605 ], [ -77.09801, 43.93579 ], [ -77.09515, 43.93572 ], [ -77.09353, 43.93525 ], [ -77.09167, 43.93533 ], [ -77.09062, 43.93597 ], [ -77.0912, 43.93678 ], [ -77.09188, 43.93691 ], [ -77.09181, 43.93726 ], [ -77.09147, 43.93715 ], [ -77.09115, 43.93733 ], [ -77.09147, 43.93769 ], [ -77.09181, 43.93758 ], [ -77.09185, 43.9373 ], [ -77.09258, 43.93733 ], [ -77.09298, 43.93666 ], [ -77.09516, 43.93667 ], [ -77.09798, 43.9363 ] ], [ [ -77.09043, 43.86447 ], [ -77.09067, 43.86422 ], [ -77.09048, 43.86398 ], [ -77.08966, 43.86415 ], [ -77.08979, 43.86453 ], [ -77.09043, 43.86447 ] ], [ [ -77.09224, 43.8637 ], [ -77.09177, 43.86389 ], [ -77.09204, 43.86422 ], [ -77.0925, 43.86404 ], [ -77.09224, 43.8637 ] ], [ [ -77.23194, 43.90878 ], [ -77.23246, 43.90715 ], [ -77.23189, 43.90602 ], [ -77.23123, 43.90553 ], [ -77.22971, 43.9051 ], [ -77.22862, 43.90444 ], [ -77.22771, 43.90438 ], [ -77.22539, 43.90335 ], [ -77.22113, 43.90045 ], [ -77.22039, 43.90019 ], [ -77.21802, 43.89804 ], [ -77.21644, 43.89723 ], [ -77.21621, 43.89689 ], [ -77.21525, 43.89688 ], [ -77.21455, 43.89656 ], [ -77.21351, 43.89544 ], [ -77.2124, 43.89245 ], [ -77.21041, 43.89095 ], [ -77.20929, 43.88951 ], [ -77.20857, 43.88952 ], [ -77.20672, 43.89081 ], [ -77.20486, 43.89132 ], [ -77.20428, 43.89209 ], [ -77.2045, 43.89264 ], [ -77.20322, 43.89425 ], [ -77.203, 43.89586 ], [ -77.20195, 43.89643 ], [ -77.20116, 43.89776 ], [ -77.20049, 43.89778 ], [ -77.19998, 43.89808 ], [ -77.20026, 43.8992 ], [ -77.20097, 43.89948 ], [ -77.20184, 43.89935 ], [ -77.2036, 43.89828 ], [ -77.20244, 43.90165 ], [ -77.20033, 43.90293 ], [ -77.19876, 43.90299 ], [ -77.19817, 43.90341 ], [ -77.19728, 43.90592 ], [ -77.19555, 43.90875 ], [ -77.19451, 43.90986 ], [ -77.19462, 43.91058 ], [ -77.1941, 43.91085 ], [ -77.19313, 43.91202 ], [ -77.1925, 43.91317 ], [ -77.1895, 43.9159 ], [ -77.18943, 43.91637 ], [ -77.18876, 43.91653 ], [ -77.18793, 43.9172 ], [ -77.18642, 43.91895 ], [ -77.18406, 43.92038 ], [ -77.18291, 43.92138 ], [ -77.18224, 43.92152 ], [ -77.18222, 43.92209 ], [ -77.1813, 43.92231 ], [ -77.18071, 43.92303 ], [ -77.18174, 43.92419 ], [ -77.18311, 43.92436 ], [ -77.18445, 43.92391 ], [ -77.18548, 43.92383 ], [ -77.18846, 43.92246 ], [ -77.18886, 43.92245 ], [ -77.18904, 43.92278 ], [ -77.1874, 43.92373 ], [ -77.18405, 43.9244 ], [ -77.18363, 43.9252 ], [ -77.17907, 43.9294 ], [ -77.17722, 43.93042 ], [ -77.17681, 43.93098 ], [ -77.17523, 43.9321 ], [ -77.17484, 43.93212 ], [ -77.17465, 43.93152 ], [ -77.17542, 43.93145 ], [ -77.17529, 43.93099 ], [ -77.17286, 43.93088 ], [ -77.16989, 43.93147 ], [ -77.16819, 43.93213 ], [ -77.16638, 43.93223 ], [ -77.16505, 43.93265 ], [ -77.16302, 43.93404 ], [ -77.1621, 43.93544 ], [ -77.16156, 43.93549 ], [ -77.16102, 43.93616 ], [ -77.16115, 43.93675 ], [ -77.16048, 43.93674 ], [ -77.15996, 43.93718 ], [ -77.15752, 43.93831 ], [ -77.15755, 43.93859 ], [ -77.15811, 43.93894 ], [ -77.15849, 43.94064 ], [ -77.159, 43.94136 ], [ -77.16123, 43.94289 ], [ -77.16213, 43.94325 ], [ -77.16231, 43.94427 ], [ -77.16269, 43.94457 ], [ -77.16334, 43.94481 ], [ -77.16409, 43.94453 ], [ -77.16482, 43.9445 ], [ -77.16528, 43.94471 ], [ -77.16597, 43.9443 ], [ -77.16845, 43.94379 ], [ -77.17257, 43.94191 ], [ -77.17404, 43.9408 ], [ -77.17654, 43.94013 ], [ -77.17893, 43.93906 ], [ -77.18081, 43.93849 ], [ -77.18376, 43.93699 ], [ -77.18479, 43.93599 ], [ -77.18572, 43.93548 ], [ -77.18698, 43.93532 ], [ -77.18956, 43.93413 ], [ -77.19108, 43.93304 ], [ -77.19193, 43.9328 ], [ -77.19296, 43.93163 ], [ -77.19392, 43.93143 ], [ -77.19525, 43.93153 ], [ -77.19744, 43.93048 ], [ -77.20173, 43.92765 ], [ -77.20183, 43.92726 ], [ -77.20308, 43.92672 ], [ -77.20719, 43.92381 ], [ -77.21109, 43.923 ], [ -77.21147, 43.92252 ], [ -77.21255, 43.92228 ], [ -77.21338, 43.92173 ], [ -77.21434, 43.92165 ], [ -77.216, 43.92064 ], [ -77.21752, 43.92038 ], [ -77.21792, 43.91978 ], [ -77.21889, 43.91973 ], [ -77.2205, 43.91893 ], [ -77.22074, 43.9185 ], [ -77.22204, 43.91758 ], [ -77.22296, 43.91632 ], [ -77.22468, 43.91549 ], [ -77.2255, 43.9144 ], [ -77.22564, 43.91369 ], [ -77.22671, 43.91294 ], [ -77.22796, 43.91106 ], [ -77.23035, 43.91009 ], [ -77.23194, 43.90878 ] ], [ [ -77.18615, 44.08846 ], [ -77.18611, 44.08807 ], [ -77.185, 44.08778 ], [ -77.18438, 44.08715 ], [ -77.1838, 44.08699 ], [ -77.17701, 44.09059 ], [ -77.17578, 44.09076 ], [ -77.17459, 44.09015 ], [ -77.17184, 44.09027 ], [ -77.16916, 44.09119 ], [ -77.16821, 44.09204 ], [ -77.16823, 44.09251 ], [ -77.16732, 44.09405 ], [ -77.1674, 44.09445 ], [ -77.16689, 44.09485 ], [ -77.16666, 44.09616 ], [ -77.16685, 44.09711 ], [ -77.16784, 44.09848 ], [ -77.16842, 44.09995 ], [ -77.16931, 44.10066 ], [ -77.17107, 44.10113 ], [ -77.17155, 44.10163 ], [ -77.1744, 44.10257 ], [ -77.17563, 44.10373 ], [ -77.17633, 44.10369 ], [ -77.17767, 44.10192 ], [ -77.17833, 44.10168 ], [ -77.18215, 44.0987 ], [ -77.18344, 44.09567 ], [ -77.18293, 44.0951 ], [ -77.18314, 44.09474 ], [ -77.1829, 44.0933 ], [ -77.18198, 44.09222 ], [ -77.18295, 44.09176 ], [ -77.18313, 44.09135 ], [ -77.18469, 44.09028 ], [ -77.18541, 44.08905 ], [ -77.18615, 44.08846 ] ], [ [ -77.21927, 44.10964 ], [ -77.21862, 44.10967 ], [ -77.2187, 44.1102 ], [ -77.2195, 44.11007 ], [ -77.21927, 44.10964 ] ], [ [ -77.21972, 44.11214 ], [ -77.21973, 44.11166 ], [ -77.21901, 44.11166 ], [ -77.21914, 44.11218 ], [ -77.21972, 44.11214 ] ], [ [ -77.22495, 44.10717 ], [ -77.22434, 44.10708 ], [ -77.22365, 44.10736 ], [ -77.22361, 44.1081 ], [ -77.22458, 44.10796 ], [ -77.2251, 44.1075 ], [ -77.22495, 44.10717 ] ], [ [ -77.2283, 44.13433 ], [ -77.22864, 44.13416 ], [ -77.22858, 44.13389 ], [ -77.22774, 44.13386 ], [ -77.22769, 44.13424 ], [ -77.2283, 44.13433 ] ], [ [ -77.25217, 44.09368 ], [ -77.25174, 44.09293 ], [ -77.2506, 44.09241 ], [ -77.2506, 44.09205 ], [ -77.25145, 44.0913 ], [ -77.25137, 44.091 ], [ -77.25099, 44.09088 ], [ -77.24803, 44.09138 ], [ -77.24767, 44.09163 ], [ -77.24794, 44.09232 ], [ -77.24707, 44.09269 ], [ -77.24676, 44.09308 ], [ -77.24741, 44.0934 ], [ -77.2483, 44.09319 ], [ -77.24866, 44.09334 ], [ -77.24885, 44.09371 ], [ -77.24857, 44.09419 ], [ -77.24623, 44.0941 ], [ -77.24581, 44.09389 ], [ -77.24491, 44.09423 ], [ -77.24439, 44.09407 ], [ -77.24416, 44.09366 ], [ -77.24353, 44.0938 ], [ -77.24335, 44.09421 ], [ -77.24387, 44.09452 ], [ -77.24397, 44.09502 ], [ -77.24343, 44.09521 ], [ -77.24289, 44.09641 ], [ -77.24365, 44.09712 ], [ -77.24384, 44.09801 ], [ -77.24471, 44.0982 ], [ -77.24549, 44.0992 ], [ -77.24522, 44.09979 ], [ -77.24465, 44.09978 ], [ -77.24274, 44.09875 ], [ -77.24205, 44.09875 ], [ -77.24169, 44.09832 ], [ -77.24083, 44.09814 ], [ -77.23658, 44.09876 ], [ -77.23115, 44.10171 ], [ -77.2312, 44.10227 ], [ -77.23057, 44.10273 ], [ -77.23063, 44.10329 ], [ -77.23213, 44.10561 ], [ -77.23249, 44.1057 ], [ -77.23298, 44.1054 ], [ -77.23485, 44.10516 ], [ -77.23766, 44.10407 ], [ -77.23947, 44.10286 ], [ -77.23949, 44.10206 ], [ -77.23989, 44.10151 ], [ -77.24429, 44.10056 ], [ -77.24549, 44.1006 ], [ -77.24805, 44.0994 ], [ -77.24785, 44.09862 ], [ -77.24864, 44.09678 ], [ -77.24967, 44.0964 ], [ -77.2496, 44.09587 ], [ -77.25012, 44.09499 ], [ -77.25146, 44.09489 ], [ -77.25201, 44.09463 ], [ -77.25217, 44.09368 ] ], [ [ -77.23321, 44.09837 ], [ -77.23292, 44.09817 ], [ -77.23155, 44.09815 ], [ -77.23108, 44.09852 ], [ -77.23192, 44.09903 ], [ -77.23246, 44.09868 ], [ -77.23306, 44.0988 ], [ -77.23321, 44.09837 ] ], [ [ -77.23436, 44.09609 ], [ -77.23405, 44.09575 ], [ -77.23224, 44.09588 ], [ -77.23193, 44.09615 ], [ -77.23198, 44.09708 ], [ -77.23248, 44.09736 ], [ -77.23333, 44.09743 ], [ -77.2334, 44.09648 ], [ -77.23436, 44.09609 ] ], [ [ -77.23844, 44.08823 ], [ -77.23841, 44.08776 ], [ -77.23672, 44.08755 ], [ -77.23626, 44.0877 ], [ -77.23605, 44.08812 ], [ -77.23641, 44.0884 ], [ -77.23844, 44.08823 ] ], [ [ -77.24198, 44.09581 ], [ -77.24119, 44.0952 ], [ -77.24064, 44.09547 ], [ -77.24065, 44.09585 ], [ -77.24137, 44.09649 ], [ -77.24188, 44.09637 ], [ -77.24198, 44.09581 ] ], [ [ -77.24203, 44.08805 ], [ -77.2425, 44.08792 ], [ -77.2424, 44.08756 ], [ -77.24118, 44.08687 ], [ -77.24077, 44.0869 ], [ -77.24095, 44.08779 ], [ -77.24203, 44.08805 ] ], [ [ -77.24402, 44.08859 ], [ -77.24389, 44.08815 ], [ -77.24321, 44.08833 ], [ -77.24341, 44.08868 ], [ -77.24402, 44.08859 ] ], [ [ -77.34037, 43.95108 ], [ -77.34077, 43.95077 ], [ -77.34034, 43.95047 ], [ -77.33921, 43.95024 ], [ -77.33875, 43.95069 ], [ -77.33806, 43.95067 ], [ -77.33774, 43.95027 ], [ -77.33683, 43.95021 ], [ -77.33664, 43.94958 ], [ -77.3361, 43.94951 ], [ -77.33566, 43.94903 ], [ -77.33455, 43.94857 ], [ -77.33383, 43.94864 ], [ -77.33235, 43.94971 ], [ -77.33282, 43.94877 ], [ -77.3325, 43.94857 ], [ -77.3317, 43.94866 ], [ -77.33179, 43.94784 ], [ -77.33156, 43.94751 ], [ -77.33002, 43.94642 ], [ -77.32832, 43.94578 ], [ -77.32773, 43.94512 ], [ -77.32662, 43.94479 ], [ -77.32553, 43.94357 ], [ -77.32433, 43.94337 ], [ -77.32339, 43.94389 ], [ -77.32273, 43.94357 ], [ -77.32265, 43.94308 ], [ -77.3221, 43.94288 ], [ -77.3217, 43.94224 ], [ -77.32015, 43.942 ], [ -77.31964, 43.94064 ], [ -77.31861, 43.93992 ], [ -77.31725, 43.93818 ], [ -77.31691, 43.93831 ], [ -77.31651, 43.93913 ], [ -77.31428, 43.94042 ], [ -77.31363, 43.9411 ], [ -77.31137, 43.94124 ], [ -77.31028, 43.94111 ], [ -77.30688, 43.94304 ], [ -77.30687, 43.94334 ], [ -77.30727, 43.94345 ], [ -77.30856, 43.94322 ], [ -77.31, 43.9426 ], [ -77.3102, 43.94343 ], [ -77.30936, 43.94437 ], [ -77.30791, 43.9447 ], [ -77.30697, 43.94443 ], [ -77.30608, 43.94495 ], [ -77.30521, 43.94493 ], [ -77.30491, 43.94524 ], [ -77.3053, 43.94573 ], [ -77.30364, 43.9461 ], [ -77.30255, 43.94686 ], [ -77.2986, 43.94834 ], [ -77.29742, 43.94866 ], [ -77.29492, 43.94869 ], [ -77.29484, 43.94836 ], [ -77.29567, 43.94813 ], [ -77.29673, 43.94742 ], [ -77.29696, 43.94667 ], [ -77.29833, 43.94602 ], [ -77.30031, 43.94603 ], [ -77.30137, 43.9456 ], [ -77.30232, 43.94435 ], [ -77.30356, 43.94402 ], [ -77.30726, 43.94206 ], [ -77.30976, 43.94123 ], [ -77.31227, 43.93973 ], [ -77.31384, 43.93936 ], [ -77.31539, 43.93858 ], [ -77.31625, 43.93743 ], [ -77.31594, 43.93715 ], [ -77.31483, 43.93725 ], [ -77.3142, 43.93701 ], [ -77.31431, 43.93666 ], [ -77.31518, 43.93618 ], [ -77.315, 43.93565 ], [ -77.31391, 43.93541 ], [ -77.31306, 43.93479 ], [ -77.31158, 43.93478 ], [ -77.31043, 43.93414 ], [ -77.30978, 43.93175 ], [ -77.30874, 43.93066 ], [ -77.30769, 43.92997 ], [ -77.30666, 43.92884 ], [ -77.30219, 43.9264 ], [ -77.30214, 43.92612 ], [ -77.3034, 43.9255 ], [ -77.30333, 43.92514 ], [ -77.29687, 43.92426 ], [ -77.29518, 43.92302 ], [ -77.29313, 43.9227 ], [ -77.29191, 43.92191 ], [ -77.29214, 43.92119 ], [ -77.29175, 43.92067 ], [ -77.2902, 43.91992 ], [ -77.28936, 43.91891 ], [ -77.28817, 43.9185 ], [ -77.28801, 43.9182 ], [ -77.28834, 43.91786 ], [ -77.28794, 43.91739 ], [ -77.28592, 43.91698 ], [ -77.28277, 43.91672 ], [ -77.28157, 43.91561 ], [ -77.28221, 43.91452 ], [ -77.28168, 43.91376 ], [ -77.27987, 43.91313 ], [ -77.27805, 43.91292 ], [ -77.27758, 43.91265 ], [ -77.27744, 43.91185 ], [ -77.27514, 43.91049 ], [ -77.27415, 43.91033 ], [ -77.27312, 43.91067 ], [ -77.27257, 43.91127 ], [ -77.27088, 43.9139 ], [ -77.26916, 43.91598 ], [ -77.26804, 43.91837 ], [ -77.26578, 43.92123 ], [ -77.26423, 43.924 ], [ -77.26297, 43.9249 ], [ -77.26172, 43.92633 ], [ -77.26087, 43.92814 ], [ -77.26089, 43.92962 ], [ -77.26243, 43.93302 ], [ -77.26408, 43.93459 ], [ -77.2654, 43.93531 ], [ -77.27161, 43.9325 ], [ -77.27743, 43.93089 ], [ -77.27782, 43.93127 ], [ -77.27722, 43.93227 ], [ -77.2735, 43.93432 ], [ -77.27132, 43.93494 ], [ -77.26972, 43.936 ], [ -77.26545, 43.93761 ], [ -77.26209, 43.93837 ], [ -77.26149, 43.93913 ], [ -77.26051, 43.93975 ], [ -77.26013, 43.94048 ], [ -77.25943, 43.94042 ], [ -77.25913, 43.93929 ], [ -77.2572, 43.9384 ], [ -77.25878, 43.93741 ], [ -77.25935, 43.93735 ], [ -77.25956, 43.93702 ], [ -77.25927, 43.93657 ], [ -77.26018, 43.93599 ], [ -77.26047, 43.93552 ], [ -77.26104, 43.9352 ], [ -77.26145, 43.93543 ], [ -77.26183, 43.93528 ], [ -77.2617, 43.9343 ], [ -77.26102, 43.93371 ], [ -77.26086, 43.93302 ], [ -77.26038, 43.93286 ], [ -77.25977, 43.93304 ], [ -77.25934, 43.93385 ], [ -77.25959, 43.93407 ], [ -77.26, 43.93402 ], [ -77.26006, 43.93446 ], [ -77.25946, 43.93465 ], [ -77.25916, 43.93501 ], [ -77.25716, 43.93478 ], [ -77.25621, 43.93495 ], [ -77.25514, 43.93557 ], [ -77.25457, 43.93679 ], [ -77.25414, 43.93711 ], [ -77.25468, 43.9381 ], [ -77.25444, 43.93899 ], [ -77.25265, 43.93935 ], [ -77.25252, 43.94 ], [ -77.25182, 43.94046 ], [ -77.25166, 43.94136 ], [ -77.25206, 43.942 ], [ -77.25064, 43.94255 ], [ -77.24951, 43.94266 ], [ -77.24865, 43.94376 ], [ -77.24693, 43.94415 ], [ -77.24563, 43.9453 ], [ -77.24571, 43.9456 ], [ -77.24668, 43.94593 ], [ -77.24746, 43.94674 ], [ -77.24803, 43.94682 ], [ -77.24896, 43.94737 ], [ -77.24858, 43.94762 ], [ -77.24782, 43.94761 ], [ -77.24769, 43.94798 ], [ -77.24619, 43.94819 ], [ -77.24574, 43.94844 ], [ -77.24622, 43.94917 ], [ -77.24584, 43.94993 ], [ -77.24673, 43.95035 ], [ -77.24688, 43.95086 ], [ -77.24503, 43.95069 ], [ -77.24468, 43.95165 ], [ -77.24499, 43.95185 ], [ -77.24644, 43.95178 ], [ -77.24817, 43.95114 ], [ -77.24832, 43.95145 ], [ -77.24768, 43.95221 ], [ -77.24718, 43.95202 ], [ -77.24674, 43.95215 ], [ -77.24667, 43.9525 ], [ -77.24421, 43.95464 ], [ -77.24388, 43.95568 ], [ -77.24281, 43.95641 ], [ -77.24299, 43.95722 ], [ -77.24439, 43.95857 ], [ -77.24525, 43.95913 ], [ -77.24634, 43.95926 ], [ -77.24665, 43.95982 ], [ -77.2472, 43.95959 ], [ -77.25112, 43.95916 ], [ -77.25198, 43.95849 ], [ -77.25286, 43.95841 ], [ -77.25344, 43.9579 ], [ -77.25432, 43.95779 ], [ -77.25742, 43.95616 ], [ -77.25911, 43.95484 ], [ -77.25965, 43.95433 ], [ -77.26006, 43.9534 ], [ -77.25985, 43.95287 ], [ -77.25894, 43.95249 ], [ -77.25904, 43.95204 ], [ -77.26135, 43.95124 ], [ -77.263, 43.95092 ], [ -77.26405, 43.95 ], [ -77.26553, 43.94942 ], [ -77.26619, 43.94957 ], [ -77.26791, 43.95064 ], [ -77.26877, 43.95063 ], [ -77.26945, 43.95092 ], [ -77.26468, 43.95291 ], [ -77.26515, 43.95411 ], [ -77.26589, 43.95425 ], [ -77.26585, 43.95477 ], [ -77.26677, 43.9552 ], [ -77.26737, 43.9552 ], [ -77.26862, 43.9541 ], [ -77.27017, 43.95385 ], [ -77.27073, 43.95318 ], [ -77.27167, 43.95291 ], [ -77.27359, 43.95297 ], [ -77.27778, 43.95167 ], [ -77.27889, 43.95103 ], [ -77.27951, 43.95034 ], [ -77.28245, 43.94927 ], [ -77.28473, 43.94721 ], [ -77.28578, 43.94569 ], [ -77.28786, 43.94421 ], [ -77.29111, 43.94307 ], [ -77.29474, 43.94138 ], [ -77.30115, 43.93964 ], [ -77.2988, 43.94079 ], [ -77.29671, 43.94241 ], [ -77.29534, 43.94279 ], [ -77.29509, 43.94337 ], [ -77.29264, 43.94471 ], [ -77.29277, 43.94574 ], [ -77.29088, 43.94654 ], [ -77.29097, 43.94707 ], [ -77.29178, 43.94729 ], [ -77.29193, 43.94774 ], [ -77.29257, 43.94779 ], [ -77.29249, 43.94838 ], [ -77.29325, 43.94849 ], [ -77.29343, 43.94877 ], [ -77.29198, 43.95005 ], [ -77.29072, 43.95048 ], [ -77.29013, 43.9514 ], [ -77.29103, 43.95151 ], [ -77.29175, 43.95198 ], [ -77.29291, 43.95166 ], [ -77.29439, 43.95172 ], [ -77.29397, 43.95227 ], [ -77.29383, 43.95371 ], [ -77.28737, 43.95671 ], [ -77.2891, 43.95908 ], [ -77.29404, 43.95739 ], [ -77.29556, 43.95732 ], [ -77.29591, 43.95703 ], [ -77.29777, 43.95648 ], [ -77.29816, 43.95665 ], [ -77.29652, 43.95711 ], [ -77.29643, 43.9576 ], [ -77.29461, 43.9584 ], [ -77.29499, 43.95925 ], [ -77.29554, 43.95947 ], [ -77.29597, 43.95935 ], [ -77.29637, 43.95963 ], [ -77.29787, 43.95944 ], [ -77.3032, 43.95785 ], [ -77.30415, 43.95784 ], [ -77.30546, 43.95728 ], [ -77.30548, 43.95747 ], [ -77.30439, 43.95787 ], [ -77.3043, 43.95817 ], [ -77.30502, 43.95889 ], [ -77.30638, 43.95906 ], [ -77.30686, 43.95885 ], [ -77.30699, 43.95818 ], [ -77.30921, 43.95779 ], [ -77.30993, 43.95796 ], [ -77.31078, 43.95728 ], [ -77.31198, 43.95752 ], [ -77.31378, 43.95739 ], [ -77.31442, 43.95764 ], [ -77.31568, 43.95688 ], [ -77.31591, 43.95699 ], [ -77.31566, 43.95756 ], [ -77.31652, 43.95794 ], [ -77.31656, 43.95831 ], [ -77.31784, 43.95847 ], [ -77.32183, 43.95724 ], [ -77.32283, 43.95666 ], [ -77.32301, 43.95628 ], [ -77.32503, 43.95612 ], [ -77.33135, 43.95369 ], [ -77.33285, 43.95347 ], [ -77.33585, 43.95215 ], [ -77.34037, 43.95108 ] ], [ [ -77.25011, 44.09794 ], [ -77.25036, 44.09823 ], [ -77.25079, 44.09814 ], [ -77.25085, 44.09724 ], [ -77.25033, 44.09729 ], [ -77.25011, 44.09794 ] ], [ [ -77.25883, 44.09807 ], [ -77.25814, 44.09763 ], [ -77.25771, 44.09778 ], [ -77.25724, 44.09819 ], [ -77.25728, 44.09849 ], [ -77.25856, 44.09842 ], [ -77.25883, 44.09807 ] ], [ [ -77.2582, 44.08993 ], [ -77.25865, 44.08868 ], [ -77.25787, 44.08856 ], [ -77.25713, 44.0893 ], [ -77.2582, 44.08993 ] ], [ [ -77.25859, 43.95802 ], [ -77.25797, 43.95747 ], [ -77.25766, 43.95795 ], [ -77.25829, 43.95822 ], [ -77.25859, 43.95802 ] ], [ [ -77.25906, 43.93376 ], [ -77.25877, 43.93302 ], [ -77.2584, 43.93292 ], [ -77.25756, 43.93357 ], [ -77.25878, 43.93401 ], [ -77.25906, 43.93376 ] ], [ [ -77.26224, 43.95982 ], [ -77.26205, 43.95944 ], [ -77.26132, 43.95959 ], [ -77.26162, 43.96001 ], [ -77.26224, 43.95982 ] ], [ [ -77.26232, 43.93524 ], [ -77.26197, 43.93559 ], [ -77.26264, 43.9359 ], [ -77.26296, 43.9355 ], [ -77.26232, 43.93524 ] ], [ [ -77.27849, 43.9548 ], [ -77.27814, 43.9545 ], [ -77.27773, 43.95477 ], [ -77.2781, 43.95506 ], [ -77.27849, 43.9548 ] ], [ [ -77.28693, 43.95797 ], [ -77.28769, 43.95754 ], [ -77.28705, 43.95689 ], [ -77.28585, 43.95714 ], [ -77.28604, 43.95841 ], [ -77.28663, 43.95843 ], [ -77.28693, 43.95797 ] ], [ [ -77.34196, 44.08546 ], [ -77.34267, 44.08481 ], [ -77.34183, 44.08449 ], [ -77.3409, 44.08504 ], [ -77.3411, 44.08533 ], [ -77.34196, 44.08546 ] ], [ [ -77.34429, 44.10745 ], [ -77.34219, 44.10748 ], [ -77.34183, 44.10786 ], [ -77.34215, 44.10806 ], [ -77.34286, 44.10787 ], [ -77.34427, 44.10802 ], [ -77.34467, 44.10774 ], [ -77.34429, 44.10745 ] ], [ [ -77.34356, 44.07211 ], [ -77.34358, 44.07164 ], [ -77.34279, 44.07177 ], [ -77.34296, 44.0722 ], [ -77.34356, 44.07211 ] ], [ [ -77.34493, 44.0735 ], [ -77.34519, 44.07256 ], [ -77.34469, 44.07191 ], [ -77.3438, 44.07193 ], [ -77.34408, 44.07329 ], [ -77.34493, 44.0735 ] ], [ [ -77.34537, 44.10712 ], [ -77.3453, 44.10741 ], [ -77.34568, 44.10757 ], [ -77.34684, 44.10723 ], [ -77.34702, 44.10697 ], [ -77.34655, 44.10668 ], [ -77.34537, 44.10712 ] ], [ [ -77.34881, 44.10579 ], [ -77.34864, 44.10545 ], [ -77.34791, 44.10546 ], [ -77.34761, 44.10617 ], [ -77.3481, 44.10632 ], [ -77.34881, 44.10579 ] ], [ [ -77.35342, 44.10484 ], [ -77.35381, 44.1047 ], [ -77.35379, 44.10434 ], [ -77.35292, 44.1043 ], [ -77.3521, 44.10337 ], [ -77.35169, 44.10343 ], [ -77.35098, 44.10414 ], [ -77.3512, 44.10451 ], [ -77.35212, 44.10465 ], [ -77.35283, 44.10451 ], [ -77.35342, 44.10484 ] ], [ [ -77.35214, 44.09907 ], [ -77.35163, 44.09888 ], [ -77.35088, 44.09949 ], [ -77.3514, 44.10019 ], [ -77.35195, 44.09999 ], [ -77.35214, 44.09907 ] ], [ [ -77.35364, 44.11023 ], [ -77.35396, 44.11004 ], [ -77.35387, 44.10969 ], [ -77.35301, 44.10979 ], [ -77.35301, 44.11016 ], [ -77.35364, 44.11023 ] ], [ [ -77.35385, 44.10119 ], [ -77.35411, 44.10154 ], [ -77.35458, 44.10135 ], [ -77.35433, 44.10101 ], [ -77.35385, 44.10119 ] ], [ [ -77.35722, 44.10082 ], [ -77.35707, 44.1012 ], [ -77.35762, 44.10128 ], [ -77.35774, 44.10091 ], [ -77.35722, 44.10082 ] ], [ [ -77.35896, 44.09572 ], [ -77.35836, 44.09511 ], [ -77.35773, 44.0955 ], [ -77.35752, 44.09758 ], [ -77.35807, 44.09797 ], [ -77.35865, 44.09771 ], [ -77.3587, 44.0973 ], [ -77.35822, 44.09663 ], [ -77.35896, 44.09572 ] ], [ [ -77.3586, 44.10059 ], [ -77.3583, 44.10095 ], [ -77.35886, 44.10111 ], [ -77.35909, 44.10077 ], [ -77.3586, 44.10059 ] ], [ [ -77.36054, 44.10104 ], [ -77.36069, 44.1001 ], [ -77.3601, 44.10007 ], [ -77.35963, 44.10071 ], [ -77.36054, 44.10104 ] ], [ [ -77.36306, 44.10063 ], [ -77.36282, 44.10099 ], [ -77.36336, 44.10117 ], [ -77.36356, 44.10079 ], [ -77.36306, 44.10063 ] ], [ [ -77.36444, 44.10103 ], [ -77.36407, 44.10131 ], [ -77.36447, 44.10157 ], [ -77.36483, 44.10129 ], [ -77.36444, 44.10103 ] ], [ [ -77.36593, 44.10075 ], [ -77.36601, 44.10115 ], [ -77.36654, 44.10108 ], [ -77.36646, 44.1007 ], [ -77.36593, 44.10075 ] ], [ [ -77.37244, 44.10017 ], [ -77.37216, 44.10058 ], [ -77.37285, 44.10067 ], [ -77.37299, 44.10028 ], [ -77.37244, 44.10017 ] ], [ [ -77.37833, 44.09996 ], [ -77.37793, 44.09987 ], [ -77.37766, 44.1001 ], [ -77.37816, 44.1008 ], [ -77.37859, 44.10056 ], [ -77.37833, 44.09996 ] ], [ [ -77.38649, 44.10227 ], [ -77.38662, 44.10182 ], [ -77.3857, 44.10141 ], [ -77.3853, 44.1015 ], [ -77.38561, 44.10226 ], [ -77.38649, 44.10227 ] ], [ [ -77.38677, 44.09821 ], [ -77.38677, 44.09748 ], [ -77.38631, 44.09732 ], [ -77.38593, 44.09748 ], [ -77.38569, 44.09805 ], [ -77.38634, 44.09841 ], [ -77.38677, 44.09821 ] ], [ [ -77.38851, 44.10318 ], [ -77.38807, 44.10259 ], [ -77.38773, 44.10273 ], [ -77.388, 44.1033 ], [ -77.38851, 44.10318 ] ], [ [ -77.43289, 44.05476 ], [ -77.43181, 44.05308 ], [ -77.43107, 44.05251 ], [ -77.43064, 44.05249 ], [ -77.4293, 44.05317 ], [ -77.42829, 44.0531 ], [ -77.42727, 44.05461 ], [ -77.4245, 44.05556 ], [ -77.42297, 44.05654 ], [ -77.4189, 44.05831 ], [ -77.4164, 44.06035 ], [ -77.41478, 44.06119 ], [ -77.41457, 44.06163 ], [ -77.41539, 44.06219 ], [ -77.41563, 44.06334 ], [ -77.41624, 44.06358 ], [ -77.41811, 44.06366 ], [ -77.41848, 44.06336 ], [ -77.41894, 44.06335 ], [ -77.41921, 44.0634 ], [ -77.41921, 44.06391 ], [ -77.4197, 44.06405 ], [ -77.42097, 44.06367 ], [ -77.42229, 44.06359 ], [ -77.42455, 44.06191 ], [ -77.42696, 44.06072 ], [ -77.42942, 44.05905 ], [ -77.43079, 44.05922 ], [ -77.43159, 44.0589 ], [ -77.43252, 44.05743 ], [ -77.43196, 44.0563 ], [ -77.43289, 44.05476 ] ], [ [ -77.50694, 43.99528 ], [ -77.51053, 43.99384 ], [ -77.51124, 43.99319 ], [ -77.51121, 43.99291 ], [ -77.50973, 43.99208 ], [ -77.50719, 43.99128 ], [ -77.50546, 43.99212 ], [ -77.50372, 43.99191 ], [ -77.49974, 43.98995 ], [ -77.49909, 43.98983 ], [ -77.49795, 43.99061 ], [ -77.49818, 43.99132 ], [ -77.49751, 43.99239 ], [ -77.49755, 43.9941 ], [ -77.49544, 43.99468 ], [ -77.49506, 43.99436 ], [ -77.49524, 43.99391 ], [ -77.49424, 43.99333 ], [ -77.49341, 43.99348 ], [ -77.493, 43.99309 ], [ -77.49237, 43.99331 ], [ -77.49248, 43.99369 ], [ -77.49317, 43.99369 ], [ -77.4936, 43.99446 ], [ -77.49366, 43.99532 ], [ -77.49307, 43.99621 ], [ -77.49221, 43.99635 ], [ -77.49211, 43.9968 ], [ -77.49023, 43.99404 ], [ -77.48925, 43.99374 ], [ -77.48817, 43.99268 ], [ -77.48734, 43.99223 ], [ -77.48608, 43.9923 ], [ -77.48166, 43.99372 ], [ -77.47891, 43.99489 ], [ -77.47804, 43.99538 ], [ -77.47768, 43.99617 ], [ -77.47733, 43.9963 ], [ -77.47587, 43.99612 ], [ -77.4733, 43.99619 ], [ -77.47271, 43.99651 ], [ -77.47221, 43.99719 ], [ -77.47052, 43.99789 ], [ -77.46899, 43.99812 ], [ -77.46758, 43.9987 ], [ -77.46656, 43.99876 ], [ -77.46375, 43.99973 ], [ -77.46213, 43.99992 ], [ -77.45553, 44.00245 ], [ -77.45364, 44.00343 ], [ -77.45171, 44.00378 ], [ -77.44459, 44.00601 ], [ -77.43995, 44.00796 ], [ -77.43674, 44.00823 ], [ -77.43504, 44.0089 ], [ -77.4334, 44.00912 ], [ -77.427, 44.01127 ], [ -77.42395, 44.01166 ], [ -77.42331, 44.01159 ], [ -77.4229, 44.01113 ], [ -77.42245, 44.0111 ], [ -77.42059, 44.01247 ], [ -77.42061, 44.01358 ], [ -77.42182, 44.01488 ], [ -77.4218, 44.01543 ], [ -77.42262, 44.01555 ], [ -77.42369, 44.01637 ], [ -77.42739, 44.01653 ], [ -77.43079, 44.01612 ], [ -77.4397, 44.01416 ], [ -77.44687, 44.01365 ], [ -77.44938, 44.01281 ], [ -77.45125, 44.01283 ], [ -77.4557, 44.01205 ], [ -77.46049, 44.01082 ], [ -77.47241, 44.00702 ], [ -77.4825, 44.00565 ], [ -77.48462, 44.00435 ], [ -77.48535, 44.00336 ], [ -77.48842, 44.00211 ], [ -77.48971, 44.0003 ], [ -77.49143, 43.99984 ], [ -77.49296, 43.99891 ], [ -77.49301, 43.99853 ], [ -77.49215, 43.99686 ], [ -77.49338, 43.99811 ], [ -77.49704, 43.99872 ], [ -77.49973, 43.9989 ], [ -77.50311, 43.99818 ], [ -77.50471, 43.99861 ], [ -77.50502, 43.99844 ], [ -77.50524, 43.99768 ], [ -77.5041, 43.99702 ], [ -77.50543, 43.99668 ], [ -77.50649, 43.99693 ], [ -77.50738, 43.99664 ], [ -77.50747, 43.99633 ], [ -77.50695, 43.99605 ], [ -77.50694, 43.99528 ] ], [ [ -77.46741, 43.94464 ], [ -77.46721, 43.94428 ], [ -77.4667, 43.94416 ], [ -77.46639, 43.94432 ], [ -77.46685, 43.94486 ], [ -77.46741, 43.94464 ] ], [ [ -77.47977, 43.93823 ], [ -77.47981, 43.93783 ], [ -77.47921, 43.9378 ], [ -77.47741, 43.93874 ], [ -77.47727, 43.93917 ], [ -77.47778, 43.93929 ], [ -77.47977, 43.93823 ] ], [ [ -77.49432, 43.93979 ], [ -77.49473, 43.93759 ], [ -77.49445, 43.93702 ], [ -77.49286, 43.93562 ], [ -77.49136, 43.93561 ], [ -77.48783, 43.9365 ], [ -77.48682, 43.9366 ], [ -77.48622, 43.93627 ], [ -77.48684, 43.93572 ], [ -77.48856, 43.93504 ], [ -77.48956, 43.93393 ], [ -77.4908, 43.93395 ], [ -77.4915, 43.93339 ], [ -77.4923, 43.93315 ], [ -77.49275, 43.93196 ], [ -77.49202, 43.9317 ], [ -77.49193, 43.93133 ], [ -77.49128, 43.93084 ], [ -77.4875, 43.93189 ], [ -77.4849, 43.93208 ], [ -77.48395, 43.93248 ], [ -77.48354, 43.93305 ], [ -77.48393, 43.93416 ], [ -77.48373, 43.93462 ], [ -77.48448, 43.93483 ], [ -77.48452, 43.93505 ], [ -77.48373, 43.93572 ], [ -77.48147, 43.93665 ], [ -77.48026, 43.93744 ], [ -77.48046, 43.9377 ], [ -77.48138, 43.9379 ], [ -77.48318, 43.93732 ], [ -77.48423, 43.93745 ], [ -77.48382, 43.93784 ], [ -77.48072, 43.93917 ], [ -77.48075, 43.93984 ], [ -77.48364, 43.93994 ], [ -77.48517, 43.93911 ], [ -77.48578, 43.93921 ], [ -77.48675, 43.93898 ], [ -77.48728, 43.93972 ], [ -77.4881, 43.93976 ], [ -77.48695, 43.94054 ], [ -77.48688, 43.94098 ], [ -77.48747, 43.9415 ], [ -77.48866, 43.94192 ], [ -77.49157, 43.94106 ], [ -77.49234, 43.94017 ], [ -77.49432, 43.93979 ] ], [ [ -77.49266, 43.99539 ], [ -77.49145, 43.99385 ], [ -77.49072, 43.99388 ], [ -77.49085, 43.99457 ], [ -77.4919, 43.99583 ], [ -77.49266, 43.99539 ] ], [ [ -77.53023, 43.96356 ], [ -77.53033, 43.96313 ], [ -77.52809, 43.9622 ], [ -77.52674, 43.96066 ], [ -77.52458, 43.95949 ], [ -77.52335, 43.95753 ], [ -77.52409, 43.95687 ], [ -77.52419, 43.95638 ], [ -77.52373, 43.95579 ], [ -77.52353, 43.95476 ], [ -77.52321, 43.95457 ], [ -77.52264, 43.9549 ], [ -77.52195, 43.95622 ], [ -77.52179, 43.95731 ], [ -77.52088, 43.95805 ], [ -77.52062, 43.95859 ], [ -77.51697, 43.96113 ], [ -77.51702, 43.96018 ], [ -77.51642, 43.96006 ], [ -77.51471, 43.96141 ], [ -77.51373, 43.96263 ], [ -77.51401, 43.96291 ], [ -77.51517, 43.96287 ], [ -77.51568, 43.96341 ], [ -77.51657, 43.96354 ], [ -77.51712, 43.96458 ], [ -77.51852, 43.96462 ], [ -77.51914, 43.96506 ], [ -77.51961, 43.96608 ], [ -77.5202, 43.96659 ], [ -77.52194, 43.96652 ], [ -77.52359, 43.96726 ], [ -77.52501, 43.96698 ], [ -77.52584, 43.96552 ], [ -77.52784, 43.96462 ], [ -77.52856, 43.96388 ], [ -77.53023, 43.96356 ] ], [ [ -77.57165, 44.05427 ], [ -77.57142, 44.05462 ], [ -77.57193, 44.05483 ], [ -77.5722, 44.05441 ], [ -77.57165, 44.05427 ] ], [ [ -77.57637, 44.05375 ], [ -77.57651, 44.05413 ], [ -77.57705, 44.05402 ], [ -77.5769, 44.05365 ], [ -77.57637, 44.05375 ] ], [ [ -77.58873, 44.02857 ], [ -77.58941, 44.02757 ], [ -77.5888, 44.02749 ], [ -77.58813, 44.02842 ], [ -77.58873, 44.02857 ] ], [ [ -76.98968, 43.98746 ], [ -76.98952, 43.98882 ], [ -76.98844, 43.98986 ], [ -76.98902, 43.9914 ], [ -76.98886, 43.99219 ], [ -76.98831, 43.99269 ], [ -76.98408, 43.99486 ], [ -76.97854, 43.99608 ], [ -76.97634, 43.9973 ], [ -76.97508, 43.99759 ], [ -76.97341, 43.99845 ], [ -76.97204, 43.99979 ], [ -76.97202, 44.00033 ], [ -76.97146, 44.00096 ], [ -76.97165, 44.00239 ], [ -76.97246, 44.0033 ], [ -76.97102, 44.00328 ], [ -76.97072, 44.00293 ], [ -76.96943, 44.00251 ], [ -76.96592, 44.0026 ], [ -76.96297, 44.00294 ], [ -76.96277, 44.0028 ], [ -76.96342, 44.00032 ], [ -76.9628, 44.00003 ], [ -76.9637, 43.99907 ], [ -76.96327, 43.99742 ], [ -76.96248, 43.99673 ], [ -76.96241, 43.99617 ], [ -76.96305, 43.99499 ], [ -76.96634, 43.99134 ], [ -76.96625, 43.98556 ], [ -76.96751, 43.98381 ], [ -76.97121, 43.98102 ], [ -76.97707, 43.9781 ], [ -76.98004, 43.97713 ], [ -76.98284, 43.97697 ], [ -76.9837, 43.9776 ], [ -76.98497, 43.98084 ], [ -76.98733, 43.98104 ], [ -76.98786, 43.98144 ], [ -76.98778, 43.98211 ], [ -76.986, 43.98287 ], [ -76.98596, 43.98548 ], [ -76.98534, 43.98666 ], [ -76.98542, 43.98745 ], [ -76.98645, 43.98812 ], [ -76.98843, 43.9873 ], [ -76.9893, 43.98718 ], [ -76.98968, 43.98746 ] ], [ [ -77.24734, 44.09609 ], [ -77.24757, 44.09659 ], [ -77.24604, 44.09654 ], [ -77.24647, 44.09591 ], [ -77.24734, 44.09609 ] ], [ [ -77.32165, 44.12423 ], [ -77.32066, 44.12577 ], [ -77.31885, 44.12668 ], [ -77.31641, 44.12701 ], [ -77.31513, 44.12683 ], [ -77.31508, 44.126 ], [ -77.31547, 44.12534 ], [ -77.31757, 44.12403 ], [ -77.31969, 44.12329 ], [ -77.32159, 44.12389 ], [ -77.32165, 44.12423 ] ] ] } }
]
}
